{
"type": "FeatureCollection",
"crs": { "type": "name", "properties": { "name": "urn:ogc:def:crs:OGC:1.3:CRS84" } },
"features": [
{ "type": "Feature", "properties": { "ZIP": "10017", "address": "250 Broadway", "borough": "New York", "chain_name": "Subway", "latitude": 40.7129, "longitude": -74.0075, "state": "NY" }, "geometry": { "type": "Point", "coordinates": [ -74.0075, 40.7129 ] } },
{ "type": "Feature", "properties": { "ZIP": "10007", "address": "165 Church St", "borough": "New York", "chain_name": "Subway", "latitude": 40.7151, "longitude": -74.0077, "state": "NY" }, "geometry": { "type": "Point", "coordinates": [ -74.0077, 40.7151 ] } },
{ "type": "Feature", "properties": { "ZIP": "10022", "address": "45 Beekman Street", "borough": "New York", "chain_name": "Subway", "latitude": 40.71, "longitude": -74.0055, "state": "NY" }, "geometry": { "type": "Point", "coordinates": [ -74.0055, 40.71 ] } },
{ "type": "Feature", "properties": { "ZIP": "10007", "address": "51 Murray Street", "borough": "New York", "chain_name": "Subway", "latitude": 40.7143, "longitude": -74.0094, "state": "NY" }, "geometry": { "type": "Point", "coordinates": [ -74.0094, 40.7143 ] } },
{ "type": "Feature", "properties": { "ZIP": "10013", "address": "90 Worth Street", "borough": "New York", "chain_name": "Subway", "latitude": 40.7164, "longitude": -74.005, "state": "NY" }, "geometry": { "type": "Point", "coordinates": [ -74.005, 40.7164 ] } },
{ "type": "Feature", "properties": { "ZIP": "10038", "address": "21-23 Maiden Lane", "borough": "New York", "chain_name": "Subway", "latitude": 40.7094, "longitude": -74.009, "state": "NY" }, "geometry": { "type": "Point", "coordinates": [ -74.009, 40.7094 ] } },
{ "type": "Feature", "properties": { "ZIP": "10007", "address": "153 Chambers St", "borough": "New York", "chain_name": "Subway", "latitude": 40.7159, "longitude": -74.0101, "state": "NY" }, "geometry": { "type": "Point", "coordinates": [ -74.0101, 40.7159 ] } },
{ "type": "Feature", "properties": { "ZIP": "10038", "address": "112 John St", "borough": "New York", "chain_name": "Subway", "latitude": 40.7077, "longitude": -74.006, "state": "NY" }, "geometry": { "type": "Point", "coordinates": [ -74.006, 40.7077 ] } },
{ "type": "Feature", "properties": { "ZIP": "10006", "address": "111 Broadway", "borough": "New York", "chain_name": "Subway", "latitude": 40.7085, "longitude": -74.0113, "state": "NY" }, "geometry": { "type": "Point", "coordinates": [ -74.0113, 40.7085 ] } },
{ "type": "Feature", "properties": { "ZIP": "10013", "address": "297 Church St", "borough": "New York", "chain_name": "Subway", "latitude": 40.7192, "longitude": -74.0044, "state": "NY" }, "geometry": { "type": "Point", "coordinates": [ -74.0044, 40.7192 ] } },
{ "type": "Feature", "properties": { "ZIP": "10007", "address": "106 Greenwich St", "borough": "New York", "chain_name": "Subway", "latitude": 40.7085, "longitude": -74.0137, "state": "NY" }, "geometry": { "type": "Point", "coordinates": [ -74.0137, 40.7085 ] } },
{ "type": "Feature", "properties": { "ZIP": "10013", "address": "174 Canal Street", "borough": "New York", "chain_name": "Subway", "latitude": 40.7166, "longitude": -73.9975, "state": "NY" }, "geometry": { "type": "Point", "coordinates": [ -73.9975, 40.7166 ] } },
{ "type": "Feature", "properties": { "ZIP": "10004", "address": "30 Broad Street", "borough": "New York", "chain_name": "Subway", "latitude": 40.7061, "longitude": -74.0115, "state": "NY" }, "geometry": { "type": "Point", "coordinates": [ -74.0115, 40.7061 ] } },
{ "type": "Feature", "properties": { "ZIP": "10004", "address": "11 Broadway", "borough": "New York", "chain_name": "Subway", "latitude": 40.7053, "longitude": -74.014, "state": "NY" }, "geometry": { "type": "Point", "coordinates": [ -74.014, 40.7053 ] } },
{ "type": "Feature", "properties": { "ZIP": "10004", "address": "28 Water Street", "borough": "New York", "chain_name": "Subway", "latitude": 40.7033, "longitude": -74.0111, "state": "NY" }, "geometry": { "type": "Point", "coordinates": [ -74.0111, 40.7033 ] } },
{ "type": "Feature", "properties": { "ZIP": "10002", "address": "334 Grand Street", "borough": "New York", "chain_name": "Subway", "latitude": 40.7172, "longitude": -73.99, "state": "NY" }, "geometry": { "type": "Point", "coordinates": [ -73.99, 40.7172 ] } },
{ "type": "Feature", "properties": { "ZIP": "10002", "address": "64 Delancey Street", "borough": "New York", "chain_name": "Subway", "latitude": 40.7193, "longitude": -73.9912, "state": "NY" }, "geometry": { "type": "Point", "coordinates": [ -73.9912, 40.7193 ] } },
{ "type": "Feature", "properties": { "ZIP": "10002", "address": "221 East Broadway", "borough": "New York", "chain_name": "Subway", "latitude": 40.7141, "longitude": -73.987, "state": "NY" }, "geometry": { "type": "Point", "coordinates": [ -73.987, 40.7141 ] } },
{ "type": "Feature", "properties": { "ZIP": "10002", "address": "229 Chrystie Street", "borough": "New York", "chain_name": "Subway", "latitude": 40.7233, "longitude": -73.9913, "state": "NY" }, "geometry": { "type": "Point", "coordinates": [ -73.9913, 40.7233 ] } },
{ "type": "Feature", "properties": { "ZIP": "10014", "address": "228 West Houston Street", "borough": "New York", "chain_name": "Subway", "latitude": 40.7287, "longitude": -74.005, "state": "NY" }, "geometry": { "type": "Point", "coordinates": [ -74.005, 40.7287 ] } },
{ "type": "Feature", "properties": { "ZIP": "10002", "address": "250 E Houston St", "borough": "New York", "chain_name": "Subway", "latitude": 40.7214, "longitude": -73.9855, "state": "NY" }, "geometry": { "type": "Point", "coordinates": [ -73.9855, 40.7214 ] } },
{ "type": "Feature", "properties": { "ZIP": "10009", "address": "108 First Avenue", "borough": "New York", "chain_name": "Subway", "latitude": 40.7267, "longitude": -73.986, "state": "NY" }, "geometry": { "type": "Point", "coordinates": [ -73.986, 40.7267 ] } },
{ "type": "Feature", "properties": { "ZIP": "10003", "address": "29 East 8th Street", "borough": "New York", "chain_name": "Subway", "latitude": 40.7316, "longitude": -73.9944, "state": "NY" }, "geometry": { "type": "Point", "coordinates": [ -73.9944, 40.7316 ] } },
{ "type": "Feature", "properties": { "ZIP": "10011", "address": "162 West 13th Street", "borough": "New York", "chain_name": "Subway", "latitude": 40.7375, "longitude": -74.0001, "state": "NY" }, "geometry": { "type": "Point", "coordinates": [ -74.0001, 40.7375 ] } },
{ "type": "Feature", "properties": { "ZIP": "10003", "address": "113 E. 14th Street", "borough": "New York", "chain_name": "Subway", "latitude": 40.7348, "longitude": -73.9898, "state": "NY" }, "geometry": { "type": "Point", "coordinates": [ -73.9898, 40.7348 ] } },
{ "type": "Feature", "properties": { "ZIP": "10003", "address": "7 East 14th St", "borough": "New York", "chain_name": "Subway", "latitude": 40.7359, "longitude": -73.9925, "state": "NY" }, "geometry": { "type": "Point", "coordinates": [ -73.9925, 40.7359 ] } },
{ "type": "Feature", "properties": { "ZIP": "10003", "address": "153 Third Ave", "borough": "New York", "chain_name": "Subway", "latitude": 40.7342, "longitude": -73.9863, "state": "NY" }, "geometry": { "type": "Point", "coordinates": [ -73.9863, 40.7342 ] } },
{ "type": "Feature", "properties": { "ZIP": "10009", "address": "223 Avenue B", "borough": "New York", "chain_name": "Subway", "latitude": 40.7291, "longitude": -73.9782, "state": "NY" }, "geometry": { "type": "Point", "coordinates": [ -73.9782, 40.7291 ] } },
{ "type": "Feature", "properties": { "ZIP": "10003", "address": "317 First Avenue", "borough": "New York", "chain_name": "Subway", "latitude": 40.7342, "longitude": -73.9809, "state": "NY" }, "geometry": { "type": "Point", "coordinates": [ -73.9809, 40.7342 ] } },
{ "type": "Feature", "properties": { "ZIP": "10011", "address": "300 West 17th St", "borough": "New York", "chain_name": "Subway", "latitude": 40.7431, "longitude": -74.0041, "state": "NY" }, "geometry": { "type": "Point", "coordinates": [ -74.0041, 40.7431 ] } },
{ "type": "Feature", "properties": { "ZIP": "10011", "address": "220 Eighth Avenue", "borough": "New York", "chain_name": "Subway", "latitude": 40.7441, "longitude": -73.9992, "state": "NY" }, "geometry": { "type": "Point", "coordinates": [ -73.9992, 40.7441 ] } },
{ "type": "Feature", "properties": { "ZIP": "10011", "address": "170 West 23rd St", "borough": "New York", "chain_name": "Subway", "latitude": 40.7437, "longitude": -73.9953, "state": "NY" }, "geometry": { "type": "Point", "coordinates": [ -73.9953, 40.7437 ] } },
{ "type": "Feature", "properties": { "ZIP": "10010", "address": "421 Second Ave", "borough": "New York", "chain_name": "Subway", "latitude": 40.7389, "longitude": -73.9806, "state": "NY" }, "geometry": { "type": "Point", "coordinates": [ -73.9806, 40.7389 ] } },
{ "type": "Feature", "properties": { "ZIP": "10010", "address": "61 Lexington Avenue", "borough": "New York", "chain_name": "Subway", "latitude": 40.7409, "longitude": -73.9836, "state": "NY" }, "geometry": { "type": "Point", "coordinates": [ -73.9836, 40.7409 ] } },
{ "type": "Feature", "properties": { "ZIP": "10001", "address": "175 W 26th St", "borough": "New York", "chain_name": "Subway", "latitude": 40.7459, "longitude": -73.9939, "state": "NY" }, "geometry": { "type": "Point", "coordinates": [ -73.9939, 40.7459 ] } },
{ "type": "Feature", "properties": { "ZIP": "10016", "address": "371 Third Avenue", "borough": "New York", "chain_name": "Subway", "latitude": 40.7426, "longitude": -73.9808, "state": "NY" }, "geometry": { "type": "Point", "coordinates": [ -73.9808, 40.7426 ] } },
{ "type": "Feature", "properties": { "ZIP": "10016", "address": "437 Park Ave S", "borough": "New York", "chain_name": "Subway", "latitude": 40.7443, "longitude": -73.9832, "state": "NY" }, "geometry": { "type": "Point", "coordinates": [ -73.9832, 40.7443 ] } },
{ "type": "Feature", "properties": { "ZIP": "10001", "address": "250 Tenth Avenue", "borough": "New York", "chain_name": "Subway", "latitude": 40.7487, "longitude": -74.0033, "state": "NY" }, "geometry": { "type": "Point", "coordinates": [ -74.0033, 40.7487 ] } },
{ "type": "Feature", "properties": { "ZIP": "10001", "address": "156 W 29th St", "borough": "New York", "chain_name": "Subway", "latitude": 40.7475, "longitude": -73.9922, "state": "NY" }, "geometry": { "type": "Point", "coordinates": [ -73.9922, 40.7475 ] } },
{ "type": "Feature", "properties": { "ZIP": "10001", "address": "302 5th Ave", "borough": "New York", "chain_name": "Subway", "latitude": 40.7467, "longitude": -73.9863, "state": "NY" }, "geometry": { "type": "Point", "coordinates": [ -73.9863, 40.7467 ] } },
{ "type": "Feature", "properties": { "ZIP": "10016", "address": "577 2nd Avenue", "borough": "New York", "chain_name": "Subway", "latitude": 40.7434, "longitude": -73.9773, "state": "NY" }, "geometry": { "type": "Point", "coordinates": [ -73.9773, 40.7434 ] } },
{ "type": "Feature", "properties": { "ZIP": "10016", "address": "489-91Third Avenue", "borough": "New York", "chain_name": "Subway", "latitude": 40.7452, "longitude": -73.9784, "state": "NY" }, "geometry": { "type": "Point", "coordinates": [ -73.9784, 40.7452 ] } },
{ "type": "Feature", "properties": { "ZIP": "10001", "address": "35 W 33rd St", "borough": "New York", "chain_name": "Subway", "latitude": 40.7486, "longitude": -73.9867, "state": "NY" }, "geometry": { "type": "Point", "coordinates": [ -73.9867, 40.7486 ] } },
{ "type": "Feature", "properties": { "ZIP": "10001", "address": "366 Fifth Ave", "borough": "New York", "chain_name": "Subway", "latitude": 40.749, "longitude": -73.9847, "state": "NY" }, "geometry": { "type": "Point", "coordinates": [ -73.9847, 40.749 ] } },
{ "type": "Feature", "properties": { "ZIP": "10019", "address": "One Penn Plaza", "borough": "New York", "chain_name": "Subway", "latitude": 40.7512, "longitude": -73.9925, "state": "NY" }, "geometry": { "type": "Point", "coordinates": [ -73.9925, 40.7512 ] } },
{ "type": "Feature", "properties": { "ZIP": "10001", "address": "367 West 34th St", "borough": "New York", "chain_name": "Subway", "latitude": 40.7534, "longitude": -73.9959, "state": "NY" }, "geometry": { "type": "Point", "coordinates": [ -73.9959, 40.7534 ] } },
{ "type": "Feature", "properties": { "ZIP": "10001", "address": "455 West 34th Street", "borough": "New York", "chain_name": "Subway", "latitude": 40.7545, "longitude": -73.9984, "state": "NY" }, "geometry": { "type": "Point", "coordinates": [ -73.9984, 40.7545 ] } },
{ "type": "Feature", "properties": { "ZIP": "10018", "address": "512 7th Ave", "borough": "New York", "chain_name": "Subway", "latitude": 40.7534, "longitude": -73.989, "state": "NY" }, "geometry": { "type": "Point", "coordinates": [ -73.989, 40.7534 ] } },
{ "type": "Feature", "properties": { "ZIP": "10018", "address": "32 West 39th Street", "borough": "New York", "chain_name": "Subway", "latitude": 40.7521, "longitude": -73.984, "state": "NY" }, "geometry": { "type": "Point", "coordinates": [ -73.984, 40.7521 ] } },
{ "type": "Feature", "properties": { "ZIP": "10018", "address": "1400 Broadway", "borough": "New York", "chain_name": "Subway", "latitude": 40.7532, "longitude": -73.9863, "state": "NY" }, "geometry": { "type": "Point", "coordinates": [ -73.9863, 40.7532 ] } },
{ "type": "Feature", "properties": { "ZIP": "10024", "address": "321 1\/2 Amsterdam Avenue", "borough": "New York", "chain_name": "Subway", "latitude": 40.7818, "longitude": -73.9793, "state": "NY" }, "geometry": { "type": "Point", "coordinates": [ -73.9793, 40.7818 ] } },
{ "type": "Feature", "properties": { "ZIP": "10025", "address": "731 Columbus Ave", "borough": "New York", "chain_name": "Subway", "latitude": 40.7924, "longitude": -73.9681, "state": "NY" }, "geometry": { "type": "Point", "coordinates": [ -73.9681, 40.7924 ] } },
{ "type": "Feature", "properties": { "ZIP": "10025", "address": "2508 Broadway", "borough": "New York", "chain_name": "Subway", "latitude": 40.7929, "longitude": -73.9728, "state": "NY" }, "geometry": { "type": "Point", "coordinates": [ -73.9728, 40.7929 ] } },
{ "type": "Feature", "properties": { "ZIP": "10028", "address": "1256 Lexington Ave", "borough": "New York", "chain_name": "Subway", "latitude": 40.7787, "longitude": -73.9564, "state": "NY" }, "geometry": { "type": "Point", "coordinates": [ -73.9564, 40.7787 ] } },
{ "type": "Feature", "properties": { "ZIP": "10029", "address": "1392 Madison Ave", "borough": "New York", "chain_name": "Subway", "latitude": 40.7877, "longitude": -73.954, "state": "NY" }, "geometry": { "type": "Point", "coordinates": [ -73.954, 40.7877 ] } },
{ "type": "Feature", "properties": { "ZIP": "10128", "address": "1434 Lexington Ave", "borough": "New York", "chain_name": "Subway", "latitude": 40.7844, "longitude": -73.9523, "state": "NY" }, "geometry": { "type": "Point", "coordinates": [ -73.9523, 40.7844 ] } },
{ "type": "Feature", "properties": { "ZIP": "10075", "address": "1613 Second Ave", "borough": "New York", "chain_name": "Subway", "latitude": 40.7764, "longitude": -73.953, "state": "NY" }, "geometry": { "type": "Point", "coordinates": [ -73.953, 40.7764 ] } },
{ "type": "Feature", "properties": { "ZIP": "10025-4412", "address": "2699 Broadway", "borough": "New York", "chain_name": "Subway", "latitude": 40.799, "longitude": -73.9691, "state": "NY" }, "geometry": { "type": "Point", "coordinates": [ -73.9691, 40.799 ] } },
{ "type": "Feature", "properties": { "ZIP": "10028", "address": "1661 1st Ave", "borough": "New York", "chain_name": "Subway", "latitude": 40.7774, "longitude": -73.9494, "state": "NY" }, "geometry": { "type": "Point", "coordinates": [ -73.9494, 40.7774 ] } },
{ "type": "Feature", "properties": { "ZIP": "10023", "address": "33 West End Avenue", "borough": "New York", "chain_name": "Subway", "latitude": 40.7726, "longitude": -73.9902, "state": "NY" }, "geometry": { "type": "Point", "coordinates": [ -73.9902, 40.7726 ] } },
{ "type": "Feature", "properties": { "ZIP": "10019", "address": "314 W 58th St", "borough": "New York", "chain_name": "Subway", "latitude": 40.7677, "longitude": -73.9833, "state": "NY" }, "geometry": { "type": "Point", "coordinates": [ -73.9833, 40.7677 ] } },
{ "type": "Feature", "properties": { "ZIP": "10027", "address": "1873 Second Ave", "borough": "New York", "chain_name": "Subway", "latitude": 40.7845, "longitude": -73.947, "state": "NY" }, "geometry": { "type": "Point", "coordinates": [ -73.947, 40.7845 ] } },
{ "type": "Feature", "properties": { "ZIP": "10025", "address": "971 Amsterdam Avenue", "borough": "New York", "chain_name": "Subway", "latitude": 40.8014, "longitude": -73.9646, "state": "NY" }, "geometry": { "type": "Point", "coordinates": [ -73.9646, 40.8014 ] } },
{ "type": "Feature", "properties": { "ZIP": "10028", "address": "1521-1523 York Ave", "borough": "New York", "chain_name": "Subway", "latitude": 40.7726, "longitude": -73.9498, "state": "NY" }, "geometry": { "type": "Point", "coordinates": [ -73.9498, 40.7726 ] } },
{ "type": "Feature", "properties": { "ZIP": "10019", "address": "852 10th Ave", "borough": "New York", "chain_name": "Subway", "latitude": 40.7685, "longitude": -73.9889, "state": "NY" }, "geometry": { "type": "Point", "coordinates": [ -73.9889, 40.7685 ] } },
{ "type": "Feature", "properties": { "ZIP": "10019", "address": "873 Seventh Ave", "borough": "New York", "chain_name": "Subway", "latitude": 40.7642, "longitude": -73.9795, "state": "NY" }, "geometry": { "type": "Point", "coordinates": [ -73.9795, 40.7642 ] } },
{ "type": "Feature", "properties": { "ZIP": "10021", "address": "1427 York Avenue", "borough": "New York", "chain_name": "Subway", "latitude": 40.7692, "longitude": -73.9522, "state": "NY" }, "geometry": { "type": "Point", "coordinates": [ -73.9522, 40.7692 ] } },
{ "type": "Feature", "properties": { "ZIP": "10021", "address": "1269-1271 First Avenue", "borough": "New York", "chain_name": "Subway", "latitude": 40.7655, "longitude": -73.9578, "state": "NY" }, "geometry": { "type": "Point", "coordinates": [ -73.9578, 40.7655 ] } },
{ "type": "Feature", "properties": { "ZIP": "10026", "address": "111 Central Park North", "borough": "New York", "chain_name": "Subway", "latitude": 40.7984, "longitude": -73.9534, "state": "NY" }, "geometry": { "type": "Point", "coordinates": [ -73.9534, 40.7984 ] } },
{ "type": "Feature", "properties": { "ZIP": "10029", "address": "1885 3rd Ave", "borough": "New York", "chain_name": "Subway", "latitude": 40.7903, "longitude": -73.9452, "state": "NY" }, "geometry": { "type": "Point", "coordinates": [ -73.9452, 40.7903 ] } },
{ "type": "Feature", "properties": { "ZIP": "10019", "address": "250 West 54th St", "borough": "New York", "chain_name": "Subway", "latitude": 40.7639, "longitude": -73.9835, "state": "NY" }, "geometry": { "type": "Point", "coordinates": [ -73.9835, 40.7639 ] } },
{ "type": "Feature", "properties": { "ZIP": "10065", "address": "1171 2nd Avenue", "borough": "New York", "chain_name": "Subway", "latitude": 40.7623, "longitude": -73.9633, "state": "NY" }, "geometry": { "type": "Point", "coordinates": [ -73.9633, 40.7623 ] } },
{ "type": "Feature", "properties": { "ZIP": "10022", "address": "692 Lexington Ave", "borough": "New York", "chain_name": "Subway", "latitude": 40.7607, "longitude": -73.9693, "state": "NY" }, "geometry": { "type": "Point", "coordinates": [ -73.9693, 40.7607 ] } },
{ "type": "Feature", "properties": { "ZIP": "10103", "address": "666 5th Avenue", "borough": "New York", "chain_name": "Subway", "latitude": 40.7604, "longitude": -73.9769, "state": "NY" }, "geometry": { "type": "Point", "coordinates": [ -73.9769, 40.7604 ] } },
{ "type": "Feature", "properties": { "ZIP": "10022", "address": "1285 Avenue of the Americas", "borough": "New York", "chain_name": "Subway", "latitude": 40.7608, "longitude": -73.98, "state": "NY" }, "geometry": { "type": "Point", "coordinates": [ -73.98, 40.7608 ] } },
{ "type": "Feature", "properties": { "ZIP": "10019", "address": "600 West 52nd Street", "borough": "New York", "chain_name": "Subway", "latitude": 40.7669, "longitude": -73.9943, "state": "NY" }, "geometry": { "type": "Point", "coordinates": [ -73.9943, 40.7669 ] } },
{ "type": "Feature", "properties": { "ZIP": "10019", "address": "214 West 50th St", "borough": "New York", "chain_name": "Subway", "latitude": 40.7615, "longitude": -73.9848, "state": "NY" }, "geometry": { "type": "Point", "coordinates": [ -73.9848, 40.7615 ] } },
{ "type": "Feature", "properties": { "ZIP": "10111", "address": "30 Rockefeller Plaza", "borough": "New York", "chain_name": "Subway", "latitude": 40.7591, "longitude": -73.9797, "state": "NY" }, "geometry": { "type": "Point", "coordinates": [ -73.9797, 40.7591 ] } },
{ "type": "Feature", "properties": { "ZIP": "10027", "address": "2165-2169 Fredrick Douglas Blv", "borough": "New York", "chain_name": "Subway", "latitude": 40.8049, "longitude": -73.9554, "state": "NY" }, "geometry": { "type": "Point", "coordinates": [ -73.9554, 40.8049 ] } },
{ "type": "Feature", "properties": { "ZIP": "10044", "address": "900 Main St", "borough": "Roosevelt Island", "chain_name": "Subway", "latitude": 40.7704, "longitude": -73.9422, "state": "NY" }, "geometry": { "type": "Point", "coordinates": [ -73.9422, 40.7704 ] } },
{ "type": "Feature", "properties": { "ZIP": "10026", "address": "157 W. 117th Street", "borough": "New York", "chain_name": "Subway", "latitude": 40.8037, "longitude": -73.9516, "state": "NY" }, "geometry": { "type": "Point", "coordinates": [ -73.9516, 40.8037 ] } },
{ "type": "Feature", "properties": { "ZIP": "10013", "address": "866 Third Ave", "borough": "New York", "chain_name": "Subway", "latitude": 40.7575, "longitude": -73.9697, "state": "NY" }, "geometry": { "type": "Point", "coordinates": [ -73.9697, 40.7575 ] } },
{ "type": "Feature", "properties": { "ZIP": "10022", "address": "875 Third Ave", "borough": "New York", "chain_name": "Subway", "latitude": 40.7573, "longitude": -73.9695, "state": "NY" }, "geometry": { "type": "Point", "coordinates": [ -73.9695, 40.7573 ] } },
{ "type": "Feature", "properties": { "ZIP": "10036", "address": "765 8th Avenue", "borough": "New York", "chain_name": "Subway", "latitude": 40.7604, "longitude": -73.9879, "state": "NY" }, "geometry": { "type": "Point", "coordinates": [ -73.9879, 40.7604 ] } },
{ "type": "Feature", "properties": { "ZIP": "10036", "address": "150 West 47th Street", "borough": "New York", "chain_name": "Subway", "latitude": 40.7587, "longitude": -73.9838, "state": "NY" }, "geometry": { "type": "Point", "coordinates": [ -73.9838, 40.7587 ] } },
{ "type": "Feature", "properties": { "ZIP": "10044", "address": "513 Main Street", "borough": "Roosevelt Island", "chain_name": "Subway", "latitude": 40.7611, "longitude": -73.9508, "state": "NY" }, "geometry": { "type": "Point", "coordinates": [ -73.9508, 40.7611 ] } },
{ "type": "Feature", "properties": { "ZIP": "10035", "address": "21 East 118th Street", "borough": "New York", "chain_name": "Subway", "latitude": 40.8015, "longitude": -73.9444, "state": "NY" }, "geometry": { "type": "Point", "coordinates": [ -73.9444, 40.8015 ] } },
{ "type": "Feature", "properties": { "ZIP": "10036", "address": "34-36 W 46th St", "borough": "New York", "chain_name": "Subway", "latitude": 40.7565, "longitude": -73.9808, "state": "NY" }, "geometry": { "type": "Point", "coordinates": [ -73.9808, 40.7565 ] } },
{ "type": "Feature", "properties": { "ZIP": "10036", "address": "705 Eighth Ave", "borough": "New York", "chain_name": "Subway", "latitude": 40.7589, "longitude": -73.9889, "state": "NY" }, "geometry": { "type": "Point", "coordinates": [ -73.9889, 40.7589 ] } },
{ "type": "Feature", "properties": { "ZIP": "10022", "address": "947-949 First Ave", "borough": "New York", "chain_name": "Subway", "latitude": 40.7554, "longitude": -73.9653, "state": "NY" }, "geometry": { "type": "Point", "coordinates": [ -73.9653, 40.7554 ] } },
{ "type": "Feature", "properties": { "ZIP": "10029", "address": "201 East 116th St", "borough": "New York", "chain_name": "Subway", "latitude": 40.7981, "longitude": -73.9398, "state": "NY" }, "geometry": { "type": "Point", "coordinates": [ -73.9398, 40.7981 ] } },
{ "type": "Feature", "properties": { "ZIP": "10036", "address": "351 W 42nd St", "borough": "New York", "chain_name": "Subway", "latitude": 40.7584, "longitude": -73.9918, "state": "NY" }, "geometry": { "type": "Point", "coordinates": [ -73.9918, 40.7584 ] } },
{ "type": "Feature", "properties": { "ZIP": "10036", "address": "31 West 43rd Street", "borough": "NewYork", "chain_name": "Subway", "latitude": 40.755, "longitude": -73.9819, "state": "NY" }, "geometry": { "type": "Point", "coordinates": [ -73.9819, 40.755 ] } },
{ "type": "Feature", "properties": { "ZIP": "10017", "address": "52 Vanderbilt Ave", "borough": "Manhattan", "chain_name": "Subway", "latitude": 40.7542, "longitude": -73.9772, "state": "NY" }, "geometry": { "type": "Point", "coordinates": [ -73.9772, 40.7542 ] } },
{ "type": "Feature", "properties": { "ZIP": "10036", "address": "555 West 42nd Street", "borough": "New York", "chain_name": "Subway", "latitude": 40.7609, "longitude": -73.9977, "state": "NY" }, "geometry": { "type": "Point", "coordinates": [ -73.9977, 40.7609 ] } },
{ "type": "Feature", "properties": { "ZIP": "10017", "address": "716 Third Avenue", "borough": "New York", "chain_name": "Subway", "latitude": 40.7527, "longitude": -73.9734, "state": "NY" }, "geometry": { "type": "Point", "coordinates": [ -73.9734, 40.7527 ] } },
{ "type": "Feature", "properties": { "ZIP": "10036", "address": "126 W 41st St", "borough": "New York", "chain_name": "Subway", "latitude": 40.7546, "longitude": -73.9854, "state": "NY" }, "geometry": { "type": "Point", "coordinates": [ -73.9854, 40.7546 ] } },
{ "type": "Feature", "properties": { "ZIP": "10036", "address": "442 W. 45th Street", "borough": "New York", "chain_name": "Subway", "latitude": 40.7591, "longitude": -73.996, "state": "NY" }, "geometry": { "type": "Point", "coordinates": [ -73.996, 40.7591 ] } },
{ "type": "Feature", "properties": { "ZIP": "10027", "address": "281 St Nicholas Ave", "borough": "New York", "chain_name": "Subway", "latitude": 40.8104, "longitude": -73.9533, "state": "NY" }, "geometry": { "type": "Point", "coordinates": [ -73.9533, 40.8104 ] } },
{ "type": "Feature", "properties": { "ZIP": "10029", "address": "455 East 116th Street", "borough": "New York", "chain_name": "Subway", "latitude": 40.7953, "longitude": -73.9333, "state": "NY" }, "geometry": { "type": "Point", "coordinates": [ -73.9333, 40.7953 ] } },
{ "type": "Feature", "properties": { "ZIP": "11216", "address": "1507 Fulton St", "borough": "Brooklyn", "chain_name": "Subway", "latitude": 40.6801, "longitude": -73.941, "state": "NY" }, "geometry": { "type": "Point", "coordinates": [ -73.941, 40.6801 ] } },
{ "type": "Feature", "properties": { "ZIP": "11213", "address": "273 Utica Ave", "borough": "Brooklyn", "chain_name": "Subway", "latitude": 40.6691, "longitude": -73.9311, "state": "NY" }, "geometry": { "type": "Point", "coordinates": [ -73.9311, 40.6691 ] } },
{ "type": "Feature", "properties": { "ZIP": "11225", "address": "1622 Bedford Avenue", "borough": "Brooklyn", "chain_name": "Subway", "latitude": 40.6671, "longitude": -73.9567, "state": "NY" }, "geometry": { "type": "Point", "coordinates": [ -73.9567, 40.6671 ] } },
{ "type": "Feature", "properties": { "ZIP": "11225", "address": "1010 Nostrand Ave", "borough": "Brooklyn", "chain_name": "Subway", "latitude": 40.6638, "longitude": -73.9512, "state": "NY" }, "geometry": { "type": "Point", "coordinates": [ -73.9512, 40.6638 ] } },
{ "type": "Feature", "properties": { "ZIP": "11221", "address": "1291 Broadway", "borough": "Brooklyn", "chain_name": "Subway", "latitude": 40.6908, "longitude": -73.9244, "state": "NY" }, "geometry": { "type": "Point", "coordinates": [ -73.9244, 40.6908 ] } },
{ "type": "Feature", "properties": { "ZIP": "11212", "address": "1501 Pitkin Ave", "borough": "Brooklyn", "chain_name": "Subway", "latitude": 40.6689, "longitude": -73.9178, "state": "NY" }, "geometry": { "type": "Point", "coordinates": [ -73.9178, 40.6689 ] } },
{ "type": "Feature", "properties": { "ZIP": "11203", "address": "528A Clarkson Ave", "borough": "Brooklyn", "chain_name": "Subway", "latitude": 40.6559, "longitude": -73.9419, "state": "NY" }, "geometry": { "type": "Point", "coordinates": [ -73.9419, 40.6559 ] } },
{ "type": "Feature", "properties": { "ZIP": "11205", "address": "400 Myrtle Ave", "borough": "Brooklyn", "chain_name": "Subway", "latitude": 40.693, "longitude": -73.9699, "state": "NY" }, "geometry": { "type": "Point", "coordinates": [ -73.9699, 40.693 ] } },
{ "type": "Feature", "properties": { "ZIP": "11212", "address": "241 B1 Rockaway Pkwy", "borough": "Brooklyn", "chain_name": "Subway", "latitude": 40.6615, "longitude": -73.9203, "state": "NY" }, "geometry": { "type": "Point", "coordinates": [ -73.9203, 40.6615 ] } },
{ "type": "Feature", "properties": { "ZIP": "11207", "address": "1709 Broadway", "borough": "Brooklyn", "chain_name": "Subway", "latitude": 40.6833, "longitude": -73.912, "state": "NY" }, "geometry": { "type": "Point", "coordinates": [ -73.912, 40.6833 ] } },
{ "type": "Feature", "properties": { "ZIP": "11226", "address": "739 Flatbush Ave", "borough": "Brooklyn", "chain_name": "Subway", "latitude": 40.655, "longitude": -73.9595, "state": "NY" }, "geometry": { "type": "Point", "coordinates": [ -73.9595, 40.655 ] } },
{ "type": "Feature", "properties": { "ZIP": "11217", "address": "139 Flatbush Ave", "borough": "Brooklyn", "chain_name": "Subway", "latitude": 40.6844, "longitude": -73.9774, "state": "NY" }, "geometry": { "type": "Point", "coordinates": [ -73.9774, 40.6844 ] } },
{ "type": "Feature", "properties": { "ZIP": "11212", "address": "1685 Pitkin Ave", "borough": "Brooklyn", "chain_name": "Subway", "latitude": 40.6698, "longitude": -73.9111, "state": "NY" }, "geometry": { "type": "Point", "coordinates": [ -73.9111, 40.6698 ] } },
{ "type": "Feature", "properties": { "ZIP": "11217", "address": "713 Fulton St", "borough": "Brooklyn", "chain_name": "Subway", "latitude": 40.6874, "longitude": -73.977, "state": "NY" }, "geometry": { "type": "Point", "coordinates": [ -73.977, 40.6874 ] } },
{ "type": "Feature", "properties": { "ZIP": "11217", "address": "572 Atlantic Avenue", "borough": "Brooklyn", "chain_name": "Subway", "latitude": 40.6844, "longitude": -73.9788, "state": "NY" }, "geometry": { "type": "Point", "coordinates": [ -73.9788, 40.6844 ] } },
{ "type": "Feature", "properties": { "ZIP": "11226", "address": "3005 Church Ave", "borough": "Brooklyn", "chain_name": "Subway", "latitude": 40.6508, "longitude": -73.9494, "state": "NY" }, "geometry": { "type": "Point", "coordinates": [ -73.9494, 40.6508 ] } },
{ "type": "Feature", "properties": { "ZIP": "11211", "address": "196 Union Ave.", "borough": "Brooklyn", "chain_name": "Subway", "latitude": 40.7062, "longitude": -73.9503, "state": "NY" }, "geometry": { "type": "Point", "coordinates": [ -73.9503, 40.7062 ] } },
{ "type": "Feature", "properties": { "ZIP": "11203", "address": "5107 Church Ave", "borough": "Brooklyn", "chain_name": "Subway", "latitude": 40.652, "longitude": -73.9293, "state": "NY" }, "geometry": { "type": "Point", "coordinates": [ -73.9293, 40.652 ] } },
{ "type": "Feature", "properties": { "ZIP": "11215", "address": "258 7th Ave", "borough": "Brooklyn", "chain_name": "Subway", "latitude": 40.6692, "longitude": -73.98, "state": "NY" }, "geometry": { "type": "Point", "coordinates": [ -73.98, 40.6692 ] } },
{ "type": "Feature", "properties": { "ZIP": "11237", "address": "1432 Myrtle Ave", "borough": "Brooklyn", "chain_name": "Subway", "latitude": 40.6989, "longitude": -73.9175, "state": "NY" }, "geometry": { "type": "Point", "coordinates": [ -73.9175, 40.6989 ] } },
{ "type": "Feature", "properties": { "ZIP": "11201", "address": "One University Plaza", "borough": "Brooklyn", "chain_name": "Subway", "latitude": 40.691, "longitude": -73.9811, "state": "NY" }, "geometry": { "type": "Point", "coordinates": [ -73.9811, 40.691 ] } },
{ "type": "Feature", "properties": { "ZIP": "11226", "address": "2011 Church Ave", "borough": "Brooklyn", "chain_name": "Subway", "latitude": 40.65, "longitude": -73.9613, "state": "NY" }, "geometry": { "type": "Point", "coordinates": [ -73.9613, 40.65 ] } },
{ "type": "Feature", "properties": { "ZIP": "11207", "address": "1842 East New York Avenue", "borough": "Brooklyn", "chain_name": "Subway", "latitude": 40.6759, "longitude": -73.9023, "state": "NY" }, "geometry": { "type": "Point", "coordinates": [ -73.9023, 40.6759 ] } },
{ "type": "Feature", "properties": { "ZIP": "11237", "address": "120 Wyckoff Ave", "borough": "Brooklyn", "chain_name": "Subway", "latitude": 40.7034, "longitude": -73.9183, "state": "NY" }, "geometry": { "type": "Point", "coordinates": [ -73.9183, 40.7034 ] } },
{ "type": "Feature", "properties": { "ZIP": "11215", "address": "423 5th Ave", "borough": "Brooklyn", "chain_name": "Subway", "latitude": 40.6696, "longitude": -73.9856, "state": "NY" }, "geometry": { "type": "Point", "coordinates": [ -73.9856, 40.6696 ] } },
{ "type": "Feature", "properties": { "ZIP": "11201", "address": "4 Metro Tech", "borough": "Brooklyn", "chain_name": "Subway", "latitude": 40.6922, "longitude": -73.9835, "state": "NY" }, "geometry": { "type": "Point", "coordinates": [ -73.9835, 40.6922 ] } },
{ "type": "Feature", "properties": { "ZIP": "11206", "address": "100 Bushwick Ave.", "borough": "Brooklyn", "chain_name": "Subway", "latitude": 40.7117, "longitude": -73.9407, "state": "NY" }, "geometry": { "type": "Point", "coordinates": [ -73.9407, 40.7117 ] } },
{ "type": "Feature", "properties": { "ZIP": "11215", "address": "525 5th Avenue", "borough": "Brooklyn", "chain_name": "Subway", "latitude": 40.6663, "longitude": -73.9883, "state": "NY" }, "geometry": { "type": "Point", "coordinates": [ -73.9883, 40.6663 ] } },
{ "type": "Feature", "properties": { "ZIP": "11201", "address": "391 Jay St", "borough": "Brooklyn", "chain_name": "Subway", "latitude": 40.692, "longitude": -73.9874, "state": "NY" }, "geometry": { "type": "Point", "coordinates": [ -73.9874, 40.692 ] } },
{ "type": "Feature", "properties": { "ZIP": "11385-4744", "address": "56-53 Myrtle Avenue", "borough": "Ridgewood", "chain_name": "Subway", "latitude": 40.7005, "longitude": -73.9039, "state": "NY" }, "geometry": { "type": "Point", "coordinates": [ -73.9039, 40.7005 ] } },
{ "type": "Feature", "properties": { "ZIP": "11201", "address": "66 Court Street", "borough": "Brooklyn", "chain_name": "Subway", "latitude": 40.6918, "longitude": -73.9913, "state": "NY" }, "geometry": { "type": "Point", "coordinates": [ -73.9913, 40.6918 ] } },
{ "type": "Feature", "properties": { "ZIP": "11226", "address": "1875 Nostrand Ave", "borough": "Brooklyn", "chain_name": "Subway", "latitude": 40.6393, "longitude": -73.948, "state": "NY" }, "geometry": { "type": "Point", "coordinates": [ -73.948, 40.6393 ] } },
{ "type": "Feature", "properties": { "ZIP": "11215", "address": "552 3rd Ave", "borough": "Brooklyn", "chain_name": "Subway", "latitude": 40.6683, "longitude": -73.994, "state": "NY" }, "geometry": { "type": "Point", "coordinates": [ -73.994, 40.6683 ] } },
{ "type": "Feature", "properties": { "ZIP": "11207", "address": "2789 Atlantic Ave", "borough": "Brooklyn", "chain_name": "Subway", "latitude": 40.6766, "longitude": -73.8915, "state": "NY" }, "geometry": { "type": "Point", "coordinates": [ -73.8915, 40.6766 ] } },
{ "type": "Feature", "properties": { "ZIP": "11203", "address": "1343 Utica Avenue", "borough": "Brooklyn", "chain_name": "Subway", "latitude": 40.6396, "longitude": -73.9287, "state": "NY" }, "geometry": { "type": "Point", "coordinates": [ -73.9287, 40.6396 ] } },
{ "type": "Feature", "properties": { "ZIP": "11201", "address": "115-117 Montague Street", "borough": "Brooklyn", "chain_name": "Subway", "latitude": 40.695, "longitude": -73.9949, "state": "NY" }, "geometry": { "type": "Point", "coordinates": [ -73.9949, 40.695 ] } },
{ "type": "Feature", "properties": { "ZIP": "11232", "address": "731 4th Ave", "borough": "Brooklyn", "chain_name": "Subway", "latitude": 40.6607, "longitude": -73.9972, "state": "NY" }, "geometry": { "type": "Point", "coordinates": [ -73.9972, 40.6607 ] } },
{ "type": "Feature", "properties": { "ZIP": "11236", "address": "1376 Rockaway Pkwy", "borough": "Brooklyn", "chain_name": "Subway", "latitude": 40.6461, "longitude": -73.9037, "state": "NY" }, "geometry": { "type": "Point", "coordinates": [ -73.9037, 40.6461 ] } },
{ "type": "Feature", "properties": { "ZIP": "11207", "address": "1868 Linden Blvd", "borough": "Brooklyn", "chain_name": "Subway", "latitude": 40.6574, "longitude": -73.8924, "state": "NY" }, "geometry": { "type": "Point", "coordinates": [ -73.8924, 40.6574 ] } },
{ "type": "Feature", "properties": { "ZIP": "11385", "address": "66-90 Fresh Pond Rd", "borough": "Ridgewood", "chain_name": "Subway", "latitude": 40.706, "longitude": -73.897, "state": "NY" }, "geometry": { "type": "Point", "coordinates": [ -73.897, 40.706 ] } },
{ "type": "Feature", "properties": { "ZIP": "11226", "address": "41B Newkirk Plaza", "borough": "Brooklyn", "chain_name": "Subway", "latitude": 40.635, "longitude": -73.963, "state": "NY" }, "geometry": { "type": "Point", "coordinates": [ -73.963, 40.635 ] } },
{ "type": "Feature", "properties": { "ZIP": "11210", "address": "1567 Flatbush Ave", "borough": "Brooklyn", "chain_name": "Subway", "latitude": 40.6326, "longitude": -73.9473, "state": "NY" }, "geometry": { "type": "Point", "coordinates": [ -73.9473, 40.6326 ] } },
{ "type": "Feature", "properties": { "ZIP": "11379", "address": "61-22 Fresh Pond Road", "borough": "Middle Village", "chain_name": "Subway", "latitude": 40.7139, "longitude": -73.9014, "state": "NY" }, "geometry": { "type": "Point", "coordinates": [ -73.9014, 40.7139 ] } },
{ "type": "Feature", "properties": { "ZIP": "11207", "address": "11040 Flatlands Ave.", "borough": "Brooklyn", "chain_name": "Subway", "latitude": 40.6502, "longitude": -73.891, "state": "NY" }, "geometry": { "type": "Point", "coordinates": [ -73.891, 40.6502 ] } },
{ "type": "Feature", "properties": { "ZIP": "11236", "address": "78-10 Flatlands Ave", "borough": "Brooklyn", "chain_name": "Subway", "latitude": 40.6343, "longitude": -73.9147, "state": "NY" }, "geometry": { "type": "Point", "coordinates": [ -73.9147, 40.6343 ] } },
{ "type": "Feature", "properties": { "ZIP": "11234", "address": "5719 Flatlands Ave", "borough": "Brooklyn", "chain_name": "Subway", "latitude": 40.6304, "longitude": -73.9216, "state": "NY" }, "geometry": { "type": "Point", "coordinates": [ -73.9216, 40.6304 ] } },
{ "type": "Feature", "properties": { "ZIP": "11219", "address": "4205 Fort Hamilton Pkwy", "borough": "Brooklyn", "chain_name": "Subway", "latitude": 40.6414, "longitude": -73.9926, "state": "NY" }, "geometry": { "type": "Point", "coordinates": [ -73.9926, 40.6414 ] } },
{ "type": "Feature", "properties": { "ZIP": "11232", "address": "882 Fifth Ave", "borough": "Brooklyn", "chain_name": "Subway", "latitude": 40.6516, "longitude": -74.0039, "state": "NY" }, "geometry": { "type": "Point", "coordinates": [ -74.0039, 40.6516 ] } },
{ "type": "Feature", "properties": { "ZIP": "11366", "address": "176-71 Union Turnpike", "borough": "Flushing", "chain_name": "Subway", "latitude": 40.7262, "longitude": -73.791, "state": "NY" }, "geometry": { "type": "Point", "coordinates": [ -73.791, 40.7262 ] } },
{ "type": "Feature", "properties": { "ZIP": "11367", "address": "162-16\/20 Union Turnpike", "borough": "Queens", "chain_name": "Subway", "latitude": 40.721, "longitude": -73.8049, "state": "NY" }, "geometry": { "type": "Point", "coordinates": [ -73.8049, 40.721 ] } },
{ "type": "Feature", "properties": { "ZIP": "11365", "address": "185-24A Horace Harding Expwy", "borough": "Fresh Meadows", "chain_name": "Subway", "latitude": 40.74, "longitude": -73.7884, "state": "NY" }, "geometry": { "type": "Point", "coordinates": [ -73.7884, 40.74 ] } },
{ "type": "Feature", "properties": { "ZIP": "11367", "address": "70-72 Kissena Blvd", "borough": "Flushing", "chain_name": "Subway", "latitude": 40.73, "longitude": -73.8151, "state": "NY" }, "geometry": { "type": "Point", "coordinates": [ -73.8151, 40.73 ] } },
{ "type": "Feature", "properties": { "ZIP": "11432", "address": "181-02\/18 Hillside Ave", "borough": "Jamaica", "chain_name": "Subway", "latitude": 40.7131, "longitude": -73.7812, "state": "NY" }, "geometry": { "type": "Point", "coordinates": [ -73.7812, 40.7131 ] } },
{ "type": "Feature", "properties": { "ZIP": "11432", "address": "168-14 Hillside Ave", "borough": "Jamaica", "chain_name": "Subway", "latitude": 40.7096, "longitude": -73.7949, "state": "NY" }, "geometry": { "type": "Point", "coordinates": [ -73.7949, 40.7096 ] } },
{ "type": "Feature", "properties": { "ZIP": "11355", "address": "59-16 Kissena Blvd", "borough": "Flushing", "chain_name": "Subway", "latitude": 40.7404, "longitude": -73.8151, "state": "NY" }, "geometry": { "type": "Point", "coordinates": [ -73.8151, 40.7404 ] } },
{ "type": "Feature", "properties": { "ZIP": "11432", "address": "168-16 Jamaica Ave", "borough": "Jamaica", "chain_name": "Subway", "latitude": 40.7064, "longitude": -73.7922, "state": "NY" }, "geometry": { "type": "Point", "coordinates": [ -73.7922, 40.7064 ] } },
{ "type": "Feature", "properties": { "ZIP": "11433", "address": "92-17 Parsons Blvd", "borough": "Jamaica", "chain_name": "Subway", "latitude": 40.7034, "longitude": -73.8001, "state": "NY" }, "geometry": { "type": "Point", "coordinates": [ -73.8001, 40.7034 ] } },
{ "type": "Feature", "properties": { "ZIP": "11435", "address": "88-14 Sutphin Blvd", "borough": "Jamaica", "chain_name": "Subway", "latitude": 40.7045, "longitude": -73.8091, "state": "NY" }, "geometry": { "type": "Point", "coordinates": [ -73.8091, 40.7045 ] } },
{ "type": "Feature", "properties": { "ZIP": "11435", "address": "138-05 Queens Boulevard", "borough": "Briarwood", "chain_name": "Subway", "latitude": 40.7087, "longitude": -73.8179, "state": "NY" }, "geometry": { "type": "Point", "coordinates": [ -73.8179, 40.7087 ] } },
{ "type": "Feature", "properties": { "ZIP": "11423-2216", "address": "20206 Hillside Ave", "borough": "Hollis", "chain_name": "Subway", "latitude": 40.7199, "longitude": -73.7615, "state": "NY" }, "geometry": { "type": "Point", "coordinates": [ -73.7615, 40.7199 ] } },
{ "type": "Feature", "properties": { "ZIP": "11435", "address": "146-04 Jamaica Ave", "borough": "Jamaica", "chain_name": "Subway", "latitude": 40.7018, "longitude": -73.8087, "state": "NY" }, "geometry": { "type": "Point", "coordinates": [ -73.8087, 40.7018 ] } },
{ "type": "Feature", "properties": { "ZIP": "11415-1204", "address": "120-80 Queens Blvd", "borough": "Kew Gardens", "chain_name": "Subway", "latitude": 40.7131, "longitude": -73.8289, "state": "NY" }, "geometry": { "type": "Point", "coordinates": [ -73.8289, 40.7131 ] } },
{ "type": "Feature", "properties": { "ZIP": "11418", "address": "132-40 Metropolitan Ave", "borough": "Richmond Hill", "chain_name": "Subway", "latitude": 40.7026, "longitude": -73.8188, "state": "NY" }, "geometry": { "type": "Point", "coordinates": [ -73.8188, 40.7026 ] } },
{ "type": "Feature", "properties": { "ZIP": "11355", "address": "147-03 45th Avenue", "borough": "Flushing", "chain_name": "Subway", "latitude": 40.7557, "longitude": -73.815, "state": "NY" }, "geometry": { "type": "Point", "coordinates": [ -73.815, 40.7557 ] } },
{ "type": "Feature", "properties": { "ZIP": "11375", "address": "116-30 Queens Blvd", "borough": "Forest Hills", "chain_name": "Subway", "latitude": 40.7158, "longitude": -73.8335, "state": "NY" }, "geometry": { "type": "Point", "coordinates": [ -73.8335, 40.7158 ] } },
{ "type": "Feature", "properties": { "ZIP": "11361", "address": "205-12 Northern Blvd.", "borough": "Bayside", "chain_name": "Subway", "latitude": 40.7577, "longitude": -73.7779, "state": "NY" }, "geometry": { "type": "Point", "coordinates": [ -73.7779, 40.7577 ] } },
{ "type": "Feature", "properties": { "ZIP": "11415", "address": "85-21 126th Street", "borough": "Kew Gardens", "chain_name": "Subway", "latitude": 40.7036, "longitude": -73.8253, "state": "NY" }, "geometry": { "type": "Point", "coordinates": [ -73.8253, 40.7036 ] } },
{ "type": "Feature", "properties": { "ZIP": "11423", "address": "205-20 Jamaica Avenue", "borough": "Hollis", "chain_name": "Subway", "latitude": 40.7135, "longitude": -73.7542, "state": "NY" }, "geometry": { "type": "Point", "coordinates": [ -73.7542, 40.7135 ] } },
{ "type": "Feature", "properties": { "ZIP": "11375", "address": "110-78 Queens Blvd", "borough": "Forest Hills", "chain_name": "Subway", "latitude": 40.7187, "longitude": -73.8384, "state": "NY" }, "geometry": { "type": "Point", "coordinates": [ -73.8384, 40.7187 ] } },
{ "type": "Feature", "properties": { "ZIP": "11364-2335", "address": "61-13 Springfield Blvd", "borough": "Oakland Gardens", "chain_name": "Subway", "latitude": 40.7486, "longitude": -73.7566, "state": "NY" }, "geometry": { "type": "Point", "coordinates": [ -73.7566, 40.7486 ] } },
{ "type": "Feature", "properties": { "ZIP": "11435", "address": "137-21 Liberty Ave", "borough": "Jamaica", "chain_name": "Subway", "latitude": 40.6921, "longitude": -73.8103, "state": "NY" }, "geometry": { "type": "Point", "coordinates": [ -73.8103, 40.6921 ] } },
{ "type": "Feature", "properties": { "ZIP": "11375", "address": "107-28 Continental Ave", "borough": "Forest Hills", "chain_name": "Subway", "latitude": 40.721, "longitude": -73.8441, "state": "NY" }, "geometry": { "type": "Point", "coordinates": [ -73.8441, 40.721 ] } },
{ "type": "Feature", "properties": { "ZIP": "11358", "address": "34-01 Francis Lewis Blvd", "borough": "Flushing", "chain_name": "Subway", "latitude": 40.766, "longitude": -73.7892, "state": "NY" }, "geometry": { "type": "Point", "coordinates": [ -73.7892, 40.766 ] } },
{ "type": "Feature", "properties": { "ZIP": "11418", "address": "118-14 Jamaica Ave.", "borough": "Richmond Hills", "chain_name": "Subway", "latitude": 40.6997, "longitude": -73.8311, "state": "NY" }, "geometry": { "type": "Point", "coordinates": [ -73.8311, 40.6997 ] } },
{ "type": "Feature", "properties": { "ZIP": "11427", "address": "220-34", "borough": "Queens Village", "chain_name": "Subway", "latitude": 40.7308, "longitude": -73.7423, "state": "NY" }, "geometry": { "type": "Point", "coordinates": [ -73.7423, 40.7308 ] } },
{ "type": "Feature", "properties": { "ZIP": "11361", "address": "39-27 Bell Blvd", "borough": "Bayside", "chain_name": "Subway", "latitude": 40.7645, "longitude": -73.7711, "state": "NY" }, "geometry": { "type": "Point", "coordinates": [ -73.7711, 40.7645 ] } },
{ "type": "Feature", "properties": { "ZIP": "11354", "address": "136-45 Roosevelt Avenue", "borough": "Flushing", "chain_name": "Subway", "latitude": 40.7598, "longitude": -73.8295, "state": "NY" }, "geometry": { "type": "Point", "coordinates": [ -73.8295, 40.7598 ] } },
{ "type": "Feature", "properties": { "ZIP": "11354", "address": "147-16 Northern Blvd.", "borough": "Flushing", "chain_name": "Subway", "latitude": 40.7652, "longitude": -73.8185, "state": "NY" }, "geometry": { "type": "Point", "coordinates": [ -73.8185, 40.7652 ] } },
{ "type": "Feature", "properties": { "ZIP": "11375", "address": "64-29 108 St", "borough": "Forest Hills", "chain_name": "Subway", "latitude": 40.7322, "longitude": -73.849, "state": "NY" }, "geometry": { "type": "Point", "coordinates": [ -73.849, 40.7322 ] } },
{ "type": "Feature", "properties": { "ZIP": "11434", "address": "114-14C Sutphin Blvd", "borough": "Jamaica", "chain_name": "Subway", "latitude": 40.6864, "longitude": -73.7942, "state": "NY" }, "geometry": { "type": "Point", "coordinates": [ -73.7942, 40.6864 ] } },
{ "type": "Feature", "properties": { "ZIP": "11354", "address": "40-24 College Point Blvd", "borough": "Queens", "chain_name": "Subway", "latitude": 40.7578, "longitude": -73.8347, "state": "NY" }, "geometry": { "type": "Point", "coordinates": [ -73.8347, 40.7578 ] } },
{ "type": "Feature", "properties": { "ZIP": "11358", "address": "25-50 Francis Lewis Blvd", "borough": "Flushing", "chain_name": "Subway", "latitude": 40.7736, "longitude": -73.7972, "state": "NY" }, "geometry": { "type": "Point", "coordinates": [ -73.7972, 40.7736 ] } },
{ "type": "Feature", "properties": { "ZIP": "11428", "address": "218-14 Jamaica Ave", "borough": "Queens Village", "chain_name": "Subway", "latitude": 40.7178, "longitude": -73.7365, "state": "NY" }, "geometry": { "type": "Point", "coordinates": [ -73.7365, 40.7178 ] } },
{ "type": "Feature", "properties": { "ZIP": "11368", "address": "126th St & Roosevelt Ave", "borough": "Flushing", "chain_name": "Subway", "latitude": 40.7551, "longitude": -73.8436, "state": "NY" }, "geometry": { "type": "Point", "coordinates": [ -73.8436, 40.7551 ] } },
{ "type": "Feature", "properties": { "ZIP": "11375", "address": "102-10 Metropolitan Avenue", "borough": "Forest Hills", "chain_name": "Subway", "latitude": 40.7104, "longitude": -73.8513, "state": "NY" }, "geometry": { "type": "Point", "coordinates": [ -73.8513, 40.7104 ] } },
{ "type": "Feature", "properties": { "ZIP": "11368", "address": "126th St and Roosevelt Avenue", "borough": "Flushing", "chain_name": "Subway", "latitude": 40.7555, "longitude": -73.8457, "state": "NY" }, "geometry": { "type": "Point", "coordinates": [ -73.8457, 40.7555 ] } },
{ "type": "Feature", "properties": { "ZIP": "11368", "address": "Roosevelt Avenue", "borough": "Flushing", "chain_name": "Subway", "latitude": 40.7555, "longitude": -73.8457, "state": "NY" }, "geometry": { "type": "Point", "coordinates": [ -73.8457, 40.7555 ] } },
{ "type": "Feature", "properties": { "ZIP": "11368", "address": "108-11 Corona Ave", "borough": "Corona", "chain_name": "Subway", "latitude": 40.7431, "longitude": -73.8544, "state": "NY" }, "geometry": { "type": "Point", "coordinates": [ -73.8544, 40.7431 ] } },
{ "type": "Feature", "properties": { "ZIP": "11419", "address": "118-18 Liberty Ave.", "borough": "South Richmond Hill", "chain_name": "Subway", "latitude": 40.6859, "longitude": -73.8243, "state": "NY" }, "geometry": { "type": "Point", "coordinates": [ -73.8243, 40.6859 ] } },
{ "type": "Feature", "properties": { "ZIP": "11375", "address": "100-21 Queens Blvd", "borough": "Forest Hills", "chain_name": "Subway", "latitude": 40.729, "longitude": -73.8585, "state": "NY" }, "geometry": { "type": "Point", "coordinates": [ -73.8585, 40.729 ] } },
{ "type": "Feature", "properties": { "ZIP": "11354-1907", "address": "3025 Stratton St", "borough": "Flushing", "chain_name": "Subway", "latitude": 40.7697, "longitude": -73.8343, "state": "NY" }, "geometry": { "type": "Point", "coordinates": [ -73.8343, 40.7697 ] } },
{ "type": "Feature", "properties": { "ZIP": "11374", "address": "95-58 Queens Blvd", "borough": "Rego Park", "chain_name": "Subway", "latitude": 40.73, "longitude": -73.863, "state": "NY" }, "geometry": { "type": "Point", "coordinates": [ -73.863, 40.73 ] } },
{ "type": "Feature", "properties": { "ZIP": "11434", "address": "127-02 Merrick Blvd", "borough": "Jamaica", "chain_name": "Subway", "latitude": 40.6815, "longitude": -73.7654, "state": "NY" }, "geometry": { "type": "Point", "coordinates": [ -73.7654, 40.6815 ] } },
{ "type": "Feature", "properties": { "ZIP": "11434", "address": "165-58 Baisley Blvd", "borough": "Jamaica", "chain_name": "Subway", "latitude": 40.6782, "longitude": -73.7761, "state": "NY" }, "geometry": { "type": "Point", "coordinates": [ -73.7761, 40.6782 ] } },
{ "type": "Feature", "properties": { "ZIP": "11374", "address": "61-01 Junction Blvd.", "borough": "Rego Park", "chain_name": "Subway", "latitude": 40.733, "longitude": -73.8638, "state": "NY" }, "geometry": { "type": "Point", "coordinates": [ -73.8638, 40.733 ] } },
{ "type": "Feature", "properties": { "ZIP": "11416", "address": "10206 Atlantic Ave", "borough": "Ozone Park", "chain_name": "Subway", "latitude": 40.6896, "longitude": -73.8422, "state": "NY" }, "geometry": { "type": "Point", "coordinates": [ -73.8422, 40.6896 ] } },
{ "type": "Feature", "properties": { "ZIP": "11354", "address": "25-27B Parsons Blvd", "borough": "Flushing", "chain_name": "Subway", "latitude": 40.7762, "longitude": -73.8244, "state": "NY" }, "geometry": { "type": "Point", "coordinates": [ -73.8244, 40.7762 ] } },
{ "type": "Feature", "properties": { "ZIP": "11421", "address": "92-12 Jamaica Ave", "borough": "Woodhaven", "chain_name": "Subway", "latitude": 40.6932, "longitude": -73.8527, "state": "NY" }, "geometry": { "type": "Point", "coordinates": [ -73.8527, 40.6932 ] } },
{ "type": "Feature", "properties": { "ZIP": "10462", "address": "968 Morris Park Ave", "borough": "Bronx", "chain_name": "Subway", "latitude": 40.8475, "longitude": -73.8572, "state": "NY" }, "geometry": { "type": "Point", "coordinates": [ -73.8572, 40.8475 ] } },
{ "type": "Feature", "properties": { "ZIP": "10462", "address": "1448 East Ave", "borough": "Bronx", "chain_name": "Subway", "latitude": 40.8373, "longitude": -73.8596, "state": "NY" }, "geometry": { "type": "Point", "coordinates": [ -73.8596, 40.8373 ] } },
{ "type": "Feature", "properties": { "ZIP": "10462", "address": "2173A White Plains Road", "borough": "Bronx", "chain_name": "Subway", "latitude": 40.8557, "longitude": -73.8677, "state": "NY" }, "geometry": { "type": "Point", "coordinates": [ -73.8677, 40.8557 ] } },
{ "type": "Feature", "properties": { "ZIP": "10460", "address": "2026 Boston Road", "borough": "Bronx", "chain_name": "Subway", "latitude": 40.8408, "longitude": -73.8795, "state": "NY" }, "geometry": { "type": "Point", "coordinates": [ -73.8795, 40.8408 ] } },
{ "type": "Feature", "properties": { "ZIP": "10462", "address": "1957 Westchester Ave", "borough": "Bronx", "chain_name": "Subway", "latitude": 40.8336, "longitude": -73.859, "state": "NY" }, "geometry": { "type": "Point", "coordinates": [ -73.859, 40.8336 ] } },
{ "type": "Feature", "properties": { "ZIP": "10462-3011", "address": "1885 Westchester Ave", "borough": "Bronx", "chain_name": "Subway", "latitude": 40.8328, "longitude": -73.863, "state": "NY" }, "geometry": { "type": "Point", "coordinates": [ -73.863, 40.8328 ] } },
{ "type": "Feature", "properties": { "ZIP": "10461", "address": "2009 Williamsbridge Rd", "borough": "Bronx", "chain_name": "Subway", "latitude": 40.8544, "longitude": -73.855, "state": "NY" }, "geometry": { "type": "Point", "coordinates": [ -73.855, 40.8544 ] } },
{ "type": "Feature", "properties": { "ZIP": "10459", "address": "839  D Prospect Avenue", "borough": "Bronx", "chain_name": "Subway", "latitude": 40.8343, "longitude": -73.8521, "state": "NY" }, "geometry": { "type": "Point", "coordinates": [ -73.8521, 40.8343 ] } },
{ "type": "Feature", "properties": { "ZIP": "10461", "address": "1720 Eastchester Rd", "borough": "Bronx", "chain_name": "Subway", "latitude": 40.8461, "longitude": -73.845, "state": "NY" }, "geometry": { "type": "Point", "coordinates": [ -73.845, 40.8461 ] } },
{ "type": "Feature", "properties": { "ZIP": "10461", "address": "2383 Westchester Ave", "borough": "Bronx", "chain_name": "Subway", "latitude": 40.8371, "longitude": -73.8467, "state": "NY" }, "geometry": { "type": "Point", "coordinates": [ -73.8467, 40.8371 ] } },
{ "type": "Feature", "properties": { "ZIP": "10461", "address": "74 Westchester Square", "borough": "Bronx", "chain_name": "Subway", "latitude": 40.8407, "longitude": -73.8427, "state": "NY" }, "geometry": { "type": "Point", "coordinates": [ -73.8427, 40.8407 ] } },
{ "type": "Feature", "properties": { "ZIP": "10460", "address": "961 East 174th St", "borough": "Bronx", "chain_name": "Subway", "latitude": 40.8366, "longitude": -73.8863, "state": "NY" }, "geometry": { "type": "Point", "coordinates": [ -73.8863, 40.8366 ] } },
{ "type": "Feature", "properties": { "ZIP": "10467", "address": "2515 Boston Rd", "borough": "Bronx", "chain_name": "Subway", "latitude": 40.8638, "longitude": -73.8652, "state": "NY" }, "geometry": { "type": "Point", "coordinates": [ -73.8652, 40.8638 ] } },
{ "type": "Feature", "properties": { "ZIP": "10473", "address": "905 White Plains Road", "borough": "Bronx", "chain_name": "Subway", "latitude": 40.8244, "longitude": -73.8592, "state": "NY" }, "geometry": { "type": "Point", "coordinates": [ -73.8592, 40.8244 ] } },
{ "type": "Feature", "properties": { "ZIP": "10467", "address": "2703 White Plains Road", "borough": "Bronx", "chain_name": "Subway", "latitude": 40.8656, "longitude": -73.8675, "state": "NY" }, "geometry": { "type": "Point", "coordinates": [ -73.8675, 40.8656 ] } },
{ "type": "Feature", "properties": { "ZIP": "10467", "address": "597 East Tremont Ave", "borough": "Bronx", "chain_name": "Subway", "latitude": 40.8465, "longitude": -73.8936, "state": "NY" }, "geometry": { "type": "Point", "coordinates": [ -73.8936, 40.8465 ] } },
{ "type": "Feature", "properties": { "ZIP": "10473", "address": "1646 Bruckner Boulevard", "borough": "Bronx", "chain_name": "Subway", "latitude": 40.8239, "longitude": -73.8743, "state": "NY" }, "geometry": { "type": "Point", "coordinates": [ -73.8743, 40.8239 ] } },
{ "type": "Feature", "properties": { "ZIP": "10458", "address": "One Fordham Plaza", "borough": "Bronx", "chain_name": "Subway", "latitude": 40.8597, "longitude": -73.8878, "state": "NY" }, "geometry": { "type": "Point", "coordinates": [ -73.8878, 40.8597 ] } },
{ "type": "Feature", "properties": { "ZIP": "10469", "address": "2451-B E Chester Rd", "borough": "Bronx", "chain_name": "Subway", "latitude": 40.862, "longitude": -73.844, "state": "NY" }, "geometry": { "type": "Point", "coordinates": [ -73.844, 40.862 ] } },
{ "type": "Feature", "properties": { "ZIP": "10460", "address": "1490 Boston Road", "borough": "Bronx", "chain_name": "Subway", "latitude": 40.8344, "longitude": -73.8939, "state": "NY" }, "geometry": { "type": "Point", "coordinates": [ -73.8939, 40.8344 ] } },
{ "type": "Feature", "properties": { "ZIP": "10458", "address": "2867 Webster Avenue", "borough": "Bronx", "chain_name": "Subway", "latitude": 40.8671, "longitude": -73.884, "state": "NY" }, "geometry": { "type": "Point", "coordinates": [ -73.884, 40.8671 ] } },
{ "type": "Feature", "properties": { "ZIP": "10461", "address": "815 Hutchinson River Parkway", "borough": "Bronx", "chain_name": "Subway", "latitude": 40.8238, "longitude": -73.8381, "state": "NY" }, "geometry": { "type": "Point", "coordinates": [ -73.8381, 40.8238 ] } },
{ "type": "Feature", "properties": { "ZIP": "10458", "address": "2432 Grand Concourse", "borough": "Bronx", "chain_name": "Subway", "latitude": 40.8606, "longitude": -73.8973, "state": "NY" }, "geometry": { "type": "Point", "coordinates": [ -73.8973, 40.8606 ] } },
{ "type": "Feature", "properties": { "ZIP": "10461", "address": "3683 Bruckner Blvd.", "borough": "Bronx", "chain_name": "Subway", "latitude": 40.8524, "longitude": -73.8273, "state": "NY" }, "geometry": { "type": "Point", "coordinates": [ -73.8273, 40.8524 ] } },
{ "type": "Feature", "properties": { "ZIP": "10467", "address": "311 East 204th St", "borough": "Bronx", "chain_name": "Subway", "latitude": 40.8729, "longitude": -73.8781, "state": "NY" }, "geometry": { "type": "Point", "coordinates": [ -73.8781, 40.8729 ] } },
{ "type": "Feature", "properties": { "ZIP": "10459", "address": "1047 E 163rd St", "borough": "Bronx", "chain_name": "Subway", "latitude": 40.821, "longitude": -73.8911, "state": "NY" }, "geometry": { "type": "Point", "coordinates": [ -73.8911, 40.821 ] } },
{ "type": "Feature", "properties": { "ZIP": "10467", "address": "747 Gun Hill Rd", "borough": "Bronx", "chain_name": "Subway", "latitude": 40.8768, "longitude": -73.8644, "state": "NY" }, "geometry": { "type": "Point", "coordinates": [ -73.8644, 40.8768 ] } },
{ "type": "Feature", "properties": { "ZIP": "10453", "address": "2438 Jerome Ave", "borough": "Bronx", "chain_name": "Subway", "latitude": 40.8621, "longitude": -73.9018, "state": "NY" }, "geometry": { "type": "Point", "coordinates": [ -73.9018, 40.8621 ] } },
{ "type": "Feature", "properties": { "ZIP": "10453-1817", "address": "2052 Jerome Ave", "borough": "Bronx", "chain_name": "Subway", "latitude": 40.8539, "longitude": -73.9069, "state": "NY" }, "geometry": { "type": "Point", "coordinates": [ -73.9069, 40.8539 ] } },
{ "type": "Feature", "properties": { "ZIP": "10467-5622", "address": "641 East Gunhill Rd", "borough": "Bronx", "chain_name": "Subway", "latitude": 40.878, "longitude": -73.8676, "state": "NY" }, "geometry": { "type": "Point", "coordinates": [ -73.8676, 40.878 ] } },
{ "type": "Feature", "properties": { "ZIP": "10475", "address": "200 Baychester Avenue", "borough": "Bronx", "chain_name": "Subway", "latitude": 40.8654, "longitude": -73.8298, "state": "NY" }, "geometry": { "type": "Point", "coordinates": [ -73.8298, 40.8654 ] } },
{ "type": "Feature", "properties": { "ZIP": "10468", "address": "38 West Kingbridge Rd", "borough": "Bronx", "chain_name": "Subway", "latitude": 40.8677, "longitude": -73.8992, "state": "NY" }, "geometry": { "type": "Point", "coordinates": [ -73.8992, 40.8677 ] } },
{ "type": "Feature", "properties": { "ZIP": "10465", "address": "3714 East Tremont Ave", "borough": "Bronx", "chain_name": "Subway", "latitude": 40.8269, "longitude": -73.8225, "state": "NY" }, "geometry": { "type": "Point", "coordinates": [ -73.8225, 40.8269 ] } },
{ "type": "Feature", "properties": { "ZIP": "10459", "address": "1024 Longwood Avenue", "borough": "Bronx", "chain_name": "Subway", "latitude": 40.8164, "longitude": -73.8965, "state": "NY" }, "geometry": { "type": "Point", "coordinates": [ -73.8965, 40.8164 ] } },
{ "type": "Feature", "properties": { "ZIP": "10475", "address": "169 Einstein Loop", "borough": "Bronx", "chain_name": "Subway", "latitude": 40.8643, "longitude": -73.823, "state": "NY" }, "geometry": { "type": "Point", "coordinates": [ -73.823, 40.8643 ] } },
{ "type": "Feature", "properties": { "ZIP": "10467", "address": "3422 Jerome Ave", "borough": "Bronx", "chain_name": "Subway", "latitude": 40.8814, "longitude": -73.8828, "state": "NY" }, "geometry": { "type": "Point", "coordinates": [ -73.8828, 40.8814 ] } },
{ "type": "Feature", "properties": { "ZIP": "10452", "address": "18 East 170th Street", "borough": "Bronx", "chain_name": "Subway", "latitude": 40.84, "longitude": -73.9173, "state": "NY" }, "geometry": { "type": "Point", "coordinates": [ -73.9173, 40.84 ] } },
{ "type": "Feature", "properties": { "ZIP": "10451", "address": "3209 Third Avenue", "borough": "Bronx", "chain_name": "Subway", "latitude": 40.823, "longitude": -73.9105, "state": "NY" }, "geometry": { "type": "Point", "coordinates": [ -73.9105, 40.823 ] } },
{ "type": "Feature", "properties": { "ZIP": "10466", "address": "3976 White Plains Road", "borough": "Bronx", "chain_name": "Subway", "latitude": 40.8879, "longitude": -73.8604, "state": "NY" }, "geometry": { "type": "Point", "coordinates": [ -73.8604, 40.8879 ] } },
{ "type": "Feature", "properties": { "ZIP": "10452", "address": "55 E 167th St", "borough": "Bronx", "chain_name": "Subway", "latitude": 40.8354, "longitude": -73.9211, "state": "NY" }, "geometry": { "type": "Point", "coordinates": [ -73.9211, 40.8354 ] } },
{ "type": "Feature", "properties": { "ZIP": "10451", "address": "3044 Third Avenue", "borough": "Bronx", "chain_name": "Subway", "latitude": 40.8202, "longitude": -73.9126, "state": "NY" }, "geometry": { "type": "Point", "coordinates": [ -73.9126, 40.8202 ] } },
{ "type": "Feature", "properties": { "ZIP": "10455", "address": "837 East 149th Street", "borough": "Bronx", "chain_name": "Subway", "latitude": 40.8123, "longitude": -73.9054, "state": "NY" }, "geometry": { "type": "Point", "coordinates": [ -73.9054, 40.8123 ] } },
{ "type": "Feature", "properties": { "ZIP": "10463", "address": "5549 Broadway", "borough": "Bronx", "chain_name": "Subway", "latitude": 40.8783, "longitude": -73.9052, "state": "NY" }, "geometry": { "type": "Point", "coordinates": [ -73.9052, 40.8783 ] } },
{ "type": "Feature", "properties": { "ZIP": "10466", "address": "980 East 233rd Street", "borough": "Bronx", "chain_name": "Subway", "latitude": 40.8905, "longitude": -73.8492, "state": "NY" }, "geometry": { "type": "Point", "coordinates": [ -73.8492, 40.8905 ] } },
{ "type": "Feature", "properties": { "ZIP": "10034", "address": "595 W 207th St", "borough": "New York", "chain_name": "Subway", "latitude": 40.8671, "longitude": -73.9207, "state": "NY" }, "geometry": { "type": "Point", "coordinates": [ -73.9207, 40.8671 ] } },
{ "type": "Feature", "properties": { "ZIP": "10463", "address": "193 West 237th Street", "borough": "Bronx", "chain_name": "Subway", "latitude": 40.8843, "longitude": -73.9006, "state": "NY" }, "geometry": { "type": "Point", "coordinates": [ -73.9006, 40.8843 ] } },
{ "type": "Feature", "properties": { "ZIP": "10455", "address": "423A  East 149th St", "borough": "Bronx", "chain_name": "Subway", "latitude": 40.8159, "longitude": -73.9169, "state": "NY" }, "geometry": { "type": "Point", "coordinates": [ -73.9169, 40.8159 ] } },
{ "type": "Feature", "properties": { "ZIP": "10451", "address": "91 E 161st St", "borough": "Bronx", "chain_name": "Subway", "latitude": 40.8277, "longitude": -73.9256, "state": "NY" }, "geometry": { "type": "Point", "coordinates": [ -73.9256, 40.8277 ] } },
{ "type": "Feature", "properties": { "ZIP": "10034", "address": "180-182 Dyckman St", "borough": "New York", "chain_name": "Subway", "latitude": 40.8644, "longitude": -73.9267, "state": "NY" }, "geometry": { "type": "Point", "coordinates": [ -73.9267, 40.8644 ] } },
{ "type": "Feature", "properties": { "ZIP": "10033", "address": "1502 St Nicholas Ave", "borough": "New York", "chain_name": "Subway", "latitude": 40.8518, "longitude": -73.9323, "state": "NY" }, "geometry": { "type": "Point", "coordinates": [ -73.9323, 40.8518 ] } }
]
}
