{
"type": "FeatureCollection",
"crs": { "type": "name", "properties": { "name": "urn:ogc:def:crs:OGC:1.3:CRS84" } },
"features": [
{ "type": "Feature", "properties": { "ZIP": "10038", "address": "85 NASSAU STREET", "borough": "NEW YORK", "chain_name": "Wendys", "latitude": "40.710124", "longitude": "-74.008141", "state": "NY" }, "geometry": { "type": "Point", "coordinates": [ -74.008141, 40.710124 ] } },
{ "type": "Feature", "properties": { "ZIP": "10004", "address": "WHITEHALL STATEN ISLAND FERRY 4 SOUTH ST SPACE 2", "borough": "STATEN ISLAND", "chain_name": "Wendys", "latitude": "40.701216", "longitude": "-74.013467", "state": "NY" }, "geometry": { "type": "Point", "coordinates": [ -74.013467, 40.701216 ] } },
{ "type": "Feature", "properties": { "ZIP": "10012", "address": "650 BROADWAY", "borough": "NEW YORK", "chain_name": "Wendys", "latitude": "40.726676", "longitude": "-73.995304", "state": "NY" }, "geometry": { "type": "Point", "coordinates": [ -73.995304, 40.726676 ] } },
{ "type": "Feature", "properties": { "ZIP": "10003", "address": "20 E 14TH STREET", "borough": "NEW YORK", "chain_name": "Wendys", "latitude": "40.735432", "longitude": "-73.992682", "state": "NY" }, "geometry": { "type": "Point", "coordinates": [ -73.992682, 40.735432 ] } },
{ "type": "Feature", "properties": { "ZIP": "10016", "address": "335 FIFTH AVENUE", "borough": "NEW YORK", "chain_name": "Wendys", "latitude": "40.747796", "longitude": "-73.984793", "state": "NY" }, "geometry": { "type": "Point", "coordinates": [ -73.984793, 40.747796 ] } },
{ "type": "Feature", "properties": { "ZIP": "10017", "address": "714 THIRD AVENUE", "borough": "NEW YORK", "chain_name": "Wendys", "latitude": "40.75254", "longitude": "-73.97338", "state": "NY" }, "geometry": { "type": "Point", "coordinates": [ -73.97338, 40.75254 ] } },
{ "type": "Feature", "properties": { "ZIP": "10019", "address": "938 EIGHTH AVENUE", "borough": "NEW YORK", "chain_name": "Wendys", "latitude": "40.76551", "longitude": "-73.98354", "state": "NY" }, "geometry": { "type": "Point", "coordinates": [ -73.98354, 40.76551 ] } },
{ "type": "Feature", "properties": { "ZIP": "11225", "address": "469 FLATBUSH AVE", "borough": "BROOKLYN", "chain_name": "Wendys", "latitude": "40.662956", "longitude": "-73.961739", "state": "NY" }, "geometry": { "type": "Point", "coordinates": [ -73.961739, 40.662956 ] } },
{ "type": "Feature", "properties": { "ZIP": "11104", "address": "4416 QUEENS BLVD", "borough": "LONG ISLAND CITY", "chain_name": "Wendys", "latitude": "40.742921", "longitude": "-73.920026", "state": "NY" }, "geometry": { "type": "Point", "coordinates": [ -73.920026, 40.742921 ] } },
{ "type": "Feature", "properties": { "ZIP": "11203", "address": "505 UTICA AVE", "borough": "BROOKLYN", "chain_name": "Wendys", "latitude": "40.661198", "longitude": "-73.93103", "state": "NY" }, "geometry": { "type": "Point", "coordinates": [ -73.93103, 40.661198 ] } },
{ "type": "Feature", "properties": { "ZIP": "11379", "address": "61-11 FRESH POND RD.", "borough": "MIDDLE VILLAGE", "chain_name": "Wendys", "latitude": "40.714464", "longitude": "-73.900926", "state": "NY" }, "geometry": { "type": "Point", "coordinates": [ -73.900926, 40.714464 ] } },
{ "type": "Feature", "properties": { "ZIP": "11209", "address": "420 86TH STREET", "borough": "BROOKLYN", "chain_name": "Wendys", "latitude": "40.6223", "longitude": "-74.0279", "state": "NY" }, "geometry": { "type": "Point", "coordinates": [ -74.0279, 40.6223 ] } },
{ "type": "Feature", "properties": { "ZIP": "11377", "address": "69-02 NORTHERN BLVD.", "borough": "FLUSHING", "chain_name": "Wendys", "latitude": "40.754066", "longitude": "-73.896935", "state": "NY" }, "geometry": { "type": "Point", "coordinates": [ -73.896935, 40.754066 ] } },
{ "type": "Feature", "properties": { "ZIP": "11372", "address": "72-32 BROADWAY JACKSON HEIGHTS", "borough": "QUEENS VILLAGE", "chain_name": "Wendys", "latitude": "40.747008", "longitude": "-73.892667", "state": "NY" }, "geometry": { "type": "Point", "coordinates": [ -73.892667, 40.747008 ] } },
{ "type": "Feature", "properties": { "ZIP": "11236", "address": "9001 DITMAS AVENUE", "borough": "BROOKLYN", "chain_name": "Wendys", "latitude": "40.648294", "longitude": "-73.914712", "state": "NY" }, "geometry": { "type": "Point", "coordinates": [ -73.914712, 40.648294 ] } },
{ "type": "Feature", "properties": { "ZIP": "10029", "address": "2121-2123 THIRD AVE.", "borough": "NEW YORK", "chain_name": "Wendys", "latitude": "40.7978", "longitude": "-73.939866", "state": "NY" }, "geometry": { "type": "Point", "coordinates": [ -73.939866, 40.7978 ] } },
{ "type": "Feature", "properties": { "ZIP": "11208", "address": "3183 ATLANTIC AVENUE", "borough": "BROOKLYN", "chain_name": "Wendys", "latitude": "40.680064", "longitude": "-73.87801", "state": "NY" }, "geometry": { "type": "Point", "coordinates": [ -73.87801, 40.680064 ] } },
{ "type": "Feature", "properties": { "ZIP": "11207", "address": "1916 LINDEN BLVD", "borough": "BROOKLYN", "chain_name": "Wendys", "latitude": "40.65801", "longitude": "-73.891125", "state": "NY" }, "geometry": { "type": "Point", "coordinates": [ -73.891125, 40.65801 ] } },
{ "type": "Feature", "properties": { "ZIP": "11236", "address": "78-11 FLATLANDS AVENUE", "borough": "BROOKLYN", "chain_name": "Wendys", "latitude": "40.634995", "longitude": "-73.914635", "state": "NY" }, "geometry": { "type": "Point", "coordinates": [ -73.914635, 40.634995 ] } },
{ "type": "Feature", "properties": { "ZIP": "10035", "address": "79 E. 125TH STREET", "borough": "NEW YORK", "chain_name": "Wendys", "latitude": "40.805479", "longitude": "-73.939426", "state": "NY" }, "geometry": { "type": "Point", "coordinates": [ -73.939426, 40.805479 ] } },
{ "type": "Feature", "properties": { "ZIP": "11234", "address": "1601 UTICA AVE.", "borough": "BROOKLYN", "chain_name": "Wendys", "latitude": "40.60658", "longitude": "-73.9905", "state": "NY" }, "geometry": { "type": "Point", "coordinates": [ -73.9905, 40.60658 ] } },
{ "type": "Feature", "properties": { "ZIP": "11374", "address": "90-13 METROPOLITAN", "borough": "REGO PARK", "chain_name": "Wendys", "latitude": "40.711928", "longitude": "-73.859371", "state": "NY" }, "geometry": { "type": "Point", "coordinates": [ -73.859371, 40.711928 ] } },
{ "type": "Feature", "properties": { "ZIP": "11214", "address": "1602 SHORE PARKWAY", "borough": "BROOKLYN", "chain_name": "Wendys", "latitude": "40.59536", "longitude": "-74.000298", "state": "NY" }, "geometry": { "type": "Point", "coordinates": [ -74.000298, 40.59536 ] } },
{ "type": "Feature", "properties": { "ZIP": "10032", "address": "3939 BROADWAY", "borough": "NEW YORK", "chain_name": "Wendys", "latitude": "40.839179", "longitude": "-73.941477", "state": "NY" }, "geometry": { "type": "Point", "coordinates": [ -73.941477, 40.839179 ] } },
{ "type": "Feature", "properties": { "ZIP": "10303", "address": "1761 FOREST AVE.", "borough": "STATEN ISLAND", "chain_name": "Wendys", "latitude": "40.62534", "longitude": "-74.1474", "state": "NY" }, "geometry": { "type": "Point", "coordinates": [ -74.1474, 40.62534 ] } },
{ "type": "Feature", "properties": { "ZIP": "11235", "address": "621 BRIGHTON BEACH AVE", "borough": "BROOKLYN", "chain_name": "Wendys", "latitude": "40.577913", "longitude": "-73.961015", "state": "NY" }, "geometry": { "type": "Point", "coordinates": [ -73.961015, 40.577913 ] } },
{ "type": "Feature", "properties": { "ZIP": "10305", "address": "1661 HYLAN BLVD.", "borough": "STATEN ISLAND", "chain_name": "Wendys", "latitude": "40.588345", "longitude": "-74.091019", "state": "NY" }, "geometry": { "type": "Point", "coordinates": [ -74.091019, 40.588345 ] } },
{ "type": "Feature", "properties": { "ZIP": "11354", "address": "133-50 WHITESTONE EXPRESS", "borough": "FLUSHING", "chain_name": "Wendys", "latitude": "40.769135", "longitude": "-73.835807", "state": "NY" }, "geometry": { "type": "Point", "coordinates": [ -73.835807, 40.769135 ] } },
{ "type": "Feature", "properties": { "ZIP": "10452", "address": "19 WEST 170TH STREET", "borough": "BRONX", "chain_name": "Wendys", "latitude": "40.840571", "longitude": "-73.91777", "state": "NY" }, "geometry": { "type": "Point", "coordinates": [ -73.91777, 40.840571 ] } },
{ "type": "Feature", "properties": { "ZIP": "11435", "address": "138-42 JAMAICA AVENUE", "borough": "JAMAICA", "chain_name": "Wendys", "latitude": "40.702816", "longitude": "-73.814084", "state": "NY" }, "geometry": { "type": "Point", "coordinates": [ -73.814084, 40.702816 ] } },
{ "type": "Feature", "properties": { "ZIP": "10457", "address": "4040 3RD AVE", "borough": "BRONX", "chain_name": "Wendys", "latitude": "40.842827", "longitude": "-73.897758", "state": "NY" }, "geometry": { "type": "Point", "coordinates": [ -73.897758, 40.842827 ] } },
{ "type": "Feature", "properties": { "ZIP": "11432", "address": "155-33 JAMAICA AVENUE", "borough": "JAMAICA", "chain_name": "Wendys", "latitude": "40.70352", "longitude": "-73.800603", "state": "NY" }, "geometry": { "type": "Point", "coordinates": [ -73.800603, 40.70352 ] } },
{ "type": "Feature", "properties": { "ZIP": "10462", "address": "2140 WESTCHESTER AVENUE", "borough": "BRONX", "chain_name": "Wendys", "latitude": "40.833898", "longitude": "-73.853036", "state": "NY" }, "geometry": { "type": "Point", "coordinates": [ -73.853036, 40.833898 ] } },
{ "type": "Feature", "properties": { "ZIP": "11430", "address": "JFK TRAVEL PLAZA 150TH AVE. BLDG 125", "borough": "JAMAICA", "chain_name": "Wendys", "latitude": "40.663", "longitude": "-73.7923", "state": "NY" }, "geometry": { "type": "Point", "coordinates": [ -73.7923, 40.663 ] } },
{ "type": "Feature", "properties": { "ZIP": "10314", "address": "26 RICHMOND HILL ROAD", "borough": "STATEN ISLAND", "chain_name": "Wendys", "latitude": "40.5882", "longitude": "-74.1669", "state": "NY" }, "geometry": { "type": "Point", "coordinates": [ -74.1669, 40.5882 ] } },
{ "type": "Feature", "properties": { "ZIP": "10461", "address": "2703 E TREMONT AVE", "borough": "BRONX", "chain_name": "Wendys", "latitude": "40.842911", "longitude": "-73.845337", "state": "NY" }, "geometry": { "type": "Point", "coordinates": [ -73.845337, 40.842911 ] } },
{ "type": "Feature", "properties": { "ZIP": "11430", "address": "JFK DELTA AIRLINES T2 BLDG 54 SP 35", "borough": "JAMAICA", "chain_name": "Wendys", "latitude": "40.643697", "longitude": "-73.78201", "state": "NY" }, "geometry": { "type": "Point", "coordinates": [ -73.78201, 40.643697 ] } },
{ "type": "Feature", "properties": { "ZIP": "10314", "address": "SHOW PLACE CENTER 141 E SERVICE RD", "borough": "STATEN ISLAND", "chain_name": "Wendys", "latitude": "40.588783", "longitude": "-74.191591", "state": "NY" }, "geometry": { "type": "Point", "coordinates": [ -74.191591, 40.588783 ] } },
{ "type": "Feature", "properties": { "ZIP": "11361", "address": "220-06 NORTHERN BLVD", "borough": "BAYSIDE", "chain_name": "Wendys", "latitude": "40.761314", "longitude": "-73.761402", "state": "NY" }, "geometry": { "type": "Point", "coordinates": [ -73.761402, 40.761314 ] } },
{ "type": "Feature", "properties": { "ZIP": "11427", "address": "219-44 HILLSIDE AVENUE", "borough": "QUEENS VILLAGE", "chain_name": "Wendys", "latitude": "40.72987", "longitude": "-73.743652", "state": "NY" }, "geometry": { "type": "Point", "coordinates": [ -73.743652, 40.72987 ] } },
{ "type": "Feature", "properties": { "ZIP": "10312", "address": "25 PUTNAM STREET", "borough": "STATEN ISLAND", "chain_name": "Wendys", "latitude": "40.54371", "longitude": "-74.16428", "state": "NY" }, "geometry": { "type": "Point", "coordinates": [ -74.16428, 40.54371 ] } },
{ "type": "Feature", "properties": { "ZIP": "10469", "address": "3636 BOSTON ROAD", "borough": "BRONX", "chain_name": "Wendys", "latitude": "40.879609", "longitude": "-73.84216", "state": "NY" }, "geometry": { "type": "Point", "coordinates": [ -73.84216, 40.879609 ] } },
{ "type": "Feature", "properties": { "ZIP": "11003", "address": "199 HEMPSTEAD TPKE", "borough": "ELMONT", "chain_name": "Wendys", "latitude": "40.708483", "longitude": "-73.720187", "state": "NY" }, "geometry": { "type": "Point", "coordinates": [ -73.720187, 40.708483 ] } },
{ "type": "Feature", "properties": { "ZIP": "11581", "address": "2046 GREEN ACRES MALL", "borough": "VALLEY STREAM", "chain_name": "Wendys", "latitude": "40.662296", "longitude": "-73.722285", "state": "NY" }, "geometry": { "type": "Point", "coordinates": [ -73.722285, 40.662296 ] } },
{ "type": "Feature", "properties": { "ZIP": "10475", "address": "4330 BOSTON ROAD", "borough": "BRONX", "chain_name": "Wendys", "latitude": "40.889626", "longitude": "-73.820045", "state": "NY" }, "geometry": { "type": "Point", "coordinates": [ -73.820045, 40.889626 ] } },
{ "type": "Feature", "properties": { "ZIP": "10309", "address": "6420 AMBOY ROAD", "borough": "STATEN ISLAND", "chain_name": "Wendys", "latitude": "40.52144", "longitude": "-74.21684", "state": "NY" }, "geometry": { "type": "Point", "coordinates": [ -74.21684, 40.52144 ] } },
{ "type": "Feature", "properties": { "ZIP": "11010", "address": "1034 HEMPSTEAD TURNPIKE", "borough": "FRANKLIN SQUARE", "chain_name": "Wendys", "latitude": "40.707852", "longitude": "-73.6778", "state": "NY" }, "geometry": { "type": "Point", "coordinates": [ -73.6778, 40.707852 ] } },
{ "type": "Feature", "properties": { "ZIP": "11563", "address": "580 MERRICK RD.", "borough": "LYNBROOK", "chain_name": "Wendys", "latitude": "40.659978", "longitude": "-73.68331", "state": "NY" }, "geometry": { "type": "Point", "coordinates": [ -73.68331, 40.659978 ] } },
{ "type": "Feature", "properties": { "ZIP": "11518", "address": "80 OCEAN AVE", "borough": "E.ROCKAWAY", "chain_name": "Wendys", "latitude": "40.640541", "longitude": "-73.660093", "state": "NY" }, "geometry": { "type": "Point", "coordinates": [ -73.660093, 40.640541 ] } },
{ "type": "Feature", "properties": { "ZIP": "11596", "address": "259 HILLSIDE AVE", "borough": "WILLISTON PARK", "chain_name": "Wendys", "latitude": "40.75459", "longitude": "-73.649659", "state": "NY" }, "geometry": { "type": "Point", "coordinates": [ -73.649659, 40.75459 ] } },
{ "type": "Feature", "properties": { "ZIP": "10710", "address": "1751 CENTRAL PARK AVENUE", "borough": "YONKERS", "chain_name": "Wendys", "latitude": "40.959008", "longitude": "-73.842359", "state": "NY" }, "geometry": { "type": "Point", "coordinates": [ -73.842359, 40.959008 ] } },
{ "type": "Feature", "properties": { "ZIP": "11552", "address": "65 HEMPSTEAD TPKE", "borough": "W.HEMPSTEAD", "chain_name": "Wendys", "latitude": "40.704692", "longitude": "-73.640279", "state": "NY" }, "geometry": { "type": "Point", "coordinates": [ -73.640279, 40.704692 ] } },
{ "type": "Feature", "properties": { "ZIP": "11558", "address": "33 AUSTIN BLVD", "borough": "ISLAND PARK", "chain_name": "Wendys", "latitude": "40.597808", "longitude": "-73.656095", "state": "NY" }, "geometry": { "type": "Point", "coordinates": [ -73.656095, 40.597808 ] } },
{ "type": "Feature", "properties": { "ZIP": "11548", "address": "18 GLEN COVE ROAD", "borough": "GREENVALE", "chain_name": "Wendys", "latitude": "40.808913", "longitude": "-73.6279", "state": "NY" }, "geometry": { "type": "Point", "coordinates": [ -73.6279, 40.808913 ] } },
{ "type": "Feature", "properties": { "ZIP": "11530", "address": "820 OLD COUNTRY ROAD", "borough": "GARDEN CITY", "chain_name": "Wendys", "latitude": "40.744152", "longitude": "-73.607763", "state": "NY" }, "geometry": { "type": "Point", "coordinates": [ -73.607763, 40.744152 ] } },
{ "type": "Feature", "properties": { "ZIP": "11530", "address": "630 OLD COUNTRY RD", "borough": "GARDEN CITY", "chain_name": "Wendys", "latitude": "40.744126", "longitude": "-73.607734", "state": "NY" }, "geometry": { "type": "Point", "coordinates": [ -73.607734, 40.744126 ] } },
{ "type": "Feature", "properties": { "ZIP": "11510", "address": "690 SUNRISE HWY", "borough": "BALDWIN", "chain_name": "Wendys", "latitude": "40.655962", "longitude": "-73.611081", "state": "NY" }, "geometry": { "type": "Point", "coordinates": [ -73.611081, 40.655962 ] } },
{ "type": "Feature", "properties": { "ZIP": "10983", "address": "3 ROUTE 303", "borough": "TAPPAN", "chain_name": "Wendys", "latitude": "41.016464", "longitude": "-73.944383", "state": "NY" }, "geometry": { "type": "Point", "coordinates": [ -73.944383, 41.016464 ] } },
{ "type": "Feature", "properties": { "ZIP": "11542", "address": "210 GLEN STREET", "borough": "GLEN COVE", "chain_name": "Wendys", "latitude": "40.861903", "longitude": "-73.623456", "state": "NY" }, "geometry": { "type": "Point", "coordinates": [ -73.623456, 40.861903 ] } },
{ "type": "Feature", "properties": { "ZIP": "11554", "address": "1730 HEMPSTEAD TURNPIKE", "borough": "E.MEADOW", "chain_name": "Wendys", "latitude": "40.723086", "longitude": "-73.571786", "state": "NY" }, "geometry": { "type": "Point", "coordinates": [ -73.571786, 40.723086 ] } },
{ "type": "Feature", "properties": { "ZIP": "11566", "address": "1728 MERRICK RD.", "borough": "MERRICK", "chain_name": "Wendys", "latitude": "40.653412", "longitude": "-73.55831", "state": "NY" }, "geometry": { "type": "Point", "coordinates": [ -73.55831, 40.653412 ] } },
{ "type": "Feature", "properties": { "ZIP": "11753", "address": "90 JERICHO TURNPIKE", "borough": "JERICHO", "chain_name": "Wendys", "latitude": "40.780478", "longitude": "-73.5596", "state": "NY" }, "geometry": { "type": "Point", "coordinates": [ -73.5596, 40.780478 ] } },
{ "type": "Feature", "properties": { "ZIP": "10601", "address": "100 MAIN ST STE 242", "borough": "WHITE PLAINS", "chain_name": "Wendys", "latitude": "41.031898", "longitude": "-73.770801", "state": "NY" }, "geometry": { "type": "Point", "coordinates": [ -73.770801, 41.031898 ] } },
{ "type": "Feature", "properties": { "ZIP": "11801", "address": "60 NORTH BROADWAY", "borough": "HICKSVILLE", "chain_name": "Wendys", "latitude": "40.769736", "longitude": "-73.526531", "state": "NY" }, "geometry": { "type": "Point", "coordinates": [ -73.526531, 40.769736 ] } },
{ "type": "Feature", "properties": { "ZIP": "10523", "address": "91 SAW MILL ROAD", "borough": "ELMSFORD", "chain_name": "Wendys", "latitude": "41.057414", "longitude": "-73.817594", "state": "NY" }, "geometry": { "type": "Point", "coordinates": [ -73.817594, 41.057414 ] } },
{ "type": "Feature", "properties": { "ZIP": "11791", "address": "250 JERICHO TURNPIKE", "borough": "SYOSSET", "chain_name": "Wendys", "latitude": "40.804851", "longitude": "-73.522765", "state": "NY" }, "geometry": { "type": "Point", "coordinates": [ -73.522765, 40.804851 ] } },
{ "type": "Feature", "properties": { "ZIP": "11793", "address": "1350 WANTAGH AVE ", "borough": "WANTAGH", "chain_name": "Wendys", "latitude": "40.689474", "longitude": "-73.5091", "state": "NY" }, "geometry": { "type": "Point", "coordinates": [ -73.5091, 40.689474 ] } },
{ "type": "Feature", "properties": { "ZIP": "10954", "address": "90 EAST ROUTE 59", "borough": "NANUET", "chain_name": "Wendys", "latitude": "41.096101", "longitude": "-74.007638", "state": "NY" }, "geometry": { "type": "Point", "coordinates": [ -74.007638, 41.096101 ] } },
{ "type": "Feature", "properties": { "ZIP": "11756", "address": "3595 HEMPSTEAD TURNPIKE", "borough": "LEVITTOWN", "chain_name": "Wendys", "latitude": "40.725769", "longitude": "-73.501772", "state": "NY" }, "geometry": { "type": "Point", "coordinates": [ -73.501772, 40.725769 ] } },
{ "type": "Feature", "properties": { "ZIP": "10994", "address": "3624 PALISADES CENTER DRIVE", "borough": "W.NYACK", "chain_name": "Wendys", "latitude": "41.096563", "longitude": "-73.955674", "state": "NY" }, "geometry": { "type": "Point", "coordinates": [ -73.955674, 41.096563 ] } },
{ "type": "Feature", "properties": { "ZIP": "11783", "address": "3882 SUNRISE HWY", "borough": "SEAFORD", "chain_name": "Wendys", "latitude": "40.674378", "longitude": "-73.488786", "state": "NY" }, "geometry": { "type": "Point", "coordinates": [ -73.488786, 40.674378 ] } },
{ "type": "Feature", "properties": { "ZIP": "10901", "address": "320 ROUTE 59", "borough": "AIRMONT", "chain_name": "Wendys", "latitude": "41.11135", "longitude": "-74.098966", "state": "NY" }, "geometry": { "type": "Point", "coordinates": [ -74.098966, 41.11135 ] } },
{ "type": "Feature", "properties": { "ZIP": "10532", "address": "33 SAWMILL RIVER ROAD", "borough": "HAWTHORNE", "chain_name": "Wendys", "latitude": "41.094474", "longitude": "-73.814907", "state": "NY" }, "geometry": { "type": "Point", "coordinates": [ -73.814907, 41.094474 ] } },
{ "type": "Feature", "properties": { "ZIP": "11735", "address": "5001 HEMPSTEAD TURNPIKE", "borough": "FARMINGDALE", "chain_name": "Wendys", "latitude": "40.729483", "longitude": "-73.464058", "state": "NY" }, "geometry": { "type": "Point", "coordinates": [ -73.464058, 40.729483 ] } },
{ "type": "Feature", "properties": { "ZIP": "11758", "address": "1 SUNRISE MALL", "borough": "MASSAPEQUA", "chain_name": "Wendys", "latitude": "40.684031", "longitude": "-73.434644", "state": "NY" }, "geometry": { "type": "Point", "coordinates": [ -73.434644, 40.684031 ] } },
{ "type": "Feature", "properties": { "ZIP": "11735", "address": "2123 BROADHOLLOW RD.", "borough": "FARMINGDALE", "chain_name": "Wendys", "latitude": "40.751343", "longitude": "-73.421343", "state": "NY" }, "geometry": { "type": "Point", "coordinates": [ -73.421343, 40.751343 ] } },
{ "type": "Feature", "properties": { "ZIP": "11735", "address": "220 ROUTE 109", "borough": "FARMINGDALE", "chain_name": "Wendys", "latitude": "40.720422", "longitude": "-73.417811", "state": "NY" }, "geometry": { "type": "Point", "coordinates": [ -73.417811, 40.720422 ] } },
{ "type": "Feature", "properties": { "ZIP": "11746", "address": "205 W. JERICHO TURNPIKE", "borough": "HUNTINGTON STATION", "chain_name": "Wendys", "latitude": "40.828955", "longitude": "-73.416918", "state": "NY" }, "geometry": { "type": "Point", "coordinates": [ -73.416918, 40.828955 ] } },
{ "type": "Feature", "properties": { "ZIP": "11726", "address": "1255 SUNRISE HIGHWAY", "borough": "COPIAGUE", "chain_name": "Wendys", "latitude": "40.692596", "longitude": "-73.395549", "state": "NY" }, "geometry": { "type": "Point", "coordinates": [ -73.395549, 40.692596 ] } },
{ "type": "Feature", "properties": { "ZIP": "11726", "address": "820 MONTAUK HIGHWAY", "borough": "COPIAGUE", "chain_name": "Wendys", "latitude": "40.668437", "longitude": "-73.394952", "state": "NY" }, "geometry": { "type": "Point", "coordinates": [ -73.394952, 40.668437 ] } },
{ "type": "Feature", "properties": { "ZIP": "10993", "address": "125 RT. 9 WEST", "borough": "W.HAVERSTRAW", "chain_name": "Wendys", "latitude": "41.200841", "longitude": "-73.983988", "state": "NY" }, "geometry": { "type": "Point", "coordinates": [ -73.983988, 41.200841 ] } },
{ "type": "Feature", "properties": { "ZIP": "11743", "address": "1210 E JERICHO TPKE", "borough": "HUNTINGTON", "chain_name": "Wendys", "latitude": "40.83266", "longitude": "-73.363003", "state": "NY" }, "geometry": { "type": "Point", "coordinates": [ -73.363003, 40.83266 ] } },
{ "type": "Feature", "properties": { "ZIP": "11704", "address": "625 W MONTAUK HWY", "borough": "W.BABYLON", "chain_name": "Wendys", "latitude": "40.686098", "longitude": "-73.344952", "state": "NY" }, "geometry": { "type": "Point", "coordinates": [ -73.344952, 40.686098 ] } },
{ "type": "Feature", "properties": { "ZIP": "11703", "address": "1234 DEER PARK AVE.", "borough": "N.BABYLON", "chain_name": "Wendys", "latitude": "40.737275", "longitude": "-73.320696", "state": "NY" }, "geometry": { "type": "Point", "coordinates": [ -73.320696, 40.737275 ] } },
{ "type": "Feature", "properties": { "ZIP": "11731", "address": "280 LARKFIELD ROAD", "borough": "E.NORTHPORT", "chain_name": "Wendys", "latitude": "40.874424", "longitude": "-73.32454", "state": "NY" }, "geometry": { "type": "Point", "coordinates": [ -73.32454, 40.874424 ] } },
{ "type": "Feature", "properties": { "ZIP": "11725", "address": "2180 JERICHO TURNPIKE", "borough": "COMMACK", "chain_name": "Wendys", "latitude": "40.842674", "longitude": "-73.286285", "state": "NY" }, "geometry": { "type": "Point", "coordinates": [ -73.286285, 40.842674 ] } },
{ "type": "Feature", "properties": { "ZIP": "11717", "address": "37 WICKS ROAD", "borough": "BRENTWOOD", "chain_name": "Wendys", "latitude": "40.779403", "longitude": "-73.260148", "state": "NY" }, "geometry": { "type": "Point", "coordinates": [ -73.260148, 40.779403 ] } },
{ "type": "Feature", "properties": { "ZIP": "11788", "address": "350A MOTOR PARKWAY", "borough": "HAUPPAUGE", "chain_name": "Wendys", "latitude": "40.807913", "longitude": "-73.245052", "state": "NY" }, "geometry": { "type": "Point", "coordinates": [ -73.245052, 40.807913 ] } },
{ "type": "Feature", "properties": { "ZIP": "11751", "address": "168 MAIN STREET", "borough": "ISLIP", "chain_name": "Wendys", "latitude": "40.727873", "longitude": "-73.222899", "state": "NY" }, "geometry": { "type": "Point", "coordinates": [ -73.222899, 40.727873 ] } },
{ "type": "Feature", "properties": { "ZIP": "10567", "address": "2929 E MAIN ST", "borough": "CORTLANDT MANOR", "chain_name": "Wendys", "latitude": "41.306475", "longitude": "-73.876516", "state": "NY" }, "geometry": { "type": "Point", "coordinates": [ -73.876516, 41.306475 ] } },
{ "type": "Feature", "properties": { "ZIP": "10950", "address": "330 LARKIN DR", "borough": "MONROE", "chain_name": "Wendys", "latitude": "41.318709", "longitude": "-74.146399", "state": "NY" }, "geometry": { "type": "Point", "coordinates": [ -74.146399, 41.318709 ] } },
{ "type": "Feature", "properties": { "ZIP": "11788", "address": "527 ROUTE 111", "borough": "HAUPPAUGE", "chain_name": "Wendys", "latitude": "40.827689", "longitude": "-73.200158", "state": "NY" }, "geometry": { "type": "Point", "coordinates": [ -73.200158, 40.827689 ] } },
{ "type": "Feature", "properties": { "ZIP": "11780", "address": "570 MIDDLE COUNTRY RD", "borough": "ST.JAMES", "chain_name": "Wendys", "latitude": "40.85964", "longitude": "-73.160096", "state": "NY" }, "geometry": { "type": "Point", "coordinates": [ -73.160096, 40.85964 ] } },
{ "type": "Feature", "properties": { "ZIP": "11769", "address": "885 MONTAUK HIGHWAY", "borough": "OAKDALE", "chain_name": "Wendys", "latitude": "40.737574", "longitude": "-73.119598", "state": "NY" }, "geometry": { "type": "Point", "coordinates": [ -73.119598, 40.737574 ] } },
{ "type": "Feature", "properties": { "ZIP": "10918", "address": "78 BROOKSIDE AVE STE 102", "borough": "CHESTER", "chain_name": "Wendys", "latitude": "41.357844", "longitude": "-74.28398", "state": "NY" }, "geometry": { "type": "Point", "coordinates": [ -74.28398, 41.357844 ] } },
{ "type": "Feature", "properties": { "ZIP": "11755", "address": "334 SMITH HAVEN MALL", "borough": "LAKE GROVE", "chain_name": "Wendys", "latitude": "40.865177", "longitude": "-73.129638", "state": "NY" }, "geometry": { "type": "Point", "coordinates": [ -73.129638, 40.865177 ] } },
{ "type": "Feature", "properties": { "ZIP": "11720", "address": "2278 MIDDLE COUNTRY ROAD", "borough": "CENTEREACH", "chain_name": "Wendys", "latitude": "40.857916", "longitude": "-73.09115", "state": "NY" }, "geometry": { "type": "Point", "coordinates": [ -73.09115, 40.857916 ] } },
{ "type": "Feature", "properties": { "ZIP": "11742", "address": "175 MORRIS AVENUE", "borough": "HOLTSVILLE", "chain_name": "Wendys", "latitude": "40.818529", "longitude": "-73.057961", "state": "NY" }, "geometry": { "type": "Point", "coordinates": [ -73.057961, 40.818529 ] } },
{ "type": "Feature", "properties": { "ZIP": "12584", "address": "408 WINDSOR HWY", "borough": "VAILS GATE", "chain_name": "Wendys", "latitude": "41.455967", "longitude": "-74.0569", "state": "NY" }, "geometry": { "type": "Point", "coordinates": [ -74.0569, 41.455967 ] } },
{ "type": "Feature", "properties": { "ZIP": "11772", "address": "460 SUNRISE HIGHWAY", "borough": "PATCHOGUE", "chain_name": "Wendys", "latitude": "40.776325", "longitude": "-73.031943", "state": "NY" }, "geometry": { "type": "Point", "coordinates": [ -73.031943, 40.776325 ] } },
{ "type": "Feature", "properties": { "ZIP": "10512", "address": "1894 ROUTE 6", "borough": "CARMEL", "chain_name": "Wendys", "latitude": "41.414069", "longitude": "-73.668654", "state": "NY" }, "geometry": { "type": "Point", "coordinates": [ -73.668654, 41.414069 ] } },
{ "type": "Feature", "properties": { "ZIP": "11776", "address": "4955 NESCONSET HWY.", "borough": "PORT JEFFERSON STATION", "chain_name": "Wendys", "latitude": "40.922082", "longitude": "-73.049737", "state": "NY" }, "geometry": { "type": "Point", "coordinates": [ -73.049737, 40.922082 ] } },
{ "type": "Feature", "properties": { "ZIP": "11784", "address": "259 MIDDLE COUNTRY ROAD", "borough": "SELDEN", "chain_name": "Wendys", "latitude": "40.868163", "longitude": "-73.025264", "state": "NY" }, "geometry": { "type": "Point", "coordinates": [ -73.025264, 40.868163 ] } },
{ "type": "Feature", "properties": { "ZIP": "11763", "address": "1820 RT. 112", "borough": "MEDFORD", "chain_name": "Wendys", "latitude": "40.80232", "longitude": "-73.004888", "state": "NY" }, "geometry": { "type": "Point", "coordinates": [ -73.004888, 40.80232 ] } },
{ "type": "Feature", "properties": { "ZIP": "10940", "address": "172-176 DOLSON AVENUE", "borough": "MIDDLETOWN", "chain_name": "Wendys", "latitude": "41.427819", "longitude": "-74.426863", "state": "NY" }, "geometry": { "type": "Point", "coordinates": [ -74.426863, 41.427819 ] } },
{ "type": "Feature", "properties": { "ZIP": "10941", "address": "33 CRYSTAL RUN ROAD", "borough": "MIDDLETOWN", "chain_name": "Wendys", "latitude": "41.453423", "longitude": "-74.366693", "state": "NY" }, "geometry": { "type": "Point", "coordinates": [ -74.366693, 41.453423 ] } },
{ "type": "Feature", "properties": { "ZIP": "10940", "address": "441 ROUTE 211 E", "borough": "MIDDLETOWN", "chain_name": "Wendys", "latitude": "41.459", "longitude": "-74.3785", "state": "NY" }, "geometry": { "type": "Point", "coordinates": [ -74.3785, 41.459 ] } },
{ "type": "Feature", "properties": { "ZIP": "11764", "address": "380 ROUTE 25A", "borough": "MILLER PLACE", "chain_name": "Wendys", "latitude": "40.941434", "longitude": "-72.986555", "state": "NY" }, "geometry": { "type": "Point", "coordinates": [ -72.986555, 40.941434 ] } },
{ "type": "Feature", "properties": { "ZIP": "12550", "address": "1417 ROUTE 300", "borough": "NEWBURGH", "chain_name": "Wendys", "latitude": "41.520918", "longitude": "-74.070874", "state": "NY" }, "geometry": { "type": "Point", "coordinates": [ -74.070874, 41.520918 ] } },
{ "type": "Feature", "properties": { "ZIP": "12524", "address": "25 ELM STREET", "borough": "FISHKILL", "chain_name": "Wendys", "latitude": "41.534368", "longitude": "-73.898861", "state": "NY" }, "geometry": { "type": "Point", "coordinates": [ -73.898861, 41.534368 ] } },
{ "type": "Feature", "properties": { "ZIP": "11967", "address": "555 WILLIAM FLOYD PKWY", "borough": "SHIRLEY", "chain_name": "Wendys", "latitude": "40.800561", "longitude": "-72.866036", "state": "NY" }, "geometry": { "type": "Point", "coordinates": [ -72.866036, 40.800561 ] } },
{ "type": "Feature", "properties": { "ZIP": "12590", "address": "1601 ROUTE 9", "borough": "WAPPINGERS FALLS", "chain_name": "Wendys", "latitude": "41.598115", "longitude": "-73.911852", "state": "NY" }, "geometry": { "type": "Point", "coordinates": [ -73.911852, 41.598115 ] } },
{ "type": "Feature", "properties": { "ZIP": "12601", "address": "2001 SOUTH ROAD", "borough": "POUGHKEEPSIE", "chain_name": "Wendys", "latitude": "41.625789", "longitude": "-73.921111", "state": "NY" }, "geometry": { "type": "Point", "coordinates": [ -73.921111, 41.625789 ] } },
{ "type": "Feature", "properties": { "ZIP": "11934", "address": "774 MONTAUK HIGHWAY", "borough": "CENTER MORICHES", "chain_name": "Wendys", "latitude": "40.802635", "longitude": "-72.808872", "state": "NY" }, "geometry": { "type": "Point", "coordinates": [ -72.808872, 40.802635 ] } },
{ "type": "Feature", "properties": { "ZIP": "12601", "address": "2596 SOUTH ROAD", "borough": "POUGHKEEPSIE", "chain_name": "Wendys", "latitude": "41.667214", "longitude": "-73.929145", "state": "NY" }, "geometry": { "type": "Point", "coordinates": [ -73.929145, 41.667214 ] } },
{ "type": "Feature", "properties": { "ZIP": "12603", "address": "753 MAIN STREET", "borough": "POUGHKEEPSIE", "chain_name": "Wendys", "latitude": "41.697161", "longitude": "-73.904175", "state": "NY" }, "geometry": { "type": "Point", "coordinates": [ -73.904175, 41.697161 ] } },
{ "type": "Feature", "properties": { "ZIP": "11901", "address": "1165 RT 58", "borough": "RIVERHEAD", "chain_name": "Wendys", "latitude": "40.93024", "longitude": "-72.679318", "state": "NY" }, "geometry": { "type": "Point", "coordinates": [ -72.679318, 40.93024 ] } },
{ "type": "Feature", "properties": { "ZIP": "12701", "address": "17-25 PLEASANT ST", "borough": "MONTICELLO", "chain_name": "Wendys", "latitude": "41.6553", "longitude": "-74.682005", "state": "NY" }, "geometry": { "type": "Point", "coordinates": [ -74.682005, 41.6553 ] } },
{ "type": "Feature", "properties": { "ZIP": "12401", "address": "1360 ULSTER AVENUE", "borough": "KINGSTON", "chain_name": "Wendys", "latitude": "41.970849", "longitude": "-73.987585", "state": "NY" }, "geometry": { "type": "Point", "coordinates": [ -73.987585, 41.970849 ] } },
{ "type": "Feature", "properties": { "ZIP": "13754", "address": "390 STATE HWY 10", "borough": "DEPOSIT", "chain_name": "Wendys", "latitude": "42.055727", "longitude": "-75.413741", "state": "NY" }, "geometry": { "type": "Point", "coordinates": [ -75.413741, 42.055727 ] } },
{ "type": "Feature", "properties": { "ZIP": "12061", "address": "612 COLUMBIA TURNPIKE", "borough": "E.GREENBUSH", "chain_name": "Wendys", "latitude": "42.597324", "longitude": "-73.708678", "state": "NY" }, "geometry": { "type": "Point", "coordinates": [ -73.708678, 42.597324 ] } },
{ "type": "Feature", "properties": { "ZIP": "13820", "address": "6281 STATE HIGHWAY 23", "borough": "ONEONTA", "chain_name": "Wendys", "latitude": "42.447084", "longitude": "-75.05073", "state": "NY" }, "geometry": { "type": "Point", "coordinates": [ -75.05073, 42.447084 ] } },
{ "type": "Feature", "properties": { "ZIP": "12077", "address": "261 ROUTE 9W", "borough": "GLENMONT", "chain_name": "Wendys", "latitude": "42.612029", "longitude": "-73.788487", "state": "NY" }, "geometry": { "type": "Point", "coordinates": [ -73.788487, 42.612029 ] } },
{ "type": "Feature", "properties": { "ZIP": "13904", "address": "2 INDUSTRIAL DRIVE", "borough": "BINGHAMTON", "chain_name": "Wendys", "latitude": "42.101588", "longitude": "-75.835765", "state": "NY" }, "geometry": { "type": "Point", "coordinates": [ -75.835765, 42.101588 ] } },
{ "type": "Feature", "properties": { "ZIP": "12203", "address": "1 CROSSGATE MALL RD", "borough": "ALBANY", "chain_name": "Wendys", "latitude": "42.689371", "longitude": "-73.850483", "state": "NY" }, "geometry": { "type": "Point", "coordinates": [ -73.850483, 42.689371 ] } },
{ "type": "Feature", "properties": { "ZIP": "12205", "address": "1335 CENTRAL AVE", "borough": "ALBANY", "chain_name": "Wendys", "latitude": "42.702526", "longitude": "-73.814918", "state": "NY" }, "geometry": { "type": "Point", "coordinates": [ -73.814918, 42.702526 ] } },
{ "type": "Feature", "properties": { "ZIP": "12180", "address": "77 VANDENBURGH AVENUE", "borough": "TROY", "chain_name": "Wendys", "latitude": "42.696724", "longitude": "-73.688879", "state": "NY" }, "geometry": { "type": "Point", "coordinates": [ -73.688879, 42.696724 ] } },
{ "type": "Feature", "properties": { "ZIP": "13905", "address": "170 MAIN STREET", "borough": "BINGHAMTON", "chain_name": "Wendys", "latitude": "42.103605", "longitude": "-75.930606", "state": "NY" }, "geometry": { "type": "Point", "coordinates": [ -75.930606, 42.103605 ] } },
{ "type": "Feature", "properties": { "ZIP": "12205", "address": "1770 CENTRAL AVENUE", "borough": "COLONIE", "chain_name": "Wendys", "latitude": "42.728522", "longitude": "-73.846482", "state": "NY" }, "geometry": { "type": "Point", "coordinates": [ -73.846482, 42.728522 ] } },
{ "type": "Feature", "properties": { "ZIP": "13905", "address": "1251 FRONT STREET", "borough": "BINGHAMTON", "chain_name": "Wendys", "latitude": "42.157339", "longitude": "-75.896473", "state": "NY" }, "geometry": { "type": "Point", "coordinates": [ -75.896473, 42.157339 ] } },
{ "type": "Feature", "properties": { "ZIP": "13850", "address": "3737 VESTAL PKWY", "borough": "VESTAL", "chain_name": "Wendys", "latitude": "42.096496", "longitude": "-75.980841", "state": "NY" }, "geometry": { "type": "Point", "coordinates": [ -75.980841, 42.096496 ] } },
{ "type": "Feature", "properties": { "ZIP": "12110", "address": "741 NEW LOUDEN RD.", "borough": "LATHAM", "chain_name": "Wendys", "latitude": "42.74218", "longitude": "-73.761012", "state": "NY" }, "geometry": { "type": "Point", "coordinates": [ -73.761012, 42.74218 ] } },
{ "type": "Feature", "properties": { "ZIP": "12110", "address": "1162 TROY-SCHENECTADY ROAD", "borough": "LATHAM", "chain_name": "Wendys", "latitude": "42.769303", "longitude": "-73.820093", "state": "NY" }, "geometry": { "type": "Point", "coordinates": [ -73.820093, 42.769303 ] } },
{ "type": "Feature", "properties": { "ZIP": "12304", "address": "3421 STATE STREET", "borough": "SCHENECTADY", "chain_name": "Wendys", "latitude": "42.773472", "longitude": "-73.894543", "state": "NY" }, "geometry": { "type": "Point", "coordinates": [ -73.894543, 42.773472 ] } },
{ "type": "Feature", "properties": { "ZIP": "13760", "address": "217 WASHINGTON AVE", "borough": "ENDICOTT", "chain_name": "Wendys", "latitude": "42.099233", "longitude": "-76.047665", "state": "NY" }, "geometry": { "type": "Point", "coordinates": [ -76.047665, 42.099233 ] } },
{ "type": "Feature", "properties": { "ZIP": "12303", "address": "1590 ALTAMONT AVENUE", "borough": "ROTTERDAM", "chain_name": "Wendys", "latitude": "42.782885", "longitude": "-73.948527", "state": "NY" }, "geometry": { "type": "Point", "coordinates": [ -73.948527, 42.782885 ] } },
{ "type": "Feature", "properties": { "ZIP": "12305", "address": "132 ERIE BLVD.", "borough": "SCHENECTADY", "chain_name": "Wendys", "latitude": "42.812162", "longitude": "-73.947455", "state": "NY" }, "geometry": { "type": "Point", "coordinates": [ -73.947455, 42.812162 ] } },
{ "type": "Feature", "properties": { "ZIP": "12065", "address": "1517 ROUTE 9", "borough": "HALFMOON", "chain_name": "Wendys", "latitude": "42.840882", "longitude": "-73.744125", "state": "NY" }, "geometry": { "type": "Point", "coordinates": [ -73.744125, 42.840882 ] } },
{ "type": "Feature", "properties": { "ZIP": "12302", "address": "13 SARATOGA ROAD", "borough": "GLENVILLE", "chain_name": "Wendys", "latitude": "42.849981", "longitude": "-73.943472", "state": "NY" }, "geometry": { "type": "Point", "coordinates": [ -73.943472, 42.849981 ] } },
{ "type": "Feature", "properties": { "ZIP": "12065", "address": "3 CLIFTON COUNTRY RD", "borough": "CLIFTON PARK", "chain_name": "Wendys", "latitude": "42.861703", "longitude": "-73.781444", "state": "NY" }, "geometry": { "type": "Point", "coordinates": [ -73.781444, 42.861703 ] } },
{ "type": "Feature", "properties": { "ZIP": "13827", "address": "170 5TH AVE", "borough": "OWEGO", "chain_name": "Wendys", "latitude": "42.060193", "longitude": "-76.353432", "state": "NY" }, "geometry": { "type": "Point", "coordinates": [ -76.353432, 42.060193 ] } },
{ "type": "Feature", "properties": { "ZIP": "12010", "address": "104 TOWNE SQUARE", "borough": "AMSTERDAM", "chain_name": "Wendys", "latitude": "42.961471", "longitude": "-74.185706", "state": "NY" }, "geometry": { "type": "Point", "coordinates": [ -74.185706, 42.961471 ] } },
{ "type": "Feature", "properties": { "ZIP": "12095", "address": "140 NORTH COMRIE AVENUE", "borough": "JOHNSTOWN", "chain_name": "Wendys", "latitude": "43.011761", "longitude": "-74.360009", "state": "NY" }, "geometry": { "type": "Point", "coordinates": [ -74.360009, 43.011761 ] } },
{ "type": "Feature", "properties": { "ZIP": "12866", "address": "24 CONGRESS ST", "borough": "SARATOGA SPRINGS", "chain_name": "Wendys", "latitude": "43.078229", "longitude": "-73.787983", "state": "NY" }, "geometry": { "type": "Point", "coordinates": [ -73.787983, 43.078229 ] } },
{ "type": "Feature", "properties": { "ZIP": "13045", "address": "157 CLINTON AVENUE", "borough": "CORTLAND", "chain_name": "Wendys", "latitude": "42.60818", "longitude": "-76.166169", "state": "NY" }, "geometry": { "type": "Point", "coordinates": [ -76.166169, 42.60818 ] } },
{ "type": "Feature", "properties": { "ZIP": "14850", "address": "326 ELMIRA RD", "borough": "ITHACA", "chain_name": "Wendys", "latitude": "42.426331", "longitude": "-76.512496", "state": "NY" }, "geometry": { "type": "Point", "coordinates": [ -76.512496, 42.426331 ] } },
{ "type": "Feature", "properties": { "ZIP": "14845", "address": "2123 GRAND CENTRAL AVE", "borough": "HORSEHEADS", "chain_name": "Wendys", "latitude": "42.154779", "longitude": "-76.821839", "state": "NY" }, "geometry": { "type": "Point", "coordinates": [ -76.821839, 42.154779 ] } },
{ "type": "Feature", "properties": { "ZIP": "13413", "address": "8505 SENECA TPKE", "borough": "NEW HARTFORD", "chain_name": "Wendys", "latitude": "43.08094", "longitude": "-75.319595", "state": "NY" }, "geometry": { "type": "Point", "coordinates": [ -75.319595, 43.08094 ] } },
{ "type": "Feature", "properties": { "ZIP": "13502", "address": "175 N. GENESSEE STREET", "borough": "UTICA", "chain_name": "Wendys", "latitude": "43.110874", "longitude": "-75.219171", "state": "NY" }, "geometry": { "type": "Point", "coordinates": [ -75.219171, 43.110874 ] } },
{ "type": "Feature", "properties": { "ZIP": "13495", "address": "315 ORISKANY BLVD", "borough": "YORKVILLE", "chain_name": "Wendys", "latitude": "43.113673", "longitude": "-75.277244", "state": "NY" }, "geometry": { "type": "Point", "coordinates": [ -75.277244, 43.113673 ] } },
{ "type": "Feature", "properties": { "ZIP": "14903", "address": "830 COUNTY ROAD 64", "borough": "ELMIRA", "chain_name": "Wendys", "latitude": "42.15413", "longitude": "-76.879865", "state": "NY" }, "geometry": { "type": "Point", "coordinates": [ -76.879865, 42.15413 ] } },
{ "type": "Feature", "properties": { "ZIP": "12804", "address": "714 UPPER GLEN STREET", "borough": "QUEENSBURY", "chain_name": "Wendys", "latitude": "43.327758", "longitude": "-73.667723", "state": "NY" }, "geometry": { "type": "Point", "coordinates": [ -73.667723, 43.327758 ] } },
{ "type": "Feature", "properties": { "ZIP": "13421", "address": "131 GENESSEE STREET", "borough": "ONEIDA", "chain_name": "Wendys", "latitude": "43.078589", "longitude": "-75.643214", "state": "NY" }, "geometry": { "type": "Point", "coordinates": [ -75.643214, 43.078589 ] } },
{ "type": "Feature", "properties": { "ZIP": "14830", "address": "5 S BUFFALO ST.", "borough": "CORNING", "chain_name": "Wendys", "latitude": "42.153459", "longitude": "-77.07929", "state": "NY" }, "geometry": { "type": "Point", "coordinates": [ -77.07929, 42.153459 ] } },
{ "type": "Feature", "properties": { "ZIP": "13440", "address": "401 ERIE BLVD", "borough": "ROME", "chain_name": "Wendys", "latitude": "43.212756", "longitude": "-75.465016", "state": "NY" }, "geometry": { "type": "Point", "coordinates": [ -75.465016, 43.212756 ] } },
{ "type": "Feature", "properties": { "ZIP": "13214", "address": "3260 ERIE BLVD", "borough": "DE WITT", "chain_name": "Wendys", "latitude": "43.049487", "longitude": "-76.072274", "state": "NY" }, "geometry": { "type": "Point", "coordinates": [ -76.072274, 43.049487 ] } },
{ "type": "Feature", "properties": { "ZIP": "13206", "address": "3798 JAMES STREET", "borough": "SYRACUSE", "chain_name": "Wendys", "latitude": "43.069096", "longitude": "-76.091073", "state": "NY" }, "geometry": { "type": "Point", "coordinates": [ -76.091073, 43.069096 ] } },
{ "type": "Feature", "properties": { "ZIP": "13208", "address": "2100 PARK STREET", "borough": "SYRACUSE", "chain_name": "Wendys", "latitude": "43.072734", "longitude": "-76.167451", "state": "NY" }, "geometry": { "type": "Point", "coordinates": [ -76.167451, 43.072734 ] } },
{ "type": "Feature", "properties": { "ZIP": "13031", "address": "5309 W. GENESEE STREET", "borough": "CAMILLUS", "chain_name": "Wendys", "latitude": "43.039996", "longitude": "-76.271806", "state": "NY" }, "geometry": { "type": "Point", "coordinates": [ -76.271806, 43.039996 ] } },
{ "type": "Feature", "properties": { "ZIP": "13212", "address": "3508 BREWERTON RD", "borough": "SYRACUSE", "chain_name": "Wendys", "latitude": "43.113586", "longitude": "-76.145467", "state": "NY" }, "geometry": { "type": "Point", "coordinates": [ -76.145467, 43.113586 ] } }
]
}
