{
"type": "FeatureCollection",
"crs": { "type": "name", "properties": { "name": "urn:ogc:def:crs:OGC:1.3:CRS84" } },
"features": [
{ "type": "Feature", "properties": { "ZIP": "10007", "address": "317 BROADWAY", "borough": "NEW YORK", "state": "NY" }, "geometry": { "type": "Point", "coordinates": [ -74.005234, 40.715771 ] } },
{ "type": "Feature", "properties": { "ZIP": "10038", "address": "52 FULTON ST (AKA 34 CLIFF ST)", "borough": "NEW YORK", "state": "NY" }, "geometry": { "type": "Point", "coordinates": [ -74.004868, 40.708279 ] } },
{ "type": "Feature", "properties": { "ZIP": "10038", "address": "160 BROADWAY", "borough": "NEW YORK", "state": "NY" }, "geometry": { "type": "Point", "coordinates": [ -74.010086, 40.709438 ] } },
{ "type": "Feature", "properties": { "ZIP": "10013", "address": "167 CHAMBERS ST (303 GREENWICH ST)", "borough": "NEW YORK", "state": "NY" }, "geometry": { "type": "Point", "coordinates": [ -74.010736, 40.716366 ] } },
{ "type": "Feature", "properties": { "ZIP": "10013", "address": "262 CANAL ST", "borough": "NEW YORK", "state": "NY" }, "geometry": { "type": "Point", "coordinates": [ -74.001052, 40.718587 ] } },
{ "type": "Feature", "properties": { "ZIP": "10002", "address": "213 MADISON STREET", "borough": "NEW YORK", "state": "NY" }, "geometry": { "type": "Point", "coordinates": [ -73.989226, 40.712839 ] } },
{ "type": "Feature", "properties": { "ZIP": "10002", "address": "114 DELANCEY ST", "borough": "NEW YORK", "state": "NY" }, "geometry": { "type": "Point", "coordinates": [ -73.988281, 40.71883 ] } },
{ "type": "Feature", "properties": { "ZIP": "10014", "address": "208 VARRICK ST", "borough": "NEW YORK", "state": "NY" }, "geometry": { "type": "Point", "coordinates": [ -74.00509, 40.728794 ] } },
{ "type": "Feature", "properties": { "ZIP": "10012", "address": "136 W 3RD ST", "borough": "NEW YORK", "state": "NY" }, "geometry": { "type": "Point", "coordinates": [ -74.001076, 40.730804 ] } },
{ "type": "Feature", "properties": { "ZIP": "10003", "address": "724 BROADWAY", "borough": "NEW YORK", "state": "NY" }, "geometry": { "type": "Point", "coordinates": [ -73.993408, 40.729197 ] } },
{ "type": "Feature", "properties": { "ZIP": "10003", "address": "102-106 1ST AVE. @ 5TH STREET", "borough": "NEW YORK", "state": "NY" }, "geometry": { "type": "Point", "coordinates": [ -73.985855, 40.726555 ] } },
{ "type": "Feature", "properties": { "ZIP": "11201", "address": "82 COURT ST", "borough": "BROOKLYN", "state": "NY" }, "geometry": { "type": "Point", "coordinates": [ -73.991692, 40.691383 ] } },
{ "type": "Feature", "properties": { "ZIP": "10009", "address": "404 E 14TH ST", "borough": "NEW YORK", "state": "NY" }, "geometry": { "type": "Point", "coordinates": [ -73.982277, 40.731014 ] } },
{ "type": "Feature", "properties": { "ZIP": "10011", "address": "541 6TH AVE & 14TH ST", "borough": "NEW YORK", "state": "NY" }, "geometry": { "type": "Point", "coordinates": [ -73.996726, 40.737864 ] } },
{ "type": "Feature", "properties": { "ZIP": "11201", "address": "420 FULTON ST", "borough": "BROOKLYN", "state": "NY" }, "geometry": { "type": "Point", "coordinates": [ -73.986206, 40.690838 ] } },
{ "type": "Feature", "properties": { "ZIP": "10003", "address": "39 UNION SQ W", "borough": "NEW YORK", "state": "NY" }, "geometry": { "type": "Point", "coordinates": [ -73.990517, 40.736977 ] } },
{ "type": "Feature", "properties": { "ZIP": "11201", "address": "395 FLATBUSH AVE EXTEN", "borough": "BROOKLYN", "state": "NY" }, "geometry": { "type": "Point", "coordinates": [ -73.98067, 40.688963 ] } },
{ "type": "Feature", "properties": { "ZIP": "10010", "address": "686 6TH AVE", "borough": "NEW YORK", "state": "NY" }, "geometry": { "type": "Point", "coordinates": [ -73.993286, 40.741928 ] } },
{ "type": "Feature", "properties": { "ZIP": "10010", "address": "26 E 23RD ST", "borough": "NEW YORK", "state": "NY" }, "geometry": { "type": "Point", "coordinates": [ -73.987856, 40.740654 ] } },
{ "type": "Feature", "properties": { "ZIP": "10010", "address": "336 E 23RD ST", "borough": "MANHATTAN", "state": "NY" }, "geometry": { "type": "Point", "coordinates": [ -73.979165, 40.736945 ] } },
{ "type": "Feature", "properties": { "ZIP": "10016", "address": "401 PARK AVE S", "borough": "NEW YORK", "state": "NY" }, "geometry": { "type": "Point", "coordinates": [ -73.98393, 40.743156 ] } },
{ "type": "Feature", "properties": { "ZIP": "10001", "address": "809\/811 6TH AVE\/28TH", "borough": "MANHATTAN", "state": "NY" }, "geometry": { "type": "Point", "coordinates": [ -73.990845, 40.745995 ] } },
{ "type": "Feature", "properties": { "ZIP": "11217", "address": "ATLANTIC TERMINAL", "borough": "BROOKLYN", "state": "NY" }, "geometry": { "type": "Point", "coordinates": [ -73.977473, 40.684713 ] } },
{ "type": "Feature", "properties": { "ZIP": "10001", "address": "335 8TH AVE", "borough": "MANHATTAN", "state": "NY" }, "geometry": { "type": "Point", "coordinates": [ -73.997088, 40.747569 ] } },
{ "type": "Feature", "properties": { "ZIP": "11211", "address": "267 BROADWAY", "borough": "BROOKLYN", "state": "NY" }, "geometry": { "type": "Point", "coordinates": [ -73.959017, 40.70893 ] } },
{ "type": "Feature", "properties": { "ZIP": "10016", "address": "480 3RD AVE & 33RD ST", "borough": "NEW YORK", "state": "NY" }, "geometry": { "type": "Point", "coordinates": [ -73.978949, 40.744904 ] } },
{ "type": "Feature", "properties": { "ZIP": "10119", "address": "PENN STATION\/LOWER LEVEL", "borough": "NEW YORK", "state": "NY" }, "geometry": { "type": "Point", "coordinates": [ -73.992511, 40.750383 ] } },
{ "type": "Feature", "properties": { "ZIP": "10001", "address": "429 7TH AVE", "borough": "NEW YORK", "state": "NY" }, "geometry": { "type": "Point", "coordinates": [ -73.990724, 40.750544 ] } },
{ "type": "Feature", "properties": { "ZIP": "11231", "address": "357 HAMILTON AVE", "borough": "BROOKLYN", "state": "NY" }, "geometry": { "type": "Point", "coordinates": [ -73.999161, 40.673519 ] } },
{ "type": "Feature", "properties": { "ZIP": "10001", "address": "151 WEST 34TH STREET &7TH AVE.", "borough": "NEW YORK", "state": "NY" }, "geometry": { "type": "Point", "coordinates": [ -73.989538, 40.750779 ] } },
{ "type": "Feature", "properties": { "ZIP": "10018", "address": "972 6TH AVE", "borough": "MANHATTAN", "state": "NY" }, "geometry": { "type": "Point", "coordinates": [ -73.986819, 40.750816 ] } },
{ "type": "Feature", "properties": { "ZIP": "10001", "address": "490 8TH AVE", "borough": "MANHATTAN", "state": "NY" }, "geometry": { "type": "Point", "coordinates": [ -73.993004, 40.75251 ] } },
{ "type": "Feature", "properties": { "ZIP": "11222", "address": "904 MANHATTAN AVE & GREENPOINT", "borough": "BROOKLYN", "state": "NY" }, "geometry": { "type": "Point", "coordinates": [ -73.954109, 40.730389 ] } },
{ "type": "Feature", "properties": { "ZIP": "11238", "address": "840 ATLANTIC AVE", "borough": "BROOKLYN", "state": "NY" }, "geometry": { "type": "Point", "coordinates": [ -73.966927, 40.681351 ] } },
{ "type": "Feature", "properties": { "ZIP": "10016", "address": "280 MADISON AVE", "borough": "NEW YORK", "state": "NY" }, "geometry": { "type": "Point", "coordinates": [ -73.98044, 40.751494 ] } },
{ "type": "Feature", "properties": { "ZIP": "10018", "address": "556 7TH AVE", "borough": "NEW YORK", "state": "NY" }, "geometry": { "type": "Point", "coordinates": [ -73.988188, 40.754673 ] } },
{ "type": "Feature", "properties": { "ZIP": "10017", "address": "18 E 42ND ST", "borough": "NEW YORK", "state": "NY" }, "geometry": { "type": "Point", "coordinates": [ -73.98028, 40.753042 ] } },
{ "type": "Feature", "properties": { "ZIP": "11215", "address": "289 9TH ST", "borough": "BROOKLYN", "state": "NY" }, "geometry": { "type": "Point", "coordinates": [ -73.986854, 40.669625 ] } },
{ "type": "Feature", "properties": { "ZIP": "10036", "address": "220 WEST 42ND STREET & 7TH AVE", "borough": "NEW YORK", "state": "NY" }, "geometry": { "type": "Point", "coordinates": [ -73.988039, 40.756393 ] } },
{ "type": "Feature", "properties": { "ZIP": "10036", "address": "688 8TH AVE. @ 44TH", "borough": "NEW YORK", "state": "NY" }, "geometry": { "type": "Point", "coordinates": [ -73.988945, 40.758118 ] } },
{ "type": "Feature", "properties": { "ZIP": "11211", "address": "741 GRAND ST", "borough": "BROOKLYN", "state": "NY" }, "geometry": { "type": "Point", "coordinates": [ -73.943154, 40.711849 ] } },
{ "type": "Feature", "properties": { "ZIP": "10017", "address": "14 E 47TH ST", "borough": "MANHATTAN", "state": "NY" }, "geometry": { "type": "Point", "coordinates": [ -73.977799, 40.756223 ] } },
{ "type": "Feature", "properties": { "ZIP": "10036", "address": "1188 6TH AVE", "borough": "NEW YORK", "state": "NY" }, "geometry": { "type": "Point", "coordinates": [ -73.98185, 40.757629 ] } },
{ "type": "Feature", "properties": { "ZIP": "10036", "address": "1560 BROADWAY", "borough": "MANHATTAN", "state": "NY" }, "geometry": { "type": "Point", "coordinates": [ -73.984779, 40.758728 ] } },
{ "type": "Feature", "properties": { "ZIP": "11206", "address": "700 BROADWAY", "borough": "BROOKLYN", "state": "NY" }, "geometry": { "type": "Point", "coordinates": [ -73.943489, 40.701332 ] } },
{ "type": "Feature", "properties": { "ZIP": "11222", "address": "652 MEEKER AVE @ KINGSLAND", "borough": "BROOKLYN", "state": "NY" }, "geometry": { "type": "Point", "coordinates": [ -73.940483, 40.72208 ] } },
{ "type": "Feature", "properties": { "ZIP": "10022", "address": "824 3RD AVENUE 50TH ST", "borough": "NEW YORK", "state": "NY" }, "geometry": { "type": "Point", "coordinates": [ -73.970751, 40.756163 ] } },
{ "type": "Feature", "properties": { "ZIP": "10019", "address": "1651 BROADWAY", "borough": "MANHATTAN", "state": "NY" }, "geometry": { "type": "Point", "coordinates": [ -73.983757, 40.762244 ] } },
{ "type": "Feature", "properties": { "ZIP": "11216", "address": "1275 FULTON STEET", "borough": "BROOKLYN", "state": "NY" }, "geometry": { "type": "Point", "coordinates": [ -73.95034, 40.680573 ] } },
{ "type": "Feature", "properties": { "ZIP": "10019", "address": "946 8TH AVE &  56TH", "borough": "NEW YORK", "state": "NY" }, "geometry": { "type": "Point", "coordinates": [ -73.983273, 40.765877 ] } },
{ "type": "Feature", "properties": { "ZIP": "10022", "address": "966 3RD AVE", "borough": "NEW YORK", "state": "NY" }, "geometry": { "type": "Point", "coordinates": [ -73.967323, 40.760838 ] } },
{ "type": "Feature", "properties": { "ZIP": "11232", "address": "968 4TH AVE & 37TH", "borough": "BROOKLYN", "state": "NY" }, "geometry": { "type": "Point", "coordinates": [ -74.005402, 40.653751 ] } },
{ "type": "Feature", "properties": { "ZIP": "11216", "address": "1531 FULTON ST & TROOP AVENUE", "borough": "BROOKLYN", "state": "NY" }, "geometry": { "type": "Point", "coordinates": [ -73.940102, 40.680096 ] } },
{ "type": "Feature", "properties": { "ZIP": "11226", "address": "57 EMPIRE BLVD", "borough": "BROOKLYN", "state": "NY" }, "geometry": { "type": "Point", "coordinates": [ -73.959984, 40.663731 ] } },
{ "type": "Feature", "properties": { "ZIP": "10021", "address": "1286 1ST AVE @ 69TH ST", "borough": "NEW YORK", "state": "NY" }, "geometry": { "type": "Point", "coordinates": [ -73.957161, 40.765888 ] } },
{ "type": "Feature", "properties": { "ZIP": "11237", "address": "428 KNICKERBOCKER AVE", "borough": "BROOKLYN", "state": "NY" }, "geometry": { "type": "Point", "coordinates": [ -73.919655, 40.699417 ] } },
{ "type": "Feature", "properties": { "ZIP": "11226", "address": "180 PARKSIDE AVE", "borough": "BROOKLYN", "state": "NY" }, "geometry": { "type": "Point", "coordinates": [ -73.96169, 40.654762 ] } },
{ "type": "Feature", "properties": { "ZIP": "11101", "address": "3802 QUEENS BLVD", "borough": "LONG ISLAND CITY", "state": "NY" }, "geometry": { "type": "Point", "coordinates": [ -73.926903, 40.74366 ] } },
{ "type": "Feature", "properties": { "ZIP": "10023", "address": "2049 BROADWAY @ 71ST", "borough": "NEW YORK", "state": "NY" }, "geometry": { "type": "Point", "coordinates": [ -73.982472, 40.777901 ] } },
{ "type": "Feature", "properties": { "ZIP": "11221", "address": "1380 BROADWAY", "borough": "BROOKLYN", "state": "NY" }, "geometry": { "type": "Point", "coordinates": [ -73.921887, 40.689106 ] } },
{ "type": "Feature", "properties": { "ZIP": "11220", "address": "5121 5TH AVE", "borough": "BROOKLYN", "state": "NY" }, "geometry": { "type": "Point", "coordinates": [ -74.011246, 40.644005 ] } },
{ "type": "Feature", "properties": { "ZIP": "11218", "address": "3525 FORT HAMILTON PKY", "borough": "BROOKLYN", "state": "NY" }, "geometry": { "type": "Point", "coordinates": [ -73.987686, 40.644569 ] } },
{ "type": "Feature", "properties": { "ZIP": "11213", "address": "1133 EASTERN PARKWAY", "borough": "BROOKLYN", "state": "NY" }, "geometry": { "type": "Point", "coordinates": [ -73.930779, 40.669163 ] } },
{ "type": "Feature", "properties": { "ZIP": "11207", "address": "1883 ATLANTIC AVENUE", "borough": "BROOKLYN", "state": "NY" }, "geometry": { "type": "Point", "coordinates": [ -73.922554, 40.677324 ] } },
{ "type": "Feature", "properties": { "ZIP": "11385", "address": "54-29 METROPOLITAN AVE", "borough": "RIDGEWOOD", "state": "NY" }, "geometry": { "type": "Point", "coordinates": [ -73.909698, 40.713337 ] } },
{ "type": "Feature", "properties": { "ZIP": "11385", "address": "54-04 MYRTLE AVE", "borough": "RIDGEWOOD", "state": "NY" }, "geometry": { "type": "Point", "coordinates": [ -73.910468, 40.699519 ] } },
{ "type": "Feature", "properties": { "ZIP": "11226", "address": "943 FLATBUSH AVE & SNYDER", "borough": "BROOKLYN", "state": "NY" }, "geometry": { "type": "Point", "coordinates": [ -73.958168, 40.648705 ] } },
{ "type": "Feature", "properties": { "ZIP": "10028", "address": "1499 3RD AVE & 85TH ST", "borough": "NEW YORK", "state": "NY" }, "geometry": { "type": "Point", "coordinates": [ -73.954515, 40.777789 ] } },
{ "type": "Feature", "properties": { "ZIP": "11378", "address": "59-60 55TH ROAD", "borough": "MASPETH", "state": "NY" }, "geometry": { "type": "Point", "coordinates": [ -73.9067, 40.726299 ] } },
{ "type": "Feature", "properties": { "ZIP": "11106", "address": "32-55 31ST STREET", "borough": "LONG ISLAND CITY", "state": "NY" }, "geometry": { "type": "Point", "coordinates": [ -73.926186, 40.760616 ] } },
{ "type": "Feature", "properties": { "ZIP": "11106", "address": "31-46 21ST ST", "borough": "LONG ISLAND CITY", "state": "NY" }, "geometry": { "type": "Point", "coordinates": [ -73.930984, 40.766312 ] } },
{ "type": "Feature", "properties": { "ZIP": "11203", "address": "701 UTICA AVE", "borough": "BROOKLYN", "state": "NY" }, "geometry": { "type": "Point", "coordinates": [ -73.930542, 40.656101 ] } },
{ "type": "Feature", "properties": { "ZIP": "11209", "address": "7124 3RD AVE @ 72ND ST", "borough": "BROOKLYN", "state": "NY" }, "geometry": { "type": "Point", "coordinates": [ -74.027039, 40.633682 ] } },
{ "type": "Feature", "properties": { "ZIP": "11103", "address": "31-67 STEINWAY ST", "borough": "ASTORIA", "state": "NY" }, "geometry": { "type": "Point", "coordinates": [ -73.918343, 40.759495 ] } },
{ "type": "Feature", "properties": { "ZIP": "11218", "address": "880 CONEY ISLAND", "borough": "BROOKLYN", "state": "NY" }, "geometry": { "type": "Point", "coordinates": [ -73.968124, 40.635811 ] } },
{ "type": "Feature", "properties": { "ZIP": "11212", "address": "1642 PITKIN AVE", "borough": "BROOKLYN", "state": "NY" }, "geometry": { "type": "Point", "coordinates": [ -73.912406, 40.669307 ] } },
{ "type": "Feature", "properties": { "ZIP": "11377", "address": "51-35 NORTHERN BLVD", "borough": "WOODSIDE", "state": "NY" }, "geometry": { "type": "Point", "coordinates": [ -73.908358, 40.75348 ] } },
{ "type": "Feature", "properties": { "ZIP": "10029", "address": "1871 2ND AVE", "borough": "NEW YORK", "state": "NY" }, "geometry": { "type": "Point", "coordinates": [ -73.947028, 40.784657 ] } },
{ "type": "Feature", "properties": { "ZIP": "10025", "address": "2549 BROADWAY & 96TH ST", "borough": "NEW YORK", "state": "NY" }, "geometry": { "type": "Point", "coordinates": [ -73.972343, 40.794389 ] } },
{ "type": "Feature", "properties": { "ZIP": "11203", "address": "5707-13 CHURCH AVE", "borough": "BROOKLYN", "state": "NY" }, "geometry": { "type": "Point", "coordinates": [ -73.923203, 40.652718 ] } },
{ "type": "Feature", "properties": { "ZIP": "11207", "address": "15 JAMAICA AVE", "borough": "BROOKLYN", "state": "NY" }, "geometry": { "type": "Point", "coordinates": [ -73.897746, 40.677548 ] } },
{ "type": "Feature", "properties": { "ZIP": "10029", "address": "1872 3RD AVE. @ 103RD STREET", "borough": "NEW YORK", "state": "NY" }, "geometry": { "type": "Point", "coordinates": [ -73.946077, 40.789984 ] } },
{ "type": "Feature", "properties": { "ZIP": "11210", "address": "2154 NOSTRAND AVE @ HILLEL", "borough": "BROOKLYN", "state": "NY" }, "geometry": { "type": "Point", "coordinates": [ -73.947781, 40.632336 ] } },
{ "type": "Feature", "properties": { "ZIP": "10025", "address": "2726 BROADWAY", "borough": "NEW YORK", "state": "NY" }, "geometry": { "type": "Point", "coordinates": [ -73.967846, 40.800014 ] } },
{ "type": "Feature", "properties": { "ZIP": "11209", "address": "430 86TH ST", "borough": "BROOKLYN", "state": "NY" }, "geometry": { "type": "Point", "coordinates": [ -74.027731, 40.622159 ] } },
{ "type": "Feature", "properties": { "ZIP": "11203", "address": "5804 CLAREDON RD", "borough": "NEW YORK", "state": "NY" }, "geometry": { "type": "Point", "coordinates": [ -73.9217, 40.644669 ] } },
{ "type": "Feature", "properties": { "ZIP": "10029", "address": "1997 3RD AVE", "borough": "NEW YORK", "state": "NY" }, "geometry": { "type": "Point", "coordinates": [ -73.942726, 40.793869 ] } },
{ "type": "Feature", "properties": { "ZIP": "11105", "address": "22 50 31ST ST", "borough": "ASTORIA", "state": "NY" }, "geometry": { "type": "Point", "coordinates": [ -73.912183, 40.77512 ] } },
{ "type": "Feature", "properties": { "ZIP": "11372", "address": "75-19 ROOSEVELT AVE", "borough": "JACKSON HEIGHTS", "state": "NY" }, "geometry": { "type": "Point", "coordinates": [ -73.889717, 40.747173 ] } },
{ "type": "Feature", "properties": { "ZIP": "11207-2628", "address": "2800 ATLANTIC AVE", "borough": "BROOKLYN", "state": "NY" }, "geometry": { "type": "Point", "coordinates": [ -73.890678, 40.676235 ] } },
{ "type": "Feature", "properties": { "ZIP": "11385", "address": "70-02 COOPER AVE", "borough": "GLENDALE", "state": "NY" }, "geometry": { "type": "Point", "coordinates": [ -73.880272, 40.701706 ] } },
{ "type": "Feature", "properties": { "ZIP": "11373", "address": "80-03 QUEENS BLVD", "borough": "ELMHURST", "state": "NY" }, "geometry": { "type": "Point", "coordinates": [ -73.883179, 40.738327 ] } },
{ "type": "Feature", "properties": { "ZIP": "10304", "address": "501 BAY ST", "borough": "STATEN ISLAND", "state": "NY" }, "geometry": { "type": "Point", "coordinates": [ -74.076324, 40.629929 ] } },
{ "type": "Feature", "properties": { "ZIP": "11372", "address": "37-59 82ND ST", "borough": "JACKSON HEIGHTS", "state": "NY" }, "geometry": { "type": "Point", "coordinates": [ -73.883865, 40.748062 ] } },
{ "type": "Feature", "properties": { "ZIP": "10027", "address": "2142 3RD AVE", "borough": "NEW YORK", "state": "NY" }, "geometry": { "type": "Point", "coordinates": [ -73.939789, 40.798618 ] } },
{ "type": "Feature", "properties": { "ZIP": "11234", "address": "1656 UTICA AVE", "borough": "BROOKLYN", "state": "NY" }, "geometry": { "type": "Point", "coordinates": [ -73.92865, 40.63208 ] } },
{ "type": "Feature", "properties": { "ZIP": "11204", "address": "6620 BAY PKY", "borough": "BROOKLYN", "state": "NY" }, "geometry": { "type": "Point", "coordinates": [ -73.982658, 40.612892 ] } },
{ "type": "Feature", "properties": { "ZIP": "11208-1937", "address": "3143 ATLANTIC AVE", "borough": "BROOKLYN", "state": "NY" }, "geometry": { "type": "Point", "coordinates": [ -73.879116, 40.679871 ] } },
{ "type": "Feature", "properties": { "ZIP": "11207", "address": "819 PENNSYLVANIA AVE", "borough": "BROOKLYN", "state": "NY" }, "geometry": { "type": "Point", "coordinates": [ -73.889664, 40.657864 ] } },
{ "type": "Feature", "properties": { "ZIP": "11236", "address": "7602 FLATLANDS AVE", "borough": "BROOKLYN", "state": "NY" }, "geometry": { "type": "Point", "coordinates": [ -73.915535, 40.633762 ] } },
{ "type": "Feature", "properties": { "ZIP": "11236", "address": "1467 ROCKAWAY PKY", "borough": "BROOKLYN", "state": "NY" }, "geometry": { "type": "Point", "coordinates": [ -73.90126, 40.644558 ] } },
{ "type": "Feature", "properties": { "ZIP": "11373", "address": "90-15 QUEENS BOULEVARD", "borough": "ELMHURST", "state": "NY" }, "geometry": { "type": "Point", "coordinates": [ -73.870507, 40.734585 ] } },
{ "type": "Feature", "properties": { "ZIP": "11373", "address": "91-19 QUEEN BLVD", "borough": "ELMHURST", "state": "NY" }, "geometry": { "type": "Point", "coordinates": [ -73.869894, 40.733731 ] } },
{ "type": "Feature", "properties": { "ZIP": "10029", "address": "148 W. 125TH STREET", "borough": "NEW YORK", "state": "NY" }, "geometry": { "type": "Point", "coordinates": [ -73.947756, 40.808569 ] } },
{ "type": "Feature", "properties": { "ZIP": "10035", "address": "125TH ST & LEXINGTON AVE", "borough": "NEW YORK", "state": "NY" }, "geometry": { "type": "Point", "coordinates": [ -73.937147, 40.80447 ] } },
{ "type": "Feature", "properties": { "ZIP": "10027", "address": "354 W 125TH ST", "borough": "NEW YORK", "state": "NY" }, "geometry": { "type": "Point", "coordinates": [ -73.953039, 40.81078 ] } },
{ "type": "Feature", "properties": { "ZIP": "11369", "address": "88-05 ASTORIA BLVD", "borough": "EAST ELMHURST", "state": "NY" }, "geometry": { "type": "Point", "coordinates": [ -73.880943, 40.764374 ] } },
{ "type": "Feature", "properties": { "ZIP": "11214", "address": "1983 86TH ST @ 20TH AVE (SAT)", "borough": "BROOKLYN", "state": "NY" }, "geometry": { "type": "Point", "coordinates": [ -73.99826, 40.604786 ] } },
{ "type": "Feature", "properties": { "ZIP": "11368", "address": "95-05 57TH AVE", "borough": "CORONA", "state": "NY" }, "geometry": { "type": "Point", "coordinates": [ -73.86558, 40.736828 ] } },
{ "type": "Feature", "properties": { "ZIP": "10027", "address": "600 W 125TH @ & BROADWAY", "borough": "NEW YORK", "state": "NY" }, "geometry": { "type": "Point", "coordinates": [ -73.958916, 40.815941 ] } },
{ "type": "Feature", "properties": { "ZIP": "11368", "address": "37-19 JUNCTION BLVD", "borough": "CORONA", "state": "NY" }, "geometry": { "type": "Point", "coordinates": [ -73.870372, 40.751065 ] } },
{ "type": "Feature", "properties": { "ZIP": "10030", "address": "444 LENOX AVE \/ 132ND", "borough": "NEW YORK", "state": "NY" }, "geometry": { "type": "Point", "coordinates": [ -73.94178, 40.812233 ] } },
{ "type": "Feature", "properties": { "ZIP": "10454", "address": "85 BRUCKNER BLVD", "borough": "BRONX", "state": "NY" }, "geometry": { "type": "Point", "coordinates": [ -73.925667, 40.80632 ] } },
{ "type": "Feature", "properties": { "ZIP": "11226", "address": "2240 FLATBUSH AVE. @ FILMORE", "borough": "BROOKLYN", "state": "NY" }, "geometry": { "type": "Point", "coordinates": [ -73.92897, 40.615036 ] } },
{ "type": "Feature", "properties": { "ZIP": "11214", "address": "2413 86TH STREET & 24TH", "borough": "BROOKLYN", "state": "NY" }, "geometry": { "type": "Point", "coordinates": [ -73.989006, 40.599335 ] } },
{ "type": "Feature", "properties": { "ZIP": "11416", "address": "75-50 101ST AVE-QUEENS", "borough": "OZONE PARK", "state": "NY" }, "geometry": { "type": "Point", "coordinates": [ -73.861717, 40.679531 ] } },
{ "type": "Feature", "properties": { "ZIP": "11368", "address": "40-12 NATIONAL ST", "borough": "CORONA", "state": "NY" }, "geometry": { "type": "Point", "coordinates": [ -73.863008, 40.749525 ] } },
{ "type": "Feature", "properties": { "ZIP": "11375", "address": "98-01 METROPOLITAN AVE", "borough": "FOREST HILLS", "state": "NY" }, "geometry": { "type": "Point", "coordinates": [ -73.854439, 40.711269 ] } },
{ "type": "Feature", "properties": { "ZIP": "10030", "address": "139TH & ADAM CLAYTON POWELL", "borough": "NEW YORK", "state": "NY" }, "geometry": { "type": "Point", "coordinates": [ -73.94136, 40.817932 ] } },
{ "type": "Feature", "properties": { "ZIP": "10031", "address": "3410 BROADWAY 138TH ST", "borough": "NEW YORK", "state": "NY" }, "geometry": { "type": "Point", "coordinates": [ -73.953332, 40.822008 ] } },
{ "type": "Feature", "properties": { "ZIP": "11421", "address": "91-01 JAMAICA AVENUE", "borough": "WOODHAVEN", "state": "NY" }, "geometry": { "type": "Point", "coordinates": [ -73.853741, 40.693196 ] } },
{ "type": "Feature", "properties": { "ZIP": "10310", "address": "803 FOREST AVE", "borough": "STATEN ISLAND", "state": "NY" }, "geometry": { "type": "Point", "coordinates": [ -74.115868, 40.629318 ] } },
{ "type": "Feature", "properties": { "ZIP": "11208", "address": "2797 LINDEN BLVD", "borough": "BROOKLYN", "state": "NY" }, "geometry": { "type": "Point", "coordinates": [ -73.860352, 40.670147 ] } },
{ "type": "Feature", "properties": { "ZIP": "11236", "address": "2028 ROCKAWAY PKY", "borough": "BROOKLYN", "state": "NY" }, "geometry": { "type": "Point", "coordinates": [ -73.889877, 40.633153 ] } },
{ "type": "Feature", "properties": { "ZIP": "11223", "address": "2410 CONEY ISLAND AVE", "borough": "BROOKLYN", "state": "NY" }, "geometry": { "type": "Point", "coordinates": [ -73.961494, 40.598076 ] } },
{ "type": "Feature", "properties": { "ZIP": "10031", "address": "3543-49 BROADWAY @ 145TH", "borough": "NEW YORK", "state": "NY" }, "geometry": { "type": "Point", "coordinates": [ -73.95063, 40.826694 ] } },
{ "type": "Feature", "properties": { "ZIP": "11234", "address": "5407 KINGS PLZ", "borough": "BROOKLYN", "state": "NY" }, "geometry": { "type": "Point", "coordinates": [ -73.91924, 40.610328 ] } },
{ "type": "Feature", "properties": { "ZIP": "11375", "address": "106-15 71ST AVE", "borough": "FOREST HILLS", "state": "NY" }, "geometry": { "type": "Point", "coordinates": [ -73.8451, 40.719994 ] } },
{ "type": "Feature", "properties": { "ZIP": "10451", "address": "279 E. 149TH ST", "borough": "BRONX", "state": "NY" }, "geometry": { "type": "Point", "coordinates": [ -73.922245, 40.81743 ] } },
{ "type": "Feature", "properties": { "ZIP": "10451", "address": "597-99 GRAND CONCOURSE", "borough": "BRONX", "state": "NY" }, "geometry": { "type": "Point", "coordinates": [ -73.927055, 40.819809 ] } },
{ "type": "Feature", "properties": { "ZIP": "10451", "address": "2870 3RD AVE", "borough": "BRONX", "state": "NY" }, "geometry": { "type": "Point", "coordinates": [ -73.917053, 40.816261 ] } },
{ "type": "Feature", "properties": { "ZIP": "11229", "address": "35-40 NOSTRAND AVE & AVE V", "borough": "BROOKLYN", "state": "NY" }, "geometry": { "type": "Point", "coordinates": [ -73.941605, 40.597485 ] } },
{ "type": "Feature", "properties": { "ZIP": "10451", "address": "51-67 161ST ST", "borough": "BRONX", "state": "NY" }, "geometry": { "type": "Point", "coordinates": [ -73.92535, 40.827963 ] } },
{ "type": "Feature", "properties": { "ZIP": "10032", "address": "3809 BROADWAY", "borough": "NEW YORK", "state": "NY" }, "geometry": { "type": "Point", "coordinates": [ -73.944335, 40.835319 ] } },
{ "type": "Feature", "properties": { "ZIP": "10455", "address": "839 WESTCHE STER AVENUE", "borough": "NEW YORK", "state": "NY" }, "geometry": { "type": "Point", "coordinates": [ -73.901987, 40.819665 ] } },
{ "type": "Feature", "properties": { "ZIP": "10305", "address": "1388 HYLAN BLVD", "borough": "STATEN ISLAND", "state": "NY" }, "geometry": { "type": "Point", "coordinates": [ -74.086105, 40.59465 ] } },
{ "type": "Feature", "properties": { "ZIP": "11415", "address": "120-34 QUEENS BLVD.", "borough": "QUEENS", "state": "NY" }, "geometry": { "type": "Point", "coordinates": [ -73.829102, 40.713238 ] } },
{ "type": "Feature", "properties": { "ZIP": "10456", "address": "3279 3RD AVENUE @ 164TH ST E", "borough": "BRONX", "state": "NY" }, "geometry": { "type": "Point", "coordinates": [ -73.908607, 40.825195 ] } },
{ "type": "Feature", "properties": { "ZIP": "10474", "address": "875 GARRISON AVE & TIFFANY", "borough": "BRONX", "state": "NY" }, "geometry": { "type": "Point", "coordinates": [ -73.892563, 40.816971 ] } },
{ "type": "Feature", "properties": { "ZIP": "11224", "address": "606 NEPTUNE AVE @ WEST 6TH ST", "borough": "BROOKLYN", "state": "NY" }, "geometry": { "type": "Point", "coordinates": [ -73.975105, 40.579582 ] } },
{ "type": "Feature", "properties": { "ZIP": "11224", "address": "1403 MERMAID AVENUE", "borough": "BROOKLYN", "state": "NY" }, "geometry": { "type": "Point", "coordinates": [ -73.981818, 40.577218 ] } },
{ "type": "Feature", "properties": { "ZIP": "11414", "address": "159-40 CROSS BAY BLVD", "borough": "HOWARD BEACH", "state": "NY" }, "geometry": { "type": "Point", "coordinates": [ -73.839958, 40.657803 ] } },
{ "type": "Feature", "properties": { "ZIP": "10474", "address": "925 HUNTS POINT BLVD", "borough": "BRONX", "state": "NY" }, "geometry": { "type": "Point", "coordinates": [ -73.890866, 40.820564 ] } },
{ "type": "Feature", "properties": { "ZIP": "10452", "address": "86 E 167TH ST-SATELLITE", "borough": "BRONX", "state": "NY" }, "geometry": { "type": "Point", "coordinates": [ -73.919899, 40.835136 ] } },
{ "type": "Feature", "properties": { "ZIP": "10033", "address": "4040 BROADWAY & 170", "borough": "NEW YORK", "state": "NY" }, "geometry": { "type": "Point", "coordinates": [ -73.938972, 40.842594 ] } },
{ "type": "Feature", "properties": { "ZIP": "10303", "address": "1815 FOREST AVE", "borough": "STATEN ISLAND", "state": "NY" }, "geometry": { "type": "Point", "coordinates": [ -74.149345, 40.625507 ] } },
{ "type": "Feature", "properties": { "ZIP": "11419", "address": "119-05 LIBERTY AVE", "borough": "RICHMOND HILLS", "state": "NY" }, "geometry": { "type": "Point", "coordinates": [ -73.823948, 40.686474 ] } },
{ "type": "Feature", "properties": { "ZIP": "11354", "address": "40-18 MAIN STREET", "borough": "FLUSHING", "state": "NY" }, "geometry": { "type": "Point", "coordinates": [ -73.830133, 40.759056 ] } },
{ "type": "Feature", "properties": { "ZIP": "11354", "address": "3001 STRATTON ST", "borough": "FLUSHING", "state": "NY" }, "geometry": { "type": "Point", "coordinates": [ -73.834373, 40.770061 ] } },
{ "type": "Feature", "properties": { "ZIP": "11355", "address": "136-61 ROOSEVELT  AVENUE", "borough": "FLUSHING", "state": "NY" }, "geometry": { "type": "Point", "coordinates": [ -73.827945, 40.760245 ] } },
{ "type": "Feature", "properties": { "ZIP": "10456", "address": "101 E 170TH ST", "borough": "BRONX", "state": "NY" }, "geometry": { "type": "Point", "coordinates": [ -73.915492, 40.839544 ] } },
{ "type": "Feature", "properties": { "ZIP": "11435", "address": "138-32 JAMIACA AVE", "borough": "JAMAICA", "state": "NY" }, "geometry": { "type": "Point", "coordinates": [ -73.814293, 40.702316 ] } },
{ "type": "Feature", "properties": { "ZIP": "10033", "address": "4259 BROADWAY", "borough": "NEW YORK", "state": "NY" }, "geometry": { "type": "Point", "coordinates": [ -73.936035, 40.850094 ] } },
{ "type": "Feature", "properties": { "ZIP": "11367", "address": "72-69 KISSENA BLVD", "borough": "FLUSHING", "state": "NY" }, "geometry": { "type": "Point", "coordinates": [ -73.812401, 40.727467 ] } },
{ "type": "Feature", "properties": { "ZIP": "11354", "address": "144-01 NORTHERN BLVD", "borough": "FLUSHING", "state": "NY" }, "geometry": { "type": "Point", "coordinates": [ -73.823349, 40.764923 ] } },
{ "type": "Feature", "properties": { "ZIP": "10473", "address": "1600 BRUCKNER BLVD", "borough": "BRONX", "state": "NY" }, "geometry": { "type": "Point", "coordinates": [ -73.874687, 40.82338 ] } },
{ "type": "Feature", "properties": { "ZIP": "10452", "address": "1 W MOUNT EDEN AVE", "borough": "BRONX", "state": "NY" }, "geometry": { "type": "Point", "coordinates": [ -73.914978, 40.844677 ] } },
{ "type": "Feature", "properties": { "ZIP": "10457", "address": "1625 WEBSTER AVE & CLAY", "borough": "BRONX", "state": "NY" }, "geometry": { "type": "Point", "coordinates": [ -73.904701, 40.841805 ] } },
{ "type": "Feature", "properties": { "ZIP": "11354", "address": "138-11 20TH AVE.", "borough": "WHITESTONE", "state": "NY" }, "geometry": { "type": "Point", "coordinates": [ -73.829987, 40.782024 ] } },
{ "type": "Feature", "properties": { "ZIP": "10460", "address": "1600 BOSTON RD", "borough": "BRONX", "state": "NY" }, "geometry": { "type": "Point", "coordinates": [ -73.890648, 40.835464 ] } },
{ "type": "Feature", "properties": { "ZIP": "11435", "address": "90-67 SUTPHIN BLVD", "borough": "JAMAICA", "state": "NY" }, "geometry": { "type": "Point", "coordinates": [ -73.807654, 40.701211 ] } },
{ "type": "Feature", "properties": { "ZIP": "10472", "address": "1540 WESTCHESTER AVE", "borough": "BRONX", "state": "NY" }, "geometry": { "type": "Point", "coordinates": [ -73.878052, 40.82851 ] } },
{ "type": "Feature", "properties": { "ZIP": "10453", "address": "1745 UNIVERSITY AVE", "borough": "BRONX", "state": "NY" }, "geometry": { "type": "Point", "coordinates": [ -73.916202, 40.850258 ] } },
{ "type": "Feature", "properties": { "ZIP": "10306", "address": "2154 HYLAN BLVD", "borough": "STATEN ISLAND", "state": "NY" }, "geometry": { "type": "Point", "coordinates": [ -74.102158, 40.577595 ] } },
{ "type": "Feature", "properties": { "ZIP": "11432", "address": "159-01 JAMAICA AVENUE", "borough": "JAMAICA", "state": "NY" }, "geometry": { "type": "Point", "coordinates": [ -73.800079, 40.703579 ] } },
{ "type": "Feature", "properties": { "ZIP": "10473", "address": "1865 BRUCKNER BLVD", "borough": "BRONX", "state": "NY" }, "geometry": { "type": "Point", "coordinates": [ -73.861679, 40.826378 ] } },
{ "type": "Feature", "properties": { "ZIP": "10457", "address": "599 E TREMONT AVE", "borough": "BRONX", "state": "NY" }, "geometry": { "type": "Point", "coordinates": [ -73.893456, 40.846584 ] } },
{ "type": "Feature", "properties": { "ZIP": "10314", "address": "1660 RICHMOND AVE", "borough": "STATEN ISLAND", "state": "NY" }, "geometry": { "type": "Point", "coordinates": [ -74.162811, 40.607758 ] } },
{ "type": "Feature", "properties": { "ZIP": "10453", "address": "2065 JEROME AVE", "borough": "BRONX", "state": "NY" }, "geometry": { "type": "Point", "coordinates": [ -73.907288, 40.854321 ] } },
{ "type": "Feature", "properties": { "ZIP": "10460", "address": "1101 E TREMONT AVE", "borough": "BRONX", "state": "NY" }, "geometry": { "type": "Point", "coordinates": [ -73.876884, 40.840401 ] } },
{ "type": "Feature", "properties": { "ZIP": "11432", "address": "166-30 JAMAICA AVE", "borough": "QUEENS", "state": "NY" }, "geometry": { "type": "Point", "coordinates": [ -73.792926, 40.706057 ] } },
{ "type": "Feature", "properties": { "ZIP": "11434", "address": "114-01 SUTPHIN BLVD", "borough": "JAMAICA", "state": "NY" }, "geometry": { "type": "Point", "coordinates": [ -73.793312, 40.686165 ] } },
{ "type": "Feature", "properties": { "ZIP": "10040", "address": "208 DYCKMAN ST", "borough": "MANHATTAN", "state": "NY" }, "geometry": { "type": "Point", "coordinates": [ -73.927202, 40.86508 ] } },
{ "type": "Feature", "properties": { "ZIP": "10462", "address": "1982 WESTCHESTER AVENUE & PUGSLEY", "borough": "BRONX", "state": "NY" }, "geometry": { "type": "Point", "coordinates": [ -73.858545, 40.833219 ] } },
{ "type": "Feature", "properties": { "ZIP": "10034", "address": "608 WEST 207TH STREET", "borough": "NEW YORK", "state": "NY" }, "geometry": { "type": "Point", "coordinates": [ -73.921301, 40.867396 ] } },
{ "type": "Feature", "properties": { "ZIP": "11357", "address": "160-11 WILLETS POINT BLVD", "borough": "WHITESTONE", "state": "NY" }, "geometry": { "type": "Point", "coordinates": [ -73.802307, 40.780651 ] } },
{ "type": "Feature", "properties": { "ZIP": "10468", "address": "36 W FORDHAM RD", "borough": "BRONX", "state": "NY" }, "geometry": { "type": "Point", "coordinates": [ -73.902859, 40.86255 ] } },
{ "type": "Feature", "properties": { "ZIP": "11432", "address": "181-25 HILLSIDE AVENUE", "borough": "JAMAICA", "state": "NY" }, "geometry": { "type": "Point", "coordinates": [ -73.781204, 40.713558 ] } },
{ "type": "Feature", "properties": { "ZIP": "10458", "address": "2505 SOUTHERN BLVD", "borough": "BRONX", "state": "NY" }, "geometry": { "type": "Point", "coordinates": [ -73.881203, 40.856411 ] } },
{ "type": "Feature", "properties": { "ZIP": "10458", "address": "372 E FORDHAM RD", "borough": "BRONX", "state": "NY" }, "geometry": { "type": "Point", "coordinates": [ -73.892471, 40.861685 ] } },
{ "type": "Feature", "properties": { "ZIP": "10468", "address": "2630 JEROME AVE", "borough": "BRONX", "state": "NY" }, "geometry": { "type": "Point", "coordinates": [ -73.897368, 40.866985 ] } },
{ "type": "Feature", "properties": { "ZIP": "11434", "address": "166-01 BAISLEY BOULEVARD", "borough": "JAMAICA", "state": "NY" }, "geometry": { "type": "Point", "coordinates": [ -73.77726, 40.680161 ] } },
{ "type": "Feature", "properties": { "ZIP": "10461", "address": "2170 WHITE PLAINS RD", "borough": "BRONX", "state": "NY" }, "geometry": { "type": "Point", "coordinates": [ -73.867477, 40.855529 ] } },
{ "type": "Feature", "properties": { "ZIP": "10461", "address": "16 WESTCHESTER SQUARE", "borough": "NEW YORK", "state": "NY" }, "geometry": { "type": "Point", "coordinates": [ -73.843681, 40.840374 ] } },
{ "type": "Feature", "properties": { "ZIP": "11361", "address": "203-11 NORTHERN BLVD", "borough": "BAYSIDE", "state": "NY" }, "geometry": { "type": "Point", "coordinates": [ -73.779793, 40.757866 ] } },
{ "type": "Feature", "properties": { "ZIP": "10463", "address": "5201 BROADWAY @ 225TH", "borough": "NEW YORK", "state": "NY" }, "geometry": { "type": "Point", "coordinates": [ -73.909945, 40.874682 ] } },
{ "type": "Feature", "properties": { "ZIP": "11430", "address": "JFK AIRPORT TERMINAL 1", "borough": "JAMAICA", "state": "NY" }, "geometry": { "type": "Point", "coordinates": [ -73.790371, 40.643004 ] } },
{ "type": "Feature", "properties": { "ZIP": "10461", "address": "1515 WILLIAMSBRIDGE RD", "borough": "BRONX", "state": "NY" }, "geometry": { "type": "Point", "coordinates": [ -73.846611, 40.844517 ] } },
{ "type": "Feature", "properties": { "ZIP": "10465", "address": "3660 E TREMONT AVE", "borough": "BRONX", "state": "NY" }, "geometry": { "type": "Point", "coordinates": [ -73.823677, 40.827599 ] } },
{ "type": "Feature", "properties": { "ZIP": "11430", "address": "BRITISH INTERNATIONAL TERMINAL 7", "borough": "JAMAICA", "state": "NY" }, "geometry": { "type": "Point", "coordinates": [ -73.782744, 40.64958 ] } },
{ "type": "Feature", "properties": { "ZIP": "11430", "address": "JOHN F KENNEDY AIRPORT", "borough": "JAMAICA", "state": "NY" }, "geometry": { "type": "Point", "coordinates": [ -73.782304, 40.643844 ] } },
{ "type": "Feature", "properties": { "ZIP": "10461", "address": "1826 EASTCHESTER RD.", "borough": "NEW YORK", "state": "NY" }, "geometry": { "type": "Point", "coordinates": [ -73.844551, 40.849461 ] } },
{ "type": "Feature", "properties": { "ZIP": "11430", "address": "JFK TERMINAL 4", "borough": "JAMAICA", "state": "NY" }, "geometry": { "type": "Point", "coordinates": [ -73.781969, 40.643259 ] } },
{ "type": "Feature", "properties": { "ZIP": "11434", "address": "166-05 ROCKAWAY BLVD", "borough": "JAMAICA", "state": "NY" }, "geometry": { "type": "Point", "coordinates": [ -73.773834, 40.660133 ] } },
{ "type": "Feature", "properties": { "ZIP": "10467", "address": "2516 WHITE PLAINS RD", "borough": "BRONX", "state": "NY" }, "geometry": { "type": "Point", "coordinates": [ -73.867035, 40.864037 ] } },
{ "type": "Feature", "properties": { "ZIP": "11423", "address": "204-11 HILLSIDE AVE", "borough": "HOLLIS", "state": "NY" }, "geometry": { "type": "Point", "coordinates": [ -73.761147, 40.720814 ] } },
{ "type": "Feature", "properties": { "ZIP": "10467", "address": "300 E 204TH ST", "borough": "BRONX", "state": "NY" }, "geometry": { "type": "Point", "coordinates": [ -73.878677, 40.872894 ] } },
{ "type": "Feature", "properties": { "ZIP": "10463", "address": "5765 BROADWAY & 236TH STREET", "borough": "BRONX", "state": "NY" }, "geometry": { "type": "Point", "coordinates": [ -73.901711, 40.884045 ] } },
{ "type": "Feature", "properties": { "ZIP": "11693", "address": "91-18 BEACH CHANNEL DR", "borough": "ROCKAWAY BEACH", "state": "NY" }, "geometry": { "type": "Point", "coordinates": [ -73.816948, 40.588921 ] } },
{ "type": "Feature", "properties": { "ZIP": "10462", "address": "3509 WEBSTER AVENUE & GUNHILL", "borough": "BRONX", "state": "NY" }, "geometry": { "type": "Point", "coordinates": [ -73.871674, 40.879181 ] } },
{ "type": "Feature", "properties": { "ZIP": "11413", "address": "221-12 SO CONDUIT AVE", "borough": "SPRINGFIELD GARDENS", "state": "NY" }, "geometry": { "type": "Point", "coordinates": [ -73.756142, 40.66523 ] } },
{ "type": "Feature", "properties": { "ZIP": "10312", "address": "3267 RICHMOND AVE", "borough": "STATEN ISLAND", "state": "NY" }, "geometry": { "type": "Point", "coordinates": [ -74.168177, 40.559681 ] } },
{ "type": "Feature", "properties": { "ZIP": "10467", "address": "1212 E. GUN HILL RD & TENBROECK AVE", "borough": "BRONX", "state": "NY" }, "geometry": { "type": "Point", "coordinates": [ -73.852303, 40.872612 ] } },
{ "type": "Feature", "properties": { "ZIP": "11427", "address": "88-14 SPRINGFIELD BLVD", "borough": "QUEENS VILLAGE", "state": "NY" }, "geometry": { "type": "Point", "coordinates": [ -73.744415, 40.729198 ] } },
{ "type": "Feature", "properties": { "ZIP": "11411", "address": "216-07 LINDEN BLVD", "borough": "CAMBRIA HEIGHTS", "state": "NY" }, "geometry": { "type": "Point", "coordinates": [ -73.743118, 40.696632 ] } },
{ "type": "Feature", "properties": { "ZIP": "10470", "address": "2010 BARTOW AVE", "borough": "BRONX", "state": "NY" }, "geometry": { "type": "Point", "coordinates": [ -73.830562, 40.868726 ] } },
{ "type": "Feature", "properties": { "ZIP": "11363", "address": "250-01 NORTHERN BLVD", "borough": "LITTLE NECK", "state": "NY" }, "geometry": { "type": "Point", "coordinates": [ -73.737518, 40.768887 ] } },
{ "type": "Feature", "properties": { "ZIP": "10466", "address": "4174 WHITE PLAINS RD", "borough": "BRONX", "state": "NY" }, "geometry": { "type": "Point", "coordinates": [ -73.857473, 40.892779 ] } },
{ "type": "Feature", "properties": { "ZIP": "11422", "address": "244-10 MERRICK BLVD", "borough": "ROSEDALE", "state": "NY" }, "geometry": { "type": "Point", "coordinates": [ -73.728973, 40.673912 ] } },
{ "type": "Feature", "properties": { "ZIP": "11691", "address": "2141 MOTT AVE", "borough": "FAR ROCKAWAY", "state": "NY" }, "geometry": { "type": "Point", "coordinates": [ -73.755112, 40.605076 ] } },
{ "type": "Feature", "properties": { "ZIP": "10475", "address": "3550 CONNER ST", "borough": "BRONX", "state": "NY" }, "geometry": { "type": "Point", "coordinates": [ -73.826889, 40.885616 ] } },
{ "type": "Feature", "properties": { "ZIP": "11559", "address": "365 ROCKAWAY TPKE", "borough": "LAWRENCE", "state": "NY" }, "geometry": { "type": "Point", "coordinates": [ -73.737396, 40.627853 ] } },
{ "type": "Feature", "properties": { "ZIP": "11004", "address": "256-03 UNION TURNPIKE", "borough": "GLEN OAKS", "state": "NY" }, "geometry": { "type": "Point", "coordinates": [ -73.715129, 40.745591 ] } },
{ "type": "Feature", "properties": { "ZIP": "10470", "address": "724 E 241ST ST", "borough": "BRONX", "state": "NY" }, "geometry": { "type": "Point", "coordinates": [ -73.849564, 40.902653 ] } },
{ "type": "Feature", "properties": { "ZIP": "10701", "address": "155 S BROADWAY", "borough": "YONKERS", "state": "NY" }, "geometry": { "type": "Point", "coordinates": [ -73.896629, 40.928322 ] } },
{ "type": "Feature", "properties": { "ZIP": "10704", "address": "1144 YONKERS AVE", "borough": "YONKERS", "state": "NY" }, "geometry": { "type": "Point", "coordinates": [ -73.853874, 40.913582 ] } },
{ "type": "Feature", "properties": { "ZIP": "10550", "address": "470 S FULTON AVE", "borough": "MOUNT VERNON", "state": "NY" }, "geometry": { "type": "Point", "coordinates": [ -73.827263, 40.900917 ] } },
{ "type": "Feature", "properties": { "ZIP": "11003-2401", "address": "1420 HEMPSTEAD TRNPK", "borough": "ELMONT", "state": "NY" }, "geometry": { "type": "Point", "coordinates": [ -73.69352, 40.707767 ] } },
{ "type": "Feature", "properties": { "ZIP": "10550", "address": "6 GRAMATAN AVE", "borough": "MOUNT VERNON", "state": "NY" }, "geometry": { "type": "Point", "coordinates": [ -73.837446, 40.912594 ] } },
{ "type": "Feature", "properties": { "ZIP": "11581", "address": "10 W SUNRISE HWY", "borough": "VALLEY STREAM", "state": "NY" }, "geometry": { "type": "Point", "coordinates": [ -73.700867, 40.659283 ] } },
{ "type": "Feature", "properties": { "ZIP": "11010", "address": "575 FRANKLIN AVE", "borough": "FRANKLIN SQUARE", "state": "NY" }, "geometry": { "type": "Point", "coordinates": [ -73.683627, 40.692504 ] } },
{ "type": "Feature", "properties": { "ZIP": "11040", "address": "2045 JERICHO TPKE", "borough": "NEW HYDE PARK", "state": "NY" }, "geometry": { "type": "Point", "coordinates": [ -73.673401, 40.736561 ] } },
{ "type": "Feature", "properties": { "ZIP": "10307", "address": "260 PAGE AVENUE", "borough": "STATEN ISLAND", "state": "NY" }, "geometry": { "type": "Point", "coordinates": [ -74.234712, 40.517726 ] } },
{ "type": "Feature", "properties": { "ZIP": "11552", "address": "856 HEMP STEAD AVENUE", "borough": "WEST HEMPSTEAD", "state": "NY" }, "geometry": { "type": "Point", "coordinates": [ -73.66021, 40.686852 ] } },
{ "type": "Feature", "properties": { "ZIP": "10710", "address": "336 TUCKAHOE RD", "borough": "YONKERS", "state": "NY" }, "geometry": { "type": "Point", "coordinates": [ -73.857277, 40.953217 ] } },
{ "type": "Feature", "properties": { "ZIP": "11563", "address": "121 MERRICK RD", "borough": "LYNBROOK", "state": "NY" }, "geometry": { "type": "Point", "coordinates": [ -73.662025, 40.658607 ] } },
{ "type": "Feature", "properties": { "ZIP": "10801", "address": "270-272 MAIN ST", "borough": "NEW ROCHELLE", "state": "NY" }, "geometry": { "type": "Point", "coordinates": [ -73.773521, 40.913479 ] } },
{ "type": "Feature", "properties": { "ZIP": "11552", "address": "380 HEMP STEAD TURNPIKE", "borough": "WEST HEMPSTEAD", "state": "NY" }, "geometry": { "type": "Point", "coordinates": [ -73.653259, 40.705452 ] } },
{ "type": "Feature", "properties": { "ZIP": "10801", "address": "720-724 NORTH AVE", "borough": "NEW ROCHELLE", "state": "NY" }, "geometry": { "type": "Point", "coordinates": [ -73.789119, 40.926161 ] } },
{ "type": "Feature", "properties": { "ZIP": "10703", "address": "1200 NEPPERHAN AVE", "borough": "YONKERS", "state": "NY" }, "geometry": { "type": "Point", "coordinates": [ -73.871956, 40.964672 ] } },
{ "type": "Feature", "properties": { "ZIP": "10710", "address": "1753 CENTRAL PARK AVE", "borough": "YONKERS", "state": "NY" }, "geometry": { "type": "Point", "coordinates": [ -73.842476, 40.959564 ] } },
{ "type": "Feature", "properties": { "ZIP": "11501", "address": "60 JERICHO TPKE", "borough": "MINEOLA", "state": "NY" }, "geometry": { "type": "Point", "coordinates": [ -73.637901, 40.750618 ] } },
{ "type": "Feature", "properties": { "ZIP": "11572", "address": "31-35  ATLANTIC AVENUE", "borough": "OCEANSIDE", "state": "NY" }, "geometry": { "type": "Point", "coordinates": [ -73.641319, 40.638874 ] } },
{ "type": "Feature", "properties": { "ZIP": "11550", "address": "340 PENINSULA BLVD", "borough": "HEMPSTEAD", "state": "NY" }, "geometry": { "type": "Point", "coordinates": [ -73.625534, 40.704258 ] } },
{ "type": "Feature", "properties": { "ZIP": "11561", "address": "665 LONG BEACH RD", "borough": "LONG BEACH", "state": "NY" }, "geometry": { "type": "Point", "coordinates": [ -73.657494, 40.592777 ] } },
{ "type": "Feature", "properties": { "ZIP": "11570", "address": "618 SUNRISE HWY", "borough": "ROCKVILLE CENTRE", "state": "NY" }, "geometry": { "type": "Point", "coordinates": [ -73.628914, 40.656586 ] } },
{ "type": "Feature", "properties": { "ZIP": "11514", "address": "95 WESTBURY AVE", "borough": "CARLE PLACE", "state": "NY" }, "geometry": { "type": "Point", "coordinates": [ -73.616844, 40.749813 ] } },
{ "type": "Feature", "properties": { "ZIP": "11510", "address": "1255 GRAND AVE", "borough": "BALDWIN", "state": "NY" }, "geometry": { "type": "Point", "coordinates": [ -73.614296, 40.679699 ] } },
{ "type": "Feature", "properties": { "ZIP": "10543", "address": "1205 OLD BOSTON POSTRD", "borough": "MAMARONECK", "state": "NY" }, "geometry": { "type": "Point", "coordinates": [ -73.744614, 40.938602 ] } },
{ "type": "Feature", "properties": { "ZIP": "11530", "address": "637 STEWART AVE", "borough": "GARDEN CITY", "state": "NY" }, "geometry": { "type": "Point", "coordinates": [ -73.610306, 40.73241 ] } },
{ "type": "Feature", "properties": { "ZIP": "10710", "address": "2554 CENTRAL PARK AVE", "borough": "YONKERS", "state": "NY" }, "geometry": { "type": "Point", "coordinates": [ -73.826266, 40.983444 ] } },
{ "type": "Feature", "properties": { "ZIP": "11553", "address": "1110 HEMPSTEAD TPKE", "borough": "UNIONDALE", "state": "NY" }, "geometry": { "type": "Point", "coordinates": [ -73.593819, 40.717319 ] } },
{ "type": "Feature", "properties": { "ZIP": "11553", "address": "1050 FRONT ST", "borough": "UNIONDALE", "state": "NY" }, "geometry": { "type": "Point", "coordinates": [ -73.591148, 40.70937 ] } },
{ "type": "Feature", "properties": { "ZIP": "11590", "address": "35 OLD COUNTRY RD", "borough": "WESTBURY", "state": "NY" }, "geometry": { "type": "Point", "coordinates": [ -73.590981, 40.747627 ] } },
{ "type": "Feature", "properties": { "ZIP": "11575", "address": "265 NASSAU RD", "borough": "ROOSEVELT", "state": "NY" }, "geometry": { "type": "Point", "coordinates": [ -73.590233, 40.679344 ] } },
{ "type": "Feature", "properties": { "ZIP": "11520", "address": "157 MERRICK RD", "borough": "FREEPORT", "state": "NY" }, "geometry": { "type": "Point", "coordinates": [ -73.58728, 40.652676 ] } },
{ "type": "Feature", "properties": { "ZIP": "11542", "address": "193 GLEN ST", "borough": "GLEN COVE", "state": "NY" }, "geometry": { "type": "Point", "coordinates": [ -73.622795, 40.862324 ] } },
{ "type": "Feature", "properties": { "ZIP": "11753", "address": "105 JERICHO TPKE", "borough": "JERICHO", "state": "NY" }, "geometry": { "type": "Point", "coordinates": [ -73.560005, 40.779629 ] } },
{ "type": "Feature", "properties": { "ZIP": "11566", "address": "1813 MERRICK RD", "borough": "MERRICK", "state": "NY" }, "geometry": { "type": "Point", "coordinates": [ -73.555611, 40.653885 ] } },
{ "type": "Feature", "properties": { "ZIP": "11554", "address": "2361 HEMPSTEAD TURNPIKE", "borough": "EAST MEADOW", "state": "NY" }, "geometry": { "type": "Point", "coordinates": [ -73.548363, 40.72541 ] } },
{ "type": "Feature", "properties": { "ZIP": "10530", "address": "407 N CENTRAL PARK AVE", "borough": "HARTSDALE", "state": "NY" }, "geometry": { "type": "Point", "coordinates": [ -73.788023, 41.031704 ] } },
{ "type": "Feature", "properties": { "ZIP": "11801", "address": "280 N BROADWAY", "borough": "HICKSVILLE", "state": "NY" }, "geometry": { "type": "Point", "coordinates": [ -73.530716, 40.778133 ] } },
{ "type": "Feature", "properties": { "ZIP": "10601", "address": "200 HAMILTON AVE", "borough": "WHITE PLAINS", "state": "NY" }, "geometry": { "type": "Point", "coordinates": [ -73.770119, 41.03356 ] } },
{ "type": "Feature", "properties": { "ZIP": "11793", "address": "1946 WANTAGH AVE", "borough": "WANTAGH", "state": "NY" }, "geometry": { "type": "Point", "coordinates": [ -73.510643, 40.673237 ] } },
{ "type": "Feature", "properties": { "ZIP": "10573", "address": "321 BOSTON POST RD", "borough": "PORT CHESTER", "state": "NY" }, "geometry": { "type": "Point", "coordinates": [ -73.673454, 40.994591 ] } },
{ "type": "Feature", "properties": { "ZIP": "10954", "address": "265 RT 59", "borough": "NANUET", "state": "NY" }, "geometry": { "type": "Point", "coordinates": [ -74.001213, 41.092709 ] } },
{ "type": "Feature", "properties": { "ZIP": "10591", "address": "140 WILDEY ST", "borough": "TARRYTOWN", "state": "NY" }, "geometry": { "type": "Point", "coordinates": [ -73.864037, 41.079853 ] } },
{ "type": "Feature", "properties": { "ZIP": "11801", "address": "805 S BROADWAY", "borough": "HICKSVILLE", "state": "NY" }, "geometry": { "type": "Point", "coordinates": [ -73.502541, 40.749096 ] } },
{ "type": "Feature", "properties": { "ZIP": "10960", "address": "55 RT 59", "borough": "NYACK", "state": "NY" }, "geometry": { "type": "Point", "coordinates": [ -73.93718, 41.094337 ] } },
{ "type": "Feature", "properties": { "ZIP": "11771", "address": "245 PINEHOLLOW RD", "borough": "OYSTER BAY", "state": "NY" }, "geometry": { "type": "Point", "coordinates": [ -73.535088, 40.859493 ] } },
{ "type": "Feature", "properties": { "ZIP": "10994", "address": "1000 PALISADES CENTER DR", "borough": "WEST NYACK", "state": "NY" }, "geometry": { "type": "Point", "coordinates": [ -73.956691, 41.097115 ] } },
{ "type": "Feature", "properties": { "ZIP": "11756", "address": "3839 HEMPSTEAD TURNPIKE", "borough": "LEVITTOWN", "state": "NY" }, "geometry": { "type": "Point", "coordinates": [ -73.494095, 40.72599 ] } },
{ "type": "Feature", "properties": { "ZIP": "10977", "address": "106 RT 59", "borough": "SPRING VALLEY", "state": "NY" }, "geometry": { "type": "Point", "coordinates": [ -74.035484, 41.106968 ] } },
{ "type": "Feature", "properties": { "ZIP": "11791", "address": "571 JERICHO TPKE", "borough": "SYOSSET", "state": "NY" }, "geometry": { "type": "Point", "coordinates": [ -73.49543, 40.811539 ] } },
{ "type": "Feature", "properties": { "ZIP": "11803", "address": "818 OLD COUNTRY RD", "borough": "PLAINVIEW", "state": "NY" }, "geometry": { "type": "Point", "coordinates": [ -73.483299, 40.773811 ] } },
{ "type": "Feature", "properties": { "ZIP": "10901", "address": "RT 59 & HERMION RD", "borough": "MONTEBELLO", "state": "NY" }, "geometry": { "type": "Point", "coordinates": [ -74.130547, 41.112892 ] } },
{ "type": "Feature", "properties": { "ZIP": "11735", "address": "655 FULTON ST \/RT 109", "borough": "FARMINGDALE", "state": "NY" }, "geometry": { "type": "Point", "coordinates": [ -73.445992, 40.728249 ] } },
{ "type": "Feature", "properties": { "ZIP": "11758", "address": "5500 SUNRISE HWY", "borough": "MASSAPEQUA", "state": "NY" }, "geometry": { "type": "Point", "coordinates": [ -73.436722, 40.677364 ] } },
{ "type": "Feature", "properties": { "ZIP": "11701", "address": "900 BROADWAY RT 110", "borough": "AMITYVILLE", "state": "NY" }, "geometry": { "type": "Point", "coordinates": [ -73.427681, 40.702637 ] } },
{ "type": "Feature", "properties": { "ZIP": "10956", "address": "33 CALVARY DR W", "borough": "NEW CITY", "state": "NY" }, "geometry": { "type": "Point", "coordinates": [ -73.986038, 41.154118 ] } },
{ "type": "Feature", "properties": { "ZIP": "10562", "address": "214 S HIGHLAND AVE", "borough": "OSSINING", "state": "NY" }, "geometry": { "type": "Point", "coordinates": [ -73.862039, 41.144466 ] } },
{ "type": "Feature", "properties": { "ZIP": "10594", "address": "600 MARBLE AVE", "borough": "THORNWOOD", "state": "NY" }, "geometry": { "type": "Point", "coordinates": [ -73.785355, 41.126369 ] } },
{ "type": "Feature", "properties": { "ZIP": "11743", "address": "344 W JERICHO TPKE", "borough": "HUNTINGTON", "state": "NY" }, "geometry": { "type": "Point", "coordinates": [ -73.426201, 40.828472 ] } },
{ "type": "Feature", "properties": { "ZIP": "11747", "address": "729 RT 110", "borough": "MELVILLE", "state": "NY" }, "geometry": { "type": "Point", "coordinates": [ -73.411659, 40.8041 ] } },
{ "type": "Feature", "properties": { "ZIP": "10974", "address": "NY STATE TURNPIKE MILE POST 33 S", "borough": "SLOATSBURG", "state": "NY" }, "geometry": { "type": "Point", "coordinates": [ -74.189734, 41.153071 ] } },
{ "type": "Feature", "properties": { "ZIP": "11757", "address": "221 E SUNRISE HWY", "borough": "NORTLINDENHURST", "state": "NY" }, "geometry": { "type": "Point", "coordinates": [ -73.372536, 40.704765 ] } },
{ "type": "Feature", "properties": { "ZIP": "10927", "address": "254 RT 9 W", "borough": "HAVERSTRAW", "state": "NY" }, "geometry": { "type": "Point", "coordinates": [ -73.983513, 41.203007 ] } },
{ "type": "Feature", "properties": { "ZIP": "11757", "address": "334 E MONTAUK HWY", "borough": "LINDENHURST", "state": "NY" }, "geometry": { "type": "Point", "coordinates": [ -73.353348, 40.684116 ] } },
{ "type": "Feature", "properties": { "ZIP": "11703", "address": "1510 DEER PARK AVE", "borough": "NORTH BABYLON", "state": "NY" }, "geometry": { "type": "Point", "coordinates": [ -73.324959, 40.749355 ] } },
{ "type": "Feature", "properties": { "ZIP": "11703", "address": "1255 DEER PARK AVE", "borough": "NORTH BABYLON", "state": "NY" }, "geometry": { "type": "Point", "coordinates": [ -73.320206, 40.738907 ] } },
{ "type": "Feature", "properties": { "ZIP": "11731", "address": "1999 JERICHO TRNPIKE", "borough": "EAST NORTHPORT", "state": "NY" }, "geometry": { "type": "Point", "coordinates": [ -73.327835, 40.838955 ] } },
{ "type": "Feature", "properties": { "ZIP": "11703", "address": "131 SUNRISE HWY", "borough": "NORTH BABYLON", "state": "NY" }, "geometry": { "type": "Point", "coordinates": [ -73.30777, 40.71962 ] } },
{ "type": "Feature", "properties": { "ZIP": "11768", "address": "834 FORT SALONGA RD", "borough": "NORTHPORT", "state": "NY" }, "geometry": { "type": "Point", "coordinates": [ -73.33065, 40.898788 ] } },
{ "type": "Feature", "properties": { "ZIP": "11725", "address": "2 VANDERBILT PKWY", "borough": "COMMACK", "state": "NY" }, "geometry": { "type": "Point", "coordinates": [ -73.292862, 40.816238 ] } },
{ "type": "Feature", "properties": { "ZIP": "10566", "address": "20 WELCHER AVE", "borough": "PEEKSKILL", "state": "NY" }, "geometry": { "type": "Point", "coordinates": [ -73.936668, 41.270588 ] } },
{ "type": "Feature", "properties": { "ZIP": "10507", "address": "605 BEDFORD RD", "borough": "BEDFORD HILLS", "state": "NY" }, "geometry": { "type": "Point", "coordinates": [ -73.712227, 41.227966 ] } },
{ "type": "Feature", "properties": { "ZIP": "11706", "address": "1484 5TH AVE", "borough": "BAY SHORE", "state": "NY" }, "geometry": { "type": "Point", "coordinates": [ -73.263778, 40.750531 ] } },
{ "type": "Feature", "properties": { "ZIP": "11717", "address": "762 SUFFOLK AVE", "borough": "BRENTWOOD", "state": "NY" }, "geometry": { "type": "Point", "coordinates": [ -73.247177, 40.780628 ] } },
{ "type": "Feature", "properties": { "ZIP": "10567", "address": "3481 U.S. HIGHWAY 202 & ROAD 1", "borough": "CORTLANDT MANOR", "state": "NY" }, "geometry": { "type": "Point", "coordinates": [ -73.835523, 41.290097 ] } },
{ "type": "Feature", "properties": { "ZIP": "11751", "address": "107 MAIN ST", "borough": "ISLIP", "state": "NY" }, "geometry": { "type": "Point", "coordinates": [ -73.225479, 40.728313 ] } },
{ "type": "Feature", "properties": { "ZIP": "11787", "address": "923 JERICHO TPKE", "borough": "SMITHTOWN", "state": "NY" }, "geometry": { "type": "Point", "coordinates": [ -73.244034, 40.84861 ] } },
{ "type": "Feature", "properties": { "ZIP": "10547", "address": "3078 EAST MAIN STREET", "borough": "MOHEGAN LAKE", "state": "NY" }, "geometry": { "type": "Point", "coordinates": [ -73.868095, 41.312363 ] } },
{ "type": "Feature", "properties": { "ZIP": "10917", "address": "WOODBURY COMMONS", "borough": "CENTRAL VALLEY", "state": "NY" }, "geometry": { "type": "Point", "coordinates": [ -74.125244, 41.316132 ] } },
{ "type": "Feature", "properties": { "ZIP": "11722", "address": "13 W SUFFOLK AVE", "borough": "CENTRAL ISLIP", "state": "NY" }, "geometry": { "type": "Point", "coordinates": [ -73.204437, 40.790497 ] } },
{ "type": "Feature", "properties": { "ZIP": "10950", "address": "501 RT 17M", "borough": "MONROE", "state": "NY" }, "geometry": { "type": "Point", "coordinates": [ -74.17775, 41.319218 ] } },
{ "type": "Feature", "properties": { "ZIP": "11787", "address": "517 NY RT 111", "borough": "HAUPPAUGE", "state": "NY" }, "geometry": { "type": "Point", "coordinates": [ -73.198982, 40.828831 ] } },
{ "type": "Feature", "properties": { "ZIP": "11749", "address": "1850 VETERANS HWY (W*M #2917)", "borough": "ISLANDIA", "state": "NY" }, "geometry": { "type": "Point", "coordinates": [ -73.17858, 40.800597 ] } },
{ "type": "Feature", "properties": { "ZIP": "11780", "address": "614 MIDDLE COUNTRY RD", "borough": "SAINT JAMES", "state": "NY" }, "geometry": { "type": "Point", "coordinates": [ -73.157524, 40.859624 ] } },
{ "type": "Feature", "properties": { "ZIP": "10541", "address": "154 ROUTE 6", "borough": "MAHOPAC", "state": "NY" }, "geometry": { "type": "Point", "coordinates": [ -73.755479, 41.347942 ] } },
{ "type": "Feature", "properties": { "ZIP": "10928", "address": "W PT & STATION RD", "borough": "HIGHLAND FALLS", "state": "NY" }, "geometry": { "type": "Point", "coordinates": [ -73.962646, 41.374901 ] } },
{ "type": "Feature", "properties": { "ZIP": "11769", "address": "4498 SUNRISE HWY\/SYCAMORE", "borough": "OAKDALE", "state": "NY" }, "geometry": { "type": "Point", "coordinates": [ -73.118912, 40.752884 ] } },
{ "type": "Feature", "properties": { "ZIP": "10918", "address": "RT 17M & 17", "borough": "CHESTER", "state": "NY" }, "geometry": { "type": "Point", "coordinates": [ -74.281898, 41.355118 ] } },
{ "type": "Feature", "properties": { "ZIP": "11716", "address": "3850 VETERANS MEMORIAL HWY", "borough": "BOHEMIA", "state": "NY" }, "geometry": { "type": "Point", "coordinates": [ -73.110709, 40.784519 ] } },
{ "type": "Feature", "properties": { "ZIP": "11790", "address": "2324 NESCONSET", "borough": "STONY BROOK", "state": "NY" }, "geometry": { "type": "Point", "coordinates": [ -73.120922, 40.875594 ] } },
{ "type": "Feature", "properties": { "ZIP": "11779", "address": "174 PORTION RD", "borough": "LAKE RONKONKOMA", "state": "NY" }, "geometry": { "type": "Point", "coordinates": [ -73.106514, 40.82626 ] } },
{ "type": "Feature", "properties": { "ZIP": "11720", "address": "161 CENTEREACH MALL (WM #2286)", "borough": "CENTEREACH", "state": "NY" }, "geometry": { "type": "Point", "coordinates": [ -73.081209, 40.863004 ] } },
{ "type": "Feature", "properties": { "ZIP": "11720", "address": "1724 MIDDLE COUNTRY RD", "borough": "CENTEREACH", "state": "NY" }, "geometry": { "type": "Point", "coordinates": [ -73.072678, 40.859695 ] } },
{ "type": "Feature", "properties": { "ZIP": "11733", "address": "3990 NESCONSET HWY (W*M #2915)", "borough": "SETAUKET", "state": "NY" }, "geometry": { "type": "Point", "coordinates": [ -73.078208, 40.902952 ] } },
{ "type": "Feature", "properties": { "ZIP": "11772", "address": "499-85 SUNRISE HWY", "borough": "PATCHOGUE", "state": "NY" }, "geometry": { "type": "Point", "coordinates": [ -73.038681, 40.776085 ] } },
{ "type": "Feature", "properties": { "ZIP": "12553", "address": "2639 ROUTE 32- ROAD #6", "borough": "NEW WINDSOR", "state": "NY" }, "geometry": { "type": "Point", "coordinates": [ -74.057732, 41.453362 ] } },
{ "type": "Feature", "properties": { "ZIP": "10512", "address": "US ROUTE 6", "borough": "CARMEL", "state": "NY" }, "geometry": { "type": "Point", "coordinates": [ -73.666519, 41.411858 ] } },
{ "type": "Feature", "properties": { "ZIP": "11776", "address": "5136 NESCONSET HWY", "borough": "PORT JEFFERSON STATION", "state": "NY" }, "geometry": { "type": "Point", "coordinates": [ -73.051102, 40.922535 ] } },
{ "type": "Feature", "properties": { "ZIP": "11738", "address": "2301 N OCEAN AVE", "borough": "FARMINGVILLE", "state": "NY" }, "geometry": { "type": "Point", "coordinates": [ -73.020271, 40.827431 ] } },
{ "type": "Feature", "properties": { "ZIP": "11763", "address": "1710 ROUTE 112", "borough": "MEDFORD", "state": "NY" }, "geometry": { "type": "Point", "coordinates": [ -73.006027, 40.799213 ] } },
{ "type": "Feature", "properties": { "ZIP": "11772", "address": "769 MONTAUK HWY", "borough": "EAST PATCHOGUE", "state": "NY" }, "geometry": { "type": "Point", "coordinates": [ -72.986687, 40.767925 ] } },
{ "type": "Feature", "properties": { "ZIP": "11727", "address": "313 MIDDLE COUNTRY RD", "borough": "CORAM", "state": "NY" }, "geometry": { "type": "Point", "coordinates": [ -72.999023, 40.870403 ] } },
{ "type": "Feature", "properties": { "ZIP": "10940", "address": "113 DOLSON AVE", "borough": "MIDDLETOWN", "state": "NY" }, "geometry": { "type": "Point", "coordinates": [ -74.423386, 41.430466 ] } },
{ "type": "Feature", "properties": { "ZIP": "10509", "address": "RT 22 & TOWN CENTER RD", "borough": "BREWSTER", "state": "NY" }, "geometry": { "type": "Point", "coordinates": [ -73.576683, 41.428627 ] } },
{ "type": "Feature", "properties": { "ZIP": "12550", "address": "1201 UNION AVE (W*M #2104)", "borough": "NEWBURGH", "state": "NY" }, "geometry": { "type": "Point", "coordinates": [ -74.074742, 41.497674 ] } },
{ "type": "Feature", "properties": { "ZIP": "12550", "address": "347 BROADWAY", "borough": "NEWBURGH", "state": "NY" }, "geometry": { "type": "Point", "coordinates": [ -74.023819, 41.500452 ] } },
{ "type": "Feature", "properties": { "ZIP": "10940", "address": "481 RT 211 E", "borough": "MIDDLETOWN", "state": "NY" }, "geometry": { "type": "Point", "coordinates": [ -74.380234, 41.457428 ] } },
{ "type": "Feature", "properties": { "ZIP": "11764", "address": "340 RT 25A", "borough": "MILLER PLACE", "state": "NY" }, "geometry": { "type": "Point", "coordinates": [ -72.988792, 40.941151 ] } },
{ "type": "Feature", "properties": { "ZIP": "12550", "address": "1403 RT 300", "borough": "NEWBURGH", "state": "NY" }, "geometry": { "type": "Point", "coordinates": [ -74.069336, 41.518177 ] } },
{ "type": "Feature", "properties": { "ZIP": "12524", "address": "US ROUTE 9 DUCHESS MALL", "borough": "FISHKILL", "state": "NY" }, "geometry": { "type": "Point", "coordinates": [ -73.890228, 41.518574 ] } },
{ "type": "Feature", "properties": { "ZIP": "12550", "address": "65 N PLANK", "borough": "NEWBURGH", "state": "NY" }, "geometry": { "type": "Point", "coordinates": [ -74.033455, 41.524986 ] } },
{ "type": "Feature", "properties": { "ZIP": "12549", "address": "2083 STHY RT 208 S", "borough": "MONTGOMERY", "state": "NY" }, "geometry": { "type": "Point", "coordinates": [ -74.208076, 41.513699 ] } },
{ "type": "Feature", "properties": { "ZIP": "12524", "address": "2400 RT 9 (W*M #1810)", "borough": "FISHKILL", "state": "NY" }, "geometry": { "type": "Point", "coordinates": [ -73.897358, 41.530708 ] } },
{ "type": "Feature", "properties": { "ZIP": "11953", "address": "1175 MIDDLE COUNTRY ROAD", "borough": "MIDDLE ISLAND", "state": "NY" }, "geometry": { "type": "Point", "coordinates": [ -72.923705, 40.887597 ] } },
{ "type": "Feature", "properties": { "ZIP": "11778", "address": "463 ST RT 25A NY", "borough": "ROCKY POINT", "state": "NY" }, "geometry": { "type": "Point", "coordinates": [ -72.935059, 40.946392 ] } },
{ "type": "Feature", "properties": { "ZIP": "11786", "address": "971 MONTAUK HWY", "borough": "SHIRLEY", "state": "NY" }, "geometry": { "type": "Point", "coordinates": [ -72.861626, 40.802547 ] } },
{ "type": "Feature", "properties": { "ZIP": "12548", "address": "NY STATE TURNPIKE MILE POST 66 S", "borough": "MODENA", "state": "NY" }, "geometry": { "type": "Point", "coordinates": [ -74.088626, 41.592225 ] } },
{ "type": "Feature", "properties": { "ZIP": "12590", "address": "1178 RT 9 EAST MAIN STREET", "borough": "WAPPINGERS FALL", "state": "NY" }, "geometry": { "type": "Point", "coordinates": [ -73.911221, 41.595763 ] } }
]
}
