{
"type": "FeatureCollection",
"crs": { "type": "name", "properties": { "name": "urn:ogc:def:crs:OGC:1.3:CRS84" } },
"features": [
{ "type": "Feature", "properties": { "ZIP": "10038", "address": "85 NASSAU STREET", "borough": "NEW YORK", "state": "NY" }, "geometry": { "type": "Point", "coordinates": [ -74.008141, 40.710124 ] } },
{ "type": "Feature", "properties": { "ZIP": "10004", "address": "WHITEHALL STATEN ISLAND FERRY 4 SOUTH ST SPACE 2", "borough": "STATEN ISLAND", "state": "NY" }, "geometry": { "type": "Point", "coordinates": [ -74.013467, 40.701216 ] } },
{ "type": "Feature", "properties": { "ZIP": "10012", "address": "650 BROADWAY", "borough": "NEW YORK", "state": "NY" }, "geometry": { "type": "Point", "coordinates": [ -73.995304, 40.726676 ] } },
{ "type": "Feature", "properties": { "ZIP": "10003", "address": "20 E 14TH STREET", "borough": "NEW YORK", "state": "NY" }, "geometry": { "type": "Point", "coordinates": [ -73.992682, 40.735432 ] } },
{ "type": "Feature", "properties": { "ZIP": "10016", "address": "335 FIFTH AVENUE", "borough": "NEW YORK", "state": "NY" }, "geometry": { "type": "Point", "coordinates": [ -73.984793, 40.747796 ] } },
{ "type": "Feature", "properties": { "ZIP": "10017", "address": "714 THIRD AVENUE", "borough": "NEW YORK", "state": "NY" }, "geometry": { "type": "Point", "coordinates": [ -73.97338, 40.75254 ] } },
{ "type": "Feature", "properties": { "ZIP": "10019", "address": "938 EIGHTH AVENUE", "borough": "NEW YORK", "state": "NY" }, "geometry": { "type": "Point", "coordinates": [ -73.98354, 40.76551 ] } },
{ "type": "Feature", "properties": { "ZIP": "11225", "address": "469 FLATBUSH AVE", "borough": "BROOKLYN", "state": "NY" }, "geometry": { "type": "Point", "coordinates": [ -73.961739, 40.662956 ] } },
{ "type": "Feature", "properties": { "ZIP": "07047", "address": "1500 TONNELLE AVE", "borough": "N.BERGEN", "state": "NJ" }, "geometry": { "type": "Point", "coordinates": [ -74.046171, 40.766384 ] } },
{ "type": "Feature", "properties": { "ZIP": "07305", "address": "401 ROUTE 440", "borough": "JERSEY CITY", "state": "NJ" }, "geometry": { "type": "Point", "coordinates": [ -74.100426, 40.70957 ] } },
{ "type": "Feature", "properties": { "ZIP": "11104", "address": "4416 QUEENS BLVD", "borough": "LONG ISLAND CITY", "state": "NY" }, "geometry": { "type": "Point", "coordinates": [ -73.920026, 40.742921 ] } },
{ "type": "Feature", "properties": { "ZIP": "07305", "address": "2-30 GARFIELD AVENUE", "borough": "JERSEY CITY", "state": "NJ" }, "geometry": { "type": "Point", "coordinates": [ -74.098878, 40.686191 ] } },
{ "type": "Feature", "properties": { "ZIP": "11203", "address": "505 UTICA AVE", "borough": "BROOKLYN", "state": "NY" }, "geometry": { "type": "Point", "coordinates": [ -73.93103, 40.661198 ] } },
{ "type": "Feature", "properties": { "ZIP": "11379", "address": "61-11 FRESH POND RD.", "borough": "MIDDLE VILLAGE", "state": "NY" }, "geometry": { "type": "Point", "coordinates": [ -73.900926, 40.714464 ] } },
{ "type": "Feature", "properties": { "ZIP": "07002", "address": "181 LEFANTE WAY", "borough": "BAYONNE", "state": "NJ" }, "geometry": { "type": "Point", "coordinates": [ -74.106846, 40.668367 ] } },
{ "type": "Feature", "properties": { "ZIP": "11209", "address": "420 86TH STREET", "borough": "BROOKLYN", "state": "NY" }, "geometry": { "type": "Point", "coordinates": [ -74.0279, 40.6223 ] } },
{ "type": "Feature", "properties": { "ZIP": "11377", "address": "69-02 NORTHERN BLVD.", "borough": "FLUSHING", "state": "NY" }, "geometry": { "type": "Point", "coordinates": [ -73.896935, 40.754066 ] } },
{ "type": "Feature", "properties": { "ZIP": "11372", "address": "72-32 BROADWAY JACKSON HEIGHTS", "borough": "QUEENS VILLAGE", "state": "NY" }, "geometry": { "type": "Point", "coordinates": [ -73.892667, 40.747008 ] } },
{ "type": "Feature", "properties": { "ZIP": "11236", "address": "9001 DITMAS AVENUE", "borough": "BROOKLYN", "state": "NY" }, "geometry": { "type": "Point", "coordinates": [ -73.914712, 40.648294 ] } },
{ "type": "Feature", "properties": { "ZIP": "07094", "address": "16 MEADOWLANDS PARKWAY", "borough": "SECAUCUS", "state": "NJ" }, "geometry": { "type": "Point", "coordinates": [ -74.065316, 40.798583 ] } },
{ "type": "Feature", "properties": { "ZIP": "10029", "address": "2121-2123 THIRD AVE.", "borough": "NEW YORK", "state": "NY" }, "geometry": { "type": "Point", "coordinates": [ -73.939866, 40.7978 ] } },
{ "type": "Feature", "properties": { "ZIP": "07047", "address": "2100 88TH STREET RESTAURANT B", "borough": "N.BERGEN", "state": "NJ" }, "geometry": { "type": "Point", "coordinates": [ -74.013096, 40.812161 ] } },
{ "type": "Feature", "properties": { "ZIP": "11208", "address": "3183 ATLANTIC AVENUE", "borough": "BROOKLYN", "state": "NY" }, "geometry": { "type": "Point", "coordinates": [ -73.87801, 40.680064 ] } },
{ "type": "Feature", "properties": { "ZIP": "11207", "address": "1916 LINDEN BLVD", "borough": "BROOKLYN", "state": "NY" }, "geometry": { "type": "Point", "coordinates": [ -73.891125, 40.65801 ] } },
{ "type": "Feature", "properties": { "ZIP": "11236", "address": "78-11 FLATLANDS AVENUE", "borough": "BROOKLYN", "state": "NY" }, "geometry": { "type": "Point", "coordinates": [ -73.914635, 40.634995 ] } },
{ "type": "Feature", "properties": { "ZIP": "10035", "address": "79 E. 125TH STREET", "borough": "NEW YORK", "state": "NY" }, "geometry": { "type": "Point", "coordinates": [ -73.939426, 40.805479 ] } },
{ "type": "Feature", "properties": { "ZIP": "11234", "address": "1601 UTICA AVE.", "borough": "BROOKLYN", "state": "NY" }, "geometry": { "type": "Point", "coordinates": [ -73.9905, 40.60658 ] } },
{ "type": "Feature", "properties": { "ZIP": "11374", "address": "90-13 METROPOLITAN", "borough": "REGO PARK", "state": "NY" }, "geometry": { "type": "Point", "coordinates": [ -73.859371, 40.711928 ] } },
{ "type": "Feature", "properties": { "ZIP": "07029", "address": "401 BERGEN ST", "borough": "HARRISON", "state": "NJ" }, "geometry": { "type": "Point", "coordinates": [ -74.155401, 40.743073 ] } },
{ "type": "Feature", "properties": { "ZIP": "11214", "address": "1602 SHORE PARKWAY", "borough": "BROOKLYN", "state": "NY" }, "geometry": { "type": "Point", "coordinates": [ -74.000298, 40.59536 ] } },
{ "type": "Feature", "properties": { "ZIP": "07071", "address": "327 RIDGE ROAD", "borough": "LYNDHURST", "state": "NJ" }, "geometry": { "type": "Point", "coordinates": [ -74.119225, 40.80821 ] } },
{ "type": "Feature", "properties": { "ZIP": "07114", "address": "NEWARK LIBERTY INT. APT. B5C", "borough": "NEWARK", "state": "NJ" }, "geometry": { "type": "Point", "coordinates": [ -74.17532, 40.689655 ] } },
{ "type": "Feature", "properties": { "ZIP": "07070", "address": "30 ROUTE 17 SOUTH", "borough": "RUTHERFORD", "state": "NJ" }, "geometry": { "type": "Point", "coordinates": [ -74.099464, 40.82258 ] } },
{ "type": "Feature", "properties": { "ZIP": "10032", "address": "3939 BROADWAY", "borough": "NEW YORK", "state": "NY" }, "geometry": { "type": "Point", "coordinates": [ -73.941477, 40.839179 ] } },
{ "type": "Feature", "properties": { "ZIP": "10303", "address": "1761 FOREST AVE.", "borough": "STATEN ISLAND", "state": "NY" }, "geometry": { "type": "Point", "coordinates": [ -74.1474, 40.62534 ] } },
{ "type": "Feature", "properties": { "ZIP": "07024", "address": "1435 BERGEN BOULEVARD", "borough": "FT.LEE", "state": "NJ" }, "geometry": { "type": "Point", "coordinates": [ -73.985363, 40.850282 ] } },
{ "type": "Feature", "properties": { "ZIP": "11235", "address": "621 BRIGHTON BEACH AVE", "borough": "BROOKLYN", "state": "NY" }, "geometry": { "type": "Point", "coordinates": [ -73.961015, 40.577913 ] } },
{ "type": "Feature", "properties": { "ZIP": "10305", "address": "1661 HYLAN BLVD.", "borough": "STATEN ISLAND", "state": "NY" }, "geometry": { "type": "Point", "coordinates": [ -74.091019, 40.588345 ] } },
{ "type": "Feature", "properties": { "ZIP": "11354", "address": "133-50 WHITESTONE EXPRESS", "borough": "FLUSHING", "state": "NY" }, "geometry": { "type": "Point", "coordinates": [ -73.835807, 40.769135 ] } },
{ "type": "Feature", "properties": { "ZIP": "07107", "address": "339-345 WEST MARKET STREET", "borough": "NEWARK", "state": "NJ" }, "geometry": { "type": "Point", "coordinates": [ -74.190149, 40.745819 ] } },
{ "type": "Feature", "properties": { "ZIP": "10452", "address": "19 WEST 170TH STREET", "borough": "BRONX", "state": "NY" }, "geometry": { "type": "Point", "coordinates": [ -73.91777, 40.840571 ] } },
{ "type": "Feature", "properties": { "ZIP": "07075", "address": "359 RT 17 SOUTH", "borough": "WOOD RIDGE", "state": "NJ" }, "geometry": { "type": "Point", "coordinates": [ -74.076777, 40.848148 ] } },
{ "type": "Feature", "properties": { "ZIP": "07606", "address": "420 US HIGHWAY 46", "borough": "S.HACKENSACK", "state": "NJ" }, "geometry": { "type": "Point", "coordinates": [ -74.047826, 40.856018 ] } },
{ "type": "Feature", "properties": { "ZIP": "07103", "address": "427-443 SPRINGFIELD AVENUE", "borough": "NEWARK", "state": "NJ" }, "geometry": { "type": "Point", "coordinates": [ -74.199139, 40.732235 ] } },
{ "type": "Feature", "properties": { "ZIP": "11435", "address": "138-42 JAMAICA AVENUE", "borough": "JAMAICA", "state": "NY" }, "geometry": { "type": "Point", "coordinates": [ -73.814084, 40.702816 ] } },
{ "type": "Feature", "properties": { "ZIP": "07109", "address": "333 FRANKLIN AVE.", "borough": "BELLEVILLE", "state": "NJ" }, "geometry": { "type": "Point", "coordinates": [ -74.17043, 40.801501 ] } },
{ "type": "Feature", "properties": { "ZIP": "07003", "address": "147 BLOOMFIELD AVENUE", "borough": "BLOOMFIELD", "state": "NJ" }, "geometry": { "type": "Point", "coordinates": [ -74.189241, 40.780078 ] } },
{ "type": "Feature", "properties": { "ZIP": "10457", "address": "4040 3RD AVE", "borough": "BRONX", "state": "NY" }, "geometry": { "type": "Point", "coordinates": [ -73.897758, 40.842827 ] } },
{ "type": "Feature", "properties": { "ZIP": "07014", "address": "83 MAIN AVE", "borough": "CLIFTON", "state": "NJ" }, "geometry": { "type": "Point", "coordinates": [ -74.14335, 40.830397 ] } },
{ "type": "Feature", "properties": { "ZIP": "11432", "address": "155-33 JAMAICA AVENUE", "borough": "JAMAICA", "state": "NY" }, "geometry": { "type": "Point", "coordinates": [ -73.800603, 40.70352 ] } },
{ "type": "Feature", "properties": { "ZIP": "07208", "address": "433 N BROAD ST", "borough": "ELIZABETH", "state": "NJ" }, "geometry": { "type": "Point", "coordinates": [ -74.213277, 40.672856 ] } },
{ "type": "Feature", "properties": { "ZIP": "07018", "address": "275 CENTRAL AVE.", "borough": "E.ORANGE", "state": "NJ" }, "geometry": { "type": "Point", "coordinates": [ -74.214107, 40.753684 ] } },
{ "type": "Feature", "properties": { "ZIP": "07112", "address": "462 CHANCELLOR AVENUE", "borough": "NEWARK", "state": "NJ" }, "geometry": { "type": "Point", "coordinates": [ -74.2267, 40.712 ] } },
{ "type": "Feature", "properties": { "ZIP": "10462", "address": "2140 WESTCHESTER AVENUE", "borough": "BRONX", "state": "NY" }, "geometry": { "type": "Point", "coordinates": [ -73.853036, 40.833898 ] } },
{ "type": "Feature", "properties": { "ZIP": "11430", "address": "JFK TRAVEL PLAZA 150TH AVE. BLDG 125", "borough": "JAMAICA", "state": "NY" }, "geometry": { "type": "Point", "coordinates": [ -73.7923, 40.663 ] } },
{ "type": "Feature", "properties": { "ZIP": "07050", "address": "2 MAIN STREET", "borough": "ORANGE", "state": "NJ" }, "geometry": { "type": "Point", "coordinates": [ -74.220835, 40.767719 ] } },
{ "type": "Feature", "properties": { "ZIP": "10314", "address": "26 RICHMOND HILL ROAD", "borough": "STATEN ISLAND", "state": "NY" }, "geometry": { "type": "Point", "coordinates": [ -74.1669, 40.5882 ] } },
{ "type": "Feature", "properties": { "ZIP": "07205", "address": "410 ROUTE 22 #430", "borough": "HILLSIDE", "state": "NJ" }, "geometry": { "type": "Point", "coordinates": [ -74.2373, 40.6989 ] } },
{ "type": "Feature", "properties": { "ZIP": "07202", "address": "475 RAHWAY AVE", "borough": "ELIZABETH", "state": "NJ" }, "geometry": { "type": "Point", "coordinates": [ -74.227032, 40.657847 ] } },
{ "type": "Feature", "properties": { "ZIP": "10461", "address": "2703 E TREMONT AVE", "borough": "BRONX", "state": "NY" }, "geometry": { "type": "Point", "coordinates": [ -73.845337, 40.842911 ] } },
{ "type": "Feature", "properties": { "ZIP": "11430", "address": "JFK DELTA AIRLINES T2 BLDG 54 SP 35", "borough": "JAMAICA", "state": "NY" }, "geometry": { "type": "Point", "coordinates": [ -73.78201, 40.643697 ] } },
{ "type": "Feature", "properties": { "ZIP": "10314", "address": "SHOW PLACE CENTER 141 E SERVICE RD", "borough": "STATEN ISLAND", "state": "NY" }, "geometry": { "type": "Point", "coordinates": [ -74.191591, 40.588783 ] } },
{ "type": "Feature", "properties": { "ZIP": "11361", "address": "220-06 NORTHERN BLVD", "borough": "BAYSIDE", "state": "NY" }, "geometry": { "type": "Point", "coordinates": [ -73.761402, 40.761314 ] } },
{ "type": "Feature", "properties": { "ZIP": "07407", "address": "231 US HIGHWAY 46", "borough": "ELMWOOD PARK", "state": "NJ" }, "geometry": { "type": "Point", "coordinates": [ -74.115357, 40.893886 ] } },
{ "type": "Feature", "properties": { "ZIP": "07036", "address": "709 S. WOOD AVENUE", "borough": "LINDEN", "state": "NJ" }, "geometry": { "type": "Point", "coordinates": [ -74.243959, 40.627166 ] } },
{ "type": "Feature", "properties": { "ZIP": "11427", "address": "219-44 HILLSIDE AVENUE", "borough": "QUEENS VILLAGE", "state": "NY" }, "geometry": { "type": "Point", "coordinates": [ -73.743652, 40.72987 ] } },
{ "type": "Feature", "properties": { "ZIP": "07652", "address": "296 EAST ROUTE 4", "borough": "PARAMUS", "state": "NJ" }, "geometry": { "type": "Point", "coordinates": [ -74.046677, 40.913323 ] } },
{ "type": "Feature", "properties": { "ZIP": "07203", "address": "210 WEST FIRST AVENUE", "borough": "ROSELLE", "state": "NJ" }, "geometry": { "type": "Point", "coordinates": [ -74.267005, 40.659382 ] } },
{ "type": "Feature", "properties": { "ZIP": "10312", "address": "25 PUTNAM STREET", "borough": "STATEN ISLAND", "state": "NY" }, "geometry": { "type": "Point", "coordinates": [ -74.16428, 40.54371 ] } },
{ "type": "Feature", "properties": { "ZIP": "10469", "address": "3636 BOSTON ROAD", "borough": "BRONX", "state": "NY" }, "geometry": { "type": "Point", "coordinates": [ -73.84216, 40.879609 ] } },
{ "type": "Feature", "properties": { "ZIP": "11003", "address": "199 HEMPSTEAD TPKE", "borough": "ELMONT", "state": "NY" }, "geometry": { "type": "Point", "coordinates": [ -73.720187, 40.708483 ] } },
{ "type": "Feature", "properties": { "ZIP": "07621", "address": "150 NORTH WASHINGTON AVE", "borough": "BERGENFIELD", "state": "NJ" }, "geometry": { "type": "Point", "coordinates": [ -73.996109, 40.932592 ] } },
{ "type": "Feature", "properties": { "ZIP": "07652", "address": "190 E STATE RT 4", "borough": "PARAMUS", "state": "NJ" }, "geometry": { "type": "Point", "coordinates": [ -74.088144, 40.924892 ] } },
{ "type": "Feature", "properties": { "ZIP": "11581", "address": "2046 GREEN ACRES MALL", "borough": "VALLEY STREAM", "state": "NY" }, "geometry": { "type": "Point", "coordinates": [ -73.722285, 40.662296 ] } },
{ "type": "Feature", "properties": { "ZIP": "10475", "address": "4330 BOSTON ROAD", "borough": "BRONX", "state": "NY" }, "geometry": { "type": "Point", "coordinates": [ -73.820045, 40.889626 ] } },
{ "type": "Feature", "properties": { "ZIP": "07083", "address": "2657 US HIGHWAY 22 WEST", "borough": "UNION", "state": "NJ" }, "geometry": { "type": "Point", "coordinates": [ -74.305879, 40.688952 ] } },
{ "type": "Feature", "properties": { "ZIP": "07505", "address": "145 BROADWAY", "borough": "PATERSON", "state": "NJ" }, "geometry": { "type": "Point", "coordinates": [ -74.168756, 40.918985 ] } },
{ "type": "Feature", "properties": { "ZIP": "07066", "address": "59 CENTRAL AVENUE", "borough": "CLARK", "state": "NJ" }, "geometry": { "type": "Point", "coordinates": [ -74.307936, 40.62904 ] } },
{ "type": "Feature", "properties": { "ZIP": "07078", "address": "764 MORRIS TURNPIKE", "borough": "SHORT HILLS", "state": "NJ" }, "geometry": { "type": "Point", "coordinates": [ -74.332062, 40.720703 ] } },
{ "type": "Feature", "properties": { "ZIP": "07065", "address": "90 ST. GEORGES AVENUE", "borough": "RAHWAY", "state": "NJ" }, "geometry": { "type": "Point", "coordinates": [ -74.291428, 40.592504 ] } },
{ "type": "Feature", "properties": { "ZIP": "10309", "address": "6420 AMBOY ROAD", "borough": "STATEN ISLAND", "state": "NY" }, "geometry": { "type": "Point", "coordinates": [ -74.21684, 40.52144 ] } },
{ "type": "Feature", "properties": { "ZIP": "11010", "address": "1034 HEMPSTEAD TURNPIKE", "borough": "FRANKLIN SQUARE", "state": "NY" }, "geometry": { "type": "Point", "coordinates": [ -73.6778, 40.707852 ] } },
{ "type": "Feature", "properties": { "ZIP": "11563", "address": "580 MERRICK RD.", "borough": "LYNBROOK", "state": "NY" }, "geometry": { "type": "Point", "coordinates": [ -73.68331, 40.659978 ] } },
{ "type": "Feature", "properties": { "ZIP": "07470", "address": "530 ROUTE 46", "borough": "WAYNE", "state": "NJ" }, "geometry": { "type": "Point", "coordinates": [ -74.241123, 40.894095 ] } },
{ "type": "Feature", "properties": { "ZIP": "07652", "address": "657 N ROUTE 17", "borough": "PARAMUS", "state": "NJ" }, "geometry": { "type": "Point", "coordinates": [ -74.077523, 40.963707 ] } },
{ "type": "Feature", "properties": { "ZIP": "07470", "address": "3107 WILLOWBROOK MALL", "borough": "WAYNE", "state": "NJ" }, "geometry": { "type": "Point", "coordinates": [ -74.260026, 40.888328 ] } },
{ "type": "Feature", "properties": { "ZIP": "07006", "address": "840 BLOOMFIELD AVENUE", "borough": "W.CALDWELL", "state": "NJ" }, "geometry": { "type": "Point", "coordinates": [ -74.297861, 40.850538 ] } },
{ "type": "Feature", "properties": { "ZIP": "07095", "address": "131 WOODBRIDGE CENTER DR.", "borough": "WOODBRIDGE", "state": "NJ" }, "geometry": { "type": "Point", "coordinates": [ -74.299274, 40.556074 ] } },
{ "type": "Feature", "properties": { "ZIP": "11518", "address": "80 OCEAN AVE", "borough": "E.ROCKAWAY", "state": "NY" }, "geometry": { "type": "Point", "coordinates": [ -73.660093, 40.640541 ] } },
{ "type": "Feature", "properties": { "ZIP": "11596", "address": "259 HILLSIDE AVE", "borough": "WILLISTON PARK", "state": "NY" }, "geometry": { "type": "Point", "coordinates": [ -73.649659, 40.75459 ] } },
{ "type": "Feature", "properties": { "ZIP": "10710", "address": "1751 CENTRAL PARK AVENUE", "borough": "YONKERS", "state": "NY" }, "geometry": { "type": "Point", "coordinates": [ -73.842359, 40.959008 ] } },
{ "type": "Feature", "properties": { "ZIP": "08861", "address": "853 CONVERY BOULEVARD", "borough": "PERTH AMBOY", "state": "NJ" }, "geometry": { "type": "Point", "coordinates": [ -74.279847, 40.531164 ] } },
{ "type": "Feature", "properties": { "ZIP": "11552", "address": "65 HEMPSTEAD TPKE", "borough": "W.HEMPSTEAD", "state": "NY" }, "geometry": { "type": "Point", "coordinates": [ -73.640279, 40.704692 ] } },
{ "type": "Feature", "properties": { "ZIP": "07936", "address": "413 STATE ROUTE 10", "borough": "E.HANOVER", "state": "NJ" }, "geometry": { "type": "Point", "coordinates": [ -74.35993, 40.80081 ] } },
{ "type": "Feature", "properties": { "ZIP": "07432", "address": "31 GODWIN AVENUE", "borough": "MIDLAND PARK", "state": "NJ" }, "geometry": { "type": "Point", "coordinates": [ -74.1367, 40.983529 ] } },
{ "type": "Feature", "properties": { "ZIP": "07642", "address": "411 HILLSDALE AVE", "borough": "HILLSDALE", "state": "NJ" }, "geometry": { "type": "Point", "coordinates": [ -74.041496, 41.002235 ] } },
{ "type": "Feature", "properties": { "ZIP": "11558", "address": "33 AUSTIN BLVD", "borough": "ISLAND PARK", "state": "NY" }, "geometry": { "type": "Point", "coordinates": [ -73.656095, 40.597808 ] } },
{ "type": "Feature", "properties": { "ZIP": "07470", "address": "637 HAMBURG TURNPIKE", "borough": "WAYNE", "state": "NJ" }, "geometry": { "type": "Point", "coordinates": [ -74.221069, 40.955768 ] } },
{ "type": "Feature", "properties": { "ZIP": "07058", "address": "23 ROUTE 46 EAST", "borough": "PINE BROOK", "state": "NJ" }, "geometry": { "type": "Point", "coordinates": [ -74.340872, 40.858176 ] } },
{ "type": "Feature", "properties": { "ZIP": "08837", "address": "55 PARSONAGE RD", "borough": "EDISON", "state": "NJ" }, "geometry": { "type": "Point", "coordinates": [ -74.334912, 40.548356 ] } },
{ "type": "Feature", "properties": { "ZIP": "07470", "address": "1560 ROUTE 23 NORTH", "borough": "WAYNE", "state": "NJ" }, "geometry": { "type": "Point", "coordinates": [ -74.268784, 40.937573 ] } },
{ "type": "Feature", "properties": { "ZIP": "11548", "address": "18 GLEN COVE ROAD", "borough": "GREENVALE", "state": "NY" }, "geometry": { "type": "Point", "coordinates": [ -73.6279, 40.808913 ] } },
{ "type": "Feature", "properties": { "ZIP": "07062", "address": "1477 SOUTH AVE.", "borough": "PLAINFIELD", "state": "NJ" }, "geometry": { "type": "Point", "coordinates": [ -74.39313, 40.635095 ] } },
{ "type": "Feature", "properties": { "ZIP": "11530", "address": "820 OLD COUNTRY ROAD", "borough": "GARDEN CITY", "state": "NY" }, "geometry": { "type": "Point", "coordinates": [ -73.607763, 40.744152 ] } },
{ "type": "Feature", "properties": { "ZIP": "11530", "address": "630 OLD COUNTRY RD", "borough": "GARDEN CITY", "state": "NY" }, "geometry": { "type": "Point", "coordinates": [ -73.607734, 40.744126 ] } },
{ "type": "Feature", "properties": { "ZIP": "11510", "address": "690 SUNRISE HWY", "borough": "BALDWIN", "state": "NY" }, "geometry": { "type": "Point", "coordinates": [ -73.611081, 40.655962 ] } },
{ "type": "Feature", "properties": { "ZIP": "10983", "address": "3 ROUTE 303", "borough": "TAPPAN", "state": "NY" }, "geometry": { "type": "Point", "coordinates": [ -73.944383, 41.016464 ] } },
{ "type": "Feature", "properties": { "ZIP": "07069", "address": "1701 US HIGHWAY 22 BLUE STAR SHOPPING CENTER", "borough": "WATCHUNG", "state": "NJ" }, "geometry": { "type": "Point", "coordinates": [ -74.408033, 40.649127 ] } },
{ "type": "Feature", "properties": { "ZIP": "07054", "address": "736 US HIGHWAY 46", "borough": "PARSIPPANY", "state": "NJ" }, "geometry": { "type": "Point", "coordinates": [ -74.37359, 40.8625 ] } },
{ "type": "Feature", "properties": { "ZIP": "07735", "address": "388 HIGHWAY 35", "borough": "KEYPORT", "state": "NJ" }, "geometry": { "type": "Point", "coordinates": [ -74.221458, 40.436991 ] } },
{ "type": "Feature", "properties": { "ZIP": "07080", "address": "750 OAK TREE ROAD", "borough": "S.PLAINFIELD", "state": "NJ" }, "geometry": { "type": "Point", "coordinates": [ -74.39119, 40.576824 ] } },
{ "type": "Feature", "properties": { "ZIP": "07748", "address": "1450 ROUTE 35", "borough": "MIDDLETOWN", "state": "NJ" }, "geometry": { "type": "Point", "coordinates": [ -74.125318, 40.40261 ] } },
{ "type": "Feature", "properties": { "ZIP": "11542", "address": "210 GLEN STREET", "borough": "GLEN COVE", "state": "NY" }, "geometry": { "type": "Point", "coordinates": [ -73.623456, 40.861903 ] } },
{ "type": "Feature", "properties": { "ZIP": "11554", "address": "1730 HEMPSTEAD TURNPIKE", "borough": "E.MEADOW", "state": "NY" }, "geometry": { "type": "Point", "coordinates": [ -73.571786, 40.723086 ] } },
{ "type": "Feature", "properties": { "ZIP": "11566", "address": "1728 MERRICK RD.", "borough": "MERRICK", "state": "NY" }, "geometry": { "type": "Point", "coordinates": [ -73.55831, 40.653412 ] } },
{ "type": "Feature", "properties": { "ZIP": "11753", "address": "90 JERICHO TURNPIKE", "borough": "JERICHO", "state": "NY" }, "geometry": { "type": "Point", "coordinates": [ -73.5596, 40.780478 ] } },
{ "type": "Feature", "properties": { "ZIP": "07054", "address": "2099 ROUTE 46", "borough": "PARSIPPANY", "state": "NJ" }, "geometry": { "type": "Point", "coordinates": [ -74.419804, 40.870183 ] } },
{ "type": "Feature", "properties": { "ZIP": "08817", "address": "712 US HIGHWAY 1", "borough": "EDISON", "state": "NJ" }, "geometry": { "type": "Point", "coordinates": [ -74.386453, 40.510018 ] } },
{ "type": "Feature", "properties": { "ZIP": "08857", "address": "1344 ROUTE 9", "borough": "OLD BRIDGE", "state": "NJ" }, "geometry": { "type": "Point", "coordinates": [ -74.301473, 40.437315 ] } },
{ "type": "Feature", "properties": { "ZIP": "08854", "address": "1010 STELTON ROAD", "borough": "PISCATAWAY", "state": "NJ" }, "geometry": { "type": "Point", "coordinates": [ -74.434378, 40.554287 ] } },
{ "type": "Feature", "properties": { "ZIP": "10601", "address": "100 MAIN ST STE 242", "borough": "WHITE PLAINS", "state": "NY" }, "geometry": { "type": "Point", "coordinates": [ -73.770801, 41.031898 ] } },
{ "type": "Feature", "properties": { "ZIP": "07442", "address": "19 WANAQUE AVE.", "borough": "POMPTON LAKES", "state": "NJ" }, "geometry": { "type": "Point", "coordinates": [ -74.294561, 41.007863 ] } },
{ "type": "Feature", "properties": { "ZIP": "11801", "address": "60 NORTH BROADWAY", "borough": "HICKSVILLE", "state": "NY" }, "geometry": { "type": "Point", "coordinates": [ -73.526531, 40.769736 ] } },
{ "type": "Feature", "properties": { "ZIP": "07054", "address": "1860 ROUTE 10", "borough": "PARSIPPANY", "state": "NJ" }, "geometry": { "type": "Point", "coordinates": [ -74.46284, 40.84381 ] } },
{ "type": "Feature", "properties": { "ZIP": "10523", "address": "91 SAW MILL ROAD", "borough": "ELMSFORD", "state": "NY" }, "geometry": { "type": "Point", "coordinates": [ -73.817594, 41.057414 ] } },
{ "type": "Feature", "properties": { "ZIP": "07405", "address": "1204 ROUTE 23 NORTH", "borough": "BUTLER", "state": "NJ" }, "geometry": { "type": "Point", "coordinates": [ -74.337001, 40.9905 ] } },
{ "type": "Feature", "properties": { "ZIP": "07446", "address": "1358 ROUTE 17 NORTH", "borough": "RAMSEY", "state": "NJ" }, "geometry": { "type": "Point", "coordinates": [ -74.141156, 41.073128 ] } },
{ "type": "Feature", "properties": { "ZIP": "11791", "address": "250 JERICHO TURNPIKE", "borough": "SYOSSET", "state": "NY" }, "geometry": { "type": "Point", "coordinates": [ -73.522765, 40.804851 ] } },
{ "type": "Feature", "properties": { "ZIP": "11793", "address": "1350 WANTAGH AVE ", "borough": "WANTAGH", "state": "NY" }, "geometry": { "type": "Point", "coordinates": [ -73.5091, 40.689474 ] } },
{ "type": "Feature", "properties": { "ZIP": "10954", "address": "90 EAST ROUTE 59", "borough": "NANUET", "state": "NY" }, "geometry": { "type": "Point", "coordinates": [ -74.007638, 41.096101 ] } },
{ "type": "Feature", "properties": { "ZIP": "11756", "address": "3595 HEMPSTEAD TURNPIKE", "borough": "LEVITTOWN", "state": "NY" }, "geometry": { "type": "Point", "coordinates": [ -73.501772, 40.725769 ] } },
{ "type": "Feature", "properties": { "ZIP": "10994", "address": "3624 PALISADES CENTER DRIVE", "borough": "W.NYACK", "state": "NY" }, "geometry": { "type": "Point", "coordinates": [ -73.955674, 41.096563 ] } },
{ "type": "Feature", "properties": { "ZIP": "07701", "address": "600 SHREWSBURY AVE", "borough": "TINTON FALLS", "state": "NJ" }, "geometry": { "type": "Point", "coordinates": [ -74.074172, 40.328897 ] } },
{ "type": "Feature", "properties": { "ZIP": "08857", "address": "2617 ROUTE 516", "borough": "OLD BRIDGE", "state": "NJ" }, "geometry": { "type": "Point", "coordinates": [ -74.321707, 40.403278 ] } },
{ "type": "Feature", "properties": { "ZIP": "11783", "address": "3882 SUNRISE HWY", "borough": "SEAFORD", "state": "NY" }, "geometry": { "type": "Point", "coordinates": [ -73.488786, 40.674378 ] } },
{ "type": "Feature", "properties": { "ZIP": "08816", "address": "414 HIGHWAY 18 NORTH", "borough": "E.BRUNSWICK", "state": "NJ" }, "geometry": { "type": "Point", "coordinates": [ -74.395684, 40.447516 ] } },
{ "type": "Feature", "properties": { "ZIP": "08901", "address": "126 COLLEGE AVENUE", "borough": "NEW BRUNSWICK", "state": "NJ" }, "geometry": { "type": "Point", "coordinates": [ -74.451711, 40.5026 ] } },
{ "type": "Feature", "properties": { "ZIP": "08846", "address": "1272 BOUND BROOK ROAD", "borough": "MIDDLESEX", "state": "NJ" }, "geometry": { "type": "Point", "coordinates": [ -74.502238, 40.579323 ] } },
{ "type": "Feature", "properties": { "ZIP": "10901", "address": "320 ROUTE 59", "borough": "AIRMONT", "state": "NY" }, "geometry": { "type": "Point", "coordinates": [ -74.098966, 41.11135 ] } },
{ "type": "Feature", "properties": { "ZIP": "10532", "address": "33 SAWMILL RIVER ROAD", "borough": "HAWTHORNE", "state": "NY" }, "geometry": { "type": "Point", "coordinates": [ -73.814907, 41.094474 ] } },
{ "type": "Feature", "properties": { "ZIP": "08850", "address": "178 RYDERS LANE", "borough": "MILLTOWN", "state": "NJ" }, "geometry": { "type": "Point", "coordinates": [ -74.424874, 40.452881 ] } },
{ "type": "Feature", "properties": { "ZIP": "11735", "address": "5001 HEMPSTEAD TURNPIKE", "borough": "FARMINGDALE", "state": "NY" }, "geometry": { "type": "Point", "coordinates": [ -73.464058, 40.729483 ] } },
{ "type": "Feature", "properties": { "ZIP": "06830", "address": "460 W. PUTNAM", "borough": "GREENWICH", "state": "CT" }, "geometry": { "type": "Point", "coordinates": [ -73.641049, 41.020746 ] } },
{ "type": "Feature", "properties": { "ZIP": "08873", "address": "935 EASTON AVENUE", "borough": "SOMERSET", "state": "NJ" }, "geometry": { "type": "Point", "coordinates": [ -74.485628, 40.513572 ] } },
{ "type": "Feature", "properties": { "ZIP": "11758", "address": "1 SUNRISE MALL", "borough": "MASSAPEQUA", "state": "NY" }, "geometry": { "type": "Point", "coordinates": [ -73.434644, 40.684031 ] } },
{ "type": "Feature", "properties": { "ZIP": "11735", "address": "2123 BROADHOLLOW RD.", "borough": "FARMINGDALE", "state": "NY" }, "geometry": { "type": "Point", "coordinates": [ -73.421343, 40.751343 ] } },
{ "type": "Feature", "properties": { "ZIP": "11735", "address": "220 ROUTE 109", "borough": "FARMINGDALE", "state": "NY" }, "geometry": { "type": "Point", "coordinates": [ -73.417811, 40.720422 ] } },
{ "type": "Feature", "properties": { "ZIP": "07866", "address": "301 MOUNT HOPE AVE STE 2103", "borough": "ROCKAWAY", "state": "NJ" }, "geometry": { "type": "Point", "coordinates": [ -74.5520452, 40.903535 ] } },
{ "type": "Feature", "properties": { "ZIP": "11746", "address": "205 W. JERICHO TURNPIKE", "borough": "HUNTINGTON STATION", "state": "NY" }, "geometry": { "type": "Point", "coordinates": [ -73.416918, 40.828955 ] } },
{ "type": "Feature", "properties": { "ZIP": "07712", "address": "1502 ROUTE 35 SOUTH", "borough": "OCEAN", "state": "NJ" }, "geometry": { "type": "Point", "coordinates": [ -74.039199, 40.248272 ] } },
{ "type": "Feature", "properties": { "ZIP": "11726", "address": "1255 SUNRISE HIGHWAY", "borough": "COPIAGUE", "state": "NY" }, "geometry": { "type": "Point", "coordinates": [ -73.395549, 40.692596 ] } },
{ "type": "Feature", "properties": { "ZIP": "11726", "address": "820 MONTAUK HIGHWAY", "borough": "COPIAGUE", "state": "NY" }, "geometry": { "type": "Point", "coordinates": [ -73.394952, 40.668437 ] } },
{ "type": "Feature", "properties": { "ZIP": "07726", "address": "197 US HIGHWAY 9", "borough": "ENGLISHTOWN", "state": "NJ" }, "geometry": { "type": "Point", "coordinates": [ -74.3041, 40.301395 ] } },
{ "type": "Feature", "properties": { "ZIP": "08807", "address": "977 RT 22 EAST", "borough": "BRIDGEWATER", "state": "NJ" }, "geometry": { "type": "Point", "coordinates": [ -74.607218, 40.579901 ] } },
{ "type": "Feature", "properties": { "ZIP": "10993", "address": "125 RT. 9 WEST", "borough": "W.HAVERSTRAW", "state": "NY" }, "geometry": { "type": "Point", "coordinates": [ -73.983988, 41.200841 ] } },
{ "type": "Feature", "properties": { "ZIP": "08852", "address": "3800 US HIGHWAY 1", "borough": "MONMOUTH JUNCTION", "state": "NJ" }, "geometry": { "type": "Point", "coordinates": [ -74.527272, 40.42174 ] } },
{ "type": "Feature", "properties": { "ZIP": "11743", "address": "1210 E JERICHO TPKE", "borough": "HUNTINGTON", "state": "NY" }, "geometry": { "type": "Point", "coordinates": [ -73.363003, 40.83266 ] } },
{ "type": "Feature", "properties": { "ZIP": "11704", "address": "625 W MONTAUK HWY", "borough": "W.BABYLON", "state": "NY" }, "geometry": { "type": "Point", "coordinates": [ -73.344952, 40.686098 ] } },
{ "type": "Feature", "properties": { "ZIP": "08844", "address": "256 ROUTE 206", "borough": "HILLSBOROUGH", "state": "NJ" }, "geometry": { "type": "Point", "coordinates": [ -74.628485, 40.524255 ] } },
{ "type": "Feature", "properties": { "ZIP": "07728", "address": "3647 ROUTE 9", "borough": "FREEHOLD", "state": "NJ" }, "geometry": { "type": "Point", "coordinates": [ -74.300016, 40.253528 ] } },
{ "type": "Feature", "properties": { "ZIP": "07849", "address": "728 ROUTE 15 S", "borough": "LAKE HOPATCONG", "state": "NJ" }, "geometry": { "type": "Point", "coordinates": [ -74.597622, 40.95835 ] } },
{ "type": "Feature", "properties": { "ZIP": "07728", "address": "3710 ROUTE 9", "borough": "FREEHOLD", "state": "NJ" }, "geometry": { "type": "Point", "coordinates": [ -74.300653, 40.253512 ] } },
{ "type": "Feature", "properties": { "ZIP": "07852", "address": "301 STATE ROUTE 10", "borough": "LEDGEWOOD", "state": "NJ" }, "geometry": { "type": "Point", "coordinates": [ -74.648792, 40.873989 ] } },
{ "type": "Feature", "properties": { "ZIP": "11703", "address": "1234 DEER PARK AVE.", "borough": "N.BABYLON", "state": "NY" }, "geometry": { "type": "Point", "coordinates": [ -73.320696, 40.737275 ] } },
{ "type": "Feature", "properties": { "ZIP": "08512", "address": "2533 US-130", "borough": "CRANBURY", "state": "NJ" }, "geometry": { "type": "Point", "coordinates": [ -74.501205, 40.342819 ] } },
{ "type": "Feature", "properties": { "ZIP": "07930", "address": "35 U.S. HWY 206 S.", "borough": "CHESTER", "state": "NJ" }, "geometry": { "type": "Point", "coordinates": [ -74.698245, 40.782708 ] } },
{ "type": "Feature", "properties": { "ZIP": "08876", "address": "3190 ROUTE 22 WEST", "borough": "BRANCHBURG", "state": "NJ" }, "geometry": { "type": "Point", "coordinates": [ -74.692445, 40.603967 ] } },
{ "type": "Feature", "properties": { "ZIP": "11731", "address": "280 LARKFIELD ROAD", "borough": "E.NORTHPORT", "state": "NY" }, "geometry": { "type": "Point", "coordinates": [ -73.32454, 40.874424 ] } },
{ "type": "Feature", "properties": { "ZIP": "07836", "address": "50 INTERNATIONAL DRIVE SOUTH SUITE G", "borough": "FLANDERS", "state": "NJ" }, "geometry": { "type": "Point", "coordinates": [ -74.707256, 40.882127 ] } },
{ "type": "Feature", "properties": { "ZIP": "07719", "address": "1407 ALLAIRE  RD", "borough": "WALL TWP", "state": "NJ" }, "geometry": { "type": "Point", "coordinates": [ -74.056397, 40.153749 ] } },
{ "type": "Feature", "properties": { "ZIP": "11725", "address": "2180 JERICHO TURNPIKE", "borough": "COMMACK", "state": "NY" }, "geometry": { "type": "Point", "coordinates": [ -73.286285, 40.842674 ] } },
{ "type": "Feature", "properties": { "ZIP": "11717", "address": "37 WICKS ROAD", "borough": "BRENTWOOD", "state": "NY" }, "geometry": { "type": "Point", "coordinates": [ -73.260148, 40.779403 ] } },
{ "type": "Feature", "properties": { "ZIP": "06854", "address": "496 CONNECTICUT AVE.", "borough": "NORWALK", "state": "CT" }, "geometry": { "type": "Point", "coordinates": [ -73.44247, 41.099394 ] } },
{ "type": "Feature", "properties": { "ZIP": "11788", "address": "350A MOTOR PARKWAY", "borough": "HAUPPAUGE", "state": "NY" }, "geometry": { "type": "Point", "coordinates": [ -73.245052, 40.807913 ] } },
{ "type": "Feature", "properties": { "ZIP": "07416", "address": "180 ROUTE 23", "borough": "FRANKLIN", "state": "NJ" }, "geometry": { "type": "Point", "coordinates": [ -74.580254, 41.113691 ] } },
{ "type": "Feature", "properties": { "ZIP": "07731", "address": "4510 U.S. 9", "borough": "HOWELL", "state": "NJ" }, "geometry": { "type": "Point", "coordinates": [ -74.225877, 40.142059 ] } },
{ "type": "Feature", "properties": { "ZIP": "11751", "address": "168 MAIN STREET", "borough": "ISLIP", "state": "NY" }, "geometry": { "type": "Point", "coordinates": [ -73.222899, 40.727873 ] } },
{ "type": "Feature", "properties": { "ZIP": "10567", "address": "2929 E MAIN ST", "borough": "CORTLANDT MANOR", "state": "NY" }, "geometry": { "type": "Point", "coordinates": [ -73.876516, 41.306475 ] } },
{ "type": "Feature", "properties": { "ZIP": "06850", "address": "67 NEW CANAAN AVE", "borough": "NORWALK", "state": "CT" }, "geometry": { "type": "Point", "coordinates": [ -73.430421, 41.126514 ] } },
{ "type": "Feature", "properties": { "ZIP": "08520", "address": "485 ROUTE 130", "borough": "E.WINDSOR", "state": "NJ" }, "geometry": { "type": "Point", "coordinates": [ -74.541249, 40.269107 ] } },
{ "type": "Feature", "properties": { "ZIP": "10950", "address": "330 LARKIN DR", "borough": "MONROE", "state": "NY" }, "geometry": { "type": "Point", "coordinates": [ -74.146399, 41.318709 ] } },
{ "type": "Feature", "properties": { "ZIP": "06851", "address": "149 WESTPORT AVENUE", "borough": "NORWALK", "state": "CT" }, "geometry": { "type": "Point", "coordinates": [ -73.400861, 41.123748 ] } },
{ "type": "Feature", "properties": { "ZIP": "11788", "address": "527 ROUTE 111", "borough": "HAUPPAUGE", "state": "NY" }, "geometry": { "type": "Point", "coordinates": [ -73.200158, 40.827689 ] } },
{ "type": "Feature", "properties": { "ZIP": "07840", "address": "219 MOUNTAIN AVE", "borough": "HACKETTSTOWN", "state": "NJ" }, "geometry": { "type": "Point", "coordinates": [ -74.82294, 40.838229 ] } },
{ "type": "Feature", "properties": { "ZIP": "08742", "address": "3150 ROUTE 88", "borough": "POINT PLEASANT", "state": "NJ" }, "geometry": { "type": "Point", "coordinates": [ -74.085954, 40.079372 ] } },
{ "type": "Feature", "properties": { "ZIP": "08540", "address": "3477 BRUNSWICK PIKE", "borough": "PRINCETON", "state": "NJ" }, "geometry": { "type": "Point", "coordinates": [ -74.665869, 40.30914 ] } },
{ "type": "Feature", "properties": { "ZIP": "08724", "address": "101 JACK MARTIN BLVD", "borough": "BRICK", "state": "NJ" }, "geometry": { "type": "Point", "coordinates": [ -74.123478, 40.074272 ] } },
{ "type": "Feature", "properties": { "ZIP": "11780", "address": "570 MIDDLE COUNTRY RD", "borough": "ST.JAMES", "state": "NY" }, "geometry": { "type": "Point", "coordinates": [ -73.160096, 40.85964 ] } },
{ "type": "Feature", "properties": { "ZIP": "08723", "address": "555 ROUTE 70 EAST", "borough": "BRICK", "state": "NJ" }, "geometry": { "type": "Point", "coordinates": [ -74.147831, 40.057079 ] } },
{ "type": "Feature", "properties": { "ZIP": "11769", "address": "885 MONTAUK HIGHWAY", "borough": "OAKDALE", "state": "NY" }, "geometry": { "type": "Point", "coordinates": [ -73.119598, 40.737574 ] } },
{ "type": "Feature", "properties": { "ZIP": "10918", "address": "78 BROOKSIDE AVE STE 102", "borough": "CHESTER", "state": "NY" }, "geometry": { "type": "Point", "coordinates": [ -74.28398, 41.357844 ] } },
{ "type": "Feature", "properties": { "ZIP": "08822", "address": "9 STATE ROUTE 31", "borough": "FLEMINGTON", "state": "NJ" }, "geometry": { "type": "Point", "coordinates": [ -74.853794, 40.504184 ] } },
{ "type": "Feature", "properties": { "ZIP": "11755", "address": "334 SMITH HAVEN MALL", "borough": "LAKE GROVE", "state": "NY" }, "geometry": { "type": "Point", "coordinates": [ -73.129638, 40.865177 ] } },
{ "type": "Feature", "properties": { "ZIP": "08690", "address": "1001 ROUTE 33", "borough": "HAMILTON", "state": "NJ" }, "geometry": { "type": "Point", "coordinates": [ -74.667772, 40.228489 ] } },
{ "type": "Feature", "properties": { "ZIP": "08755", "address": "232 ROUTE 70", "borough": "TOMS RIVER", "state": "NJ" }, "geometry": { "type": "Point", "coordinates": [ -74.243792, 40.035964 ] } },
{ "type": "Feature", "properties": { "ZIP": "08691", "address": "760 ROUTE 130", "borough": "HAMILTON", "state": "NJ" }, "geometry": { "type": "Point", "coordinates": [ -74.643838, 40.196367 ] } },
{ "type": "Feature", "properties": { "ZIP": "11720", "address": "2278 MIDDLE COUNTRY ROAD", "borough": "CENTEREACH", "state": "NY" }, "geometry": { "type": "Point", "coordinates": [ -73.09115, 40.857916 ] } },
{ "type": "Feature", "properties": { "ZIP": "11742", "address": "175 MORRIS AVENUE", "borough": "HOLTSVILLE", "state": "NY" }, "geometry": { "type": "Point", "coordinates": [ -73.057961, 40.818529 ] } },
{ "type": "Feature", "properties": { "ZIP": "08638", "address": "1730 N. OLDEN AVE.", "borough": "TRENTON", "state": "NJ" }, "geometry": { "type": "Point", "coordinates": [ -74.767556, 40.248126 ] } },
{ "type": "Feature", "properties": { "ZIP": "12584", "address": "408 WINDSOR HWY", "borough": "VAILS GATE", "state": "NY" }, "geometry": { "type": "Point", "coordinates": [ -74.0569, 41.455967 ] } },
{ "type": "Feature", "properties": { "ZIP": "11772", "address": "460 SUNRISE HIGHWAY", "borough": "PATCHOGUE", "state": "NY" }, "geometry": { "type": "Point", "coordinates": [ -73.031943, 40.776325 ] } },
{ "type": "Feature", "properties": { "ZIP": "10512", "address": "1894 ROUTE 6", "borough": "CARMEL", "state": "NY" }, "geometry": { "type": "Point", "coordinates": [ -73.668654, 41.414069 ] } },
{ "type": "Feature", "properties": { "ZIP": "06605", "address": "2162 FAIRFIELD AVENUE", "borough": "BRIDGEPORT", "state": "CT" }, "geometry": { "type": "Point", "coordinates": [ -73.219536, 41.164944 ] } },
{ "type": "Feature", "properties": { "ZIP": "08610", "address": "2485 SOUTH BROAD STREET", "borough": "HAMILTON", "state": "NJ" }, "geometry": { "type": "Point", "coordinates": [ -74.718288, 40.193191 ] } },
{ "type": "Feature", "properties": { "ZIP": "11776", "address": "4955 NESCONSET HWY.", "borough": "PORT JEFFERSON STATION", "state": "NY" }, "geometry": { "type": "Point", "coordinates": [ -73.049737, 40.922082 ] } },
{ "type": "Feature", "properties": { "ZIP": "08755", "address": "51 BANANIER DRIVE", "borough": "TOMS RIVER", "state": "NJ" }, "geometry": { "type": "Point", "coordinates": [ -74.247113, 39.976898 ] } },
{ "type": "Feature", "properties": { "ZIP": "11784", "address": "259 MIDDLE COUNTRY ROAD", "borough": "SELDEN", "state": "NY" }, "geometry": { "type": "Point", "coordinates": [ -73.025264, 40.868163 ] } },
{ "type": "Feature", "properties": { "ZIP": "08753", "address": "444 RT. 37 EAST", "borough": "TOMS RIVER", "state": "NJ" }, "geometry": { "type": "Point", "coordinates": [ -74.164412, 39.955632 ] } },
{ "type": "Feature", "properties": { "ZIP": "11763", "address": "1820 RT. 112", "borough": "MEDFORD", "state": "NY" }, "geometry": { "type": "Point", "coordinates": [ -73.004888, 40.80232 ] } },
{ "type": "Feature", "properties": { "ZIP": "10940", "address": "172-176 DOLSON AVENUE", "borough": "MIDDLETOWN", "state": "NY" }, "geometry": { "type": "Point", "coordinates": [ -74.426863, 41.427819 ] } },
{ "type": "Feature", "properties": { "ZIP": "10941", "address": "33 CRYSTAL RUN ROAD", "borough": "MIDDLETOWN", "state": "NY" }, "geometry": { "type": "Point", "coordinates": [ -74.366693, 41.453423 ] } },
{ "type": "Feature", "properties": { "ZIP": "19067", "address": "227 PLAZA BLVD.", "borough": "MORRISVILLE", "state": "PA" }, "geometry": { "type": "Point", "coordinates": [ -74.802664, 40.206934 ] } },
{ "type": "Feature", "properties": { "ZIP": "10940", "address": "441 ROUTE 211 E", "borough": "MIDDLETOWN", "state": "NY" }, "geometry": { "type": "Point", "coordinates": [ -74.3785, 41.459 ] } },
{ "type": "Feature", "properties": { "ZIP": "08505", "address": "2008 ROUTE 206 SOUTH", "borough": "BORDENTOWN", "state": "NJ" }, "geometry": { "type": "Point", "coordinates": [ -74.707588, 40.120007 ] } },
{ "type": "Feature", "properties": { "ZIP": "11764", "address": "380 ROUTE 25A", "borough": "MILLER PLACE", "state": "NY" }, "geometry": { "type": "Point", "coordinates": [ -72.986555, 40.941434 ] } },
{ "type": "Feature", "properties": { "ZIP": "12550", "address": "1417 ROUTE 300", "borough": "NEWBURGH", "state": "NY" }, "geometry": { "type": "Point", "coordinates": [ -74.070874, 41.520918 ] } },
{ "type": "Feature", "properties": { "ZIP": "06615", "address": "1105 MAIN STREET", "borough": "STRATFORD", "state": "CT" }, "geometry": { "type": "Point", "coordinates": [ -73.130265, 41.175649 ] } },
{ "type": "Feature", "properties": { "ZIP": "08759", "address": "450 LACEY ROAD", "borough": "WHITING", "state": "NJ" }, "geometry": { "type": "Point", "coordinates": [ -74.390042, 39.957048 ] } },
{ "type": "Feature", "properties": { "ZIP": "08562", "address": "102 FT DIX ST", "borough": "WRIGHTSTOWN", "state": "NJ" }, "geometry": { "type": "Point", "coordinates": [ -74.618334, 40.03599 ] } },
{ "type": "Feature", "properties": { "ZIP": "12524", "address": "25 ELM STREET", "borough": "FISHKILL", "state": "NY" }, "geometry": { "type": "Point", "coordinates": [ -73.898861, 41.534368 ] } },
{ "type": "Feature", "properties": { "ZIP": "18336", "address": "103 HULST DR", "borough": "MATAMORAS", "state": "PA" }, "geometry": { "type": "Point", "coordinates": [ -74.723614, 41.35359 ] } },
{ "type": "Feature", "properties": { "ZIP": "06804", "address": "36 FEDERAL ROAD", "borough": "BROOKFIELD", "state": "CT" }, "geometry": { "type": "Point", "coordinates": [ -73.413766, 41.432563 ] } },
{ "type": "Feature", "properties": { "ZIP": "19057", "address": "1151 OXFORD VALLEY ROAD", "borough": "LEVITTOWN", "state": "PA" }, "geometry": { "type": "Point", "coordinates": [ -74.874043, 40.166334 ] } },
{ "type": "Feature", "properties": { "ZIP": "06460", "address": "718 BRIDGEPORT AVENUE", "borough": "MILFORD", "state": "CT" }, "geometry": { "type": "Point", "coordinates": [ -73.082774, 41.210482 ] } },
{ "type": "Feature", "properties": { "ZIP": "18940", "address": "2000 S. EAGLE ROAD", "borough": "NEWTOWN", "state": "PA" }, "geometry": { "type": "Point", "coordinates": [ -74.940725, 40.229606 ] } },
{ "type": "Feature", "properties": { "ZIP": "19056", "address": "1419 E. LINCOLN HIGHWAY", "borough": "LEVITTOWN", "state": "PA" }, "geometry": { "type": "Point", "coordinates": [ -74.892946, 40.169864 ] } },
{ "type": "Feature", "properties": { "ZIP": "11967", "address": "555 WILLIAM FLOYD PKWY", "borough": "SHIRLEY", "state": "NY" }, "geometry": { "type": "Point", "coordinates": [ -72.866036, 40.800561 ] } },
{ "type": "Feature", "properties": { "ZIP": "08734", "address": "301 ROUTE 9", "borough": "LANOKA HARBOR", "state": "NJ" }, "geometry": { "type": "Point", "coordinates": [ -74.184312, 39.848316 ] } },
{ "type": "Feature", "properties": { "ZIP": "12590", "address": "1601 ROUTE 9", "borough": "WAPPINGERS FALLS", "state": "NY" }, "geometry": { "type": "Point", "coordinates": [ -73.911852, 41.598115 ] } },
{ "type": "Feature", "properties": { "ZIP": "06484", "address": "484 BRIDGEPORT AVE", "borough": "SHELTON", "state": "CT" }, "geometry": { "type": "Point", "coordinates": [ -73.112125, 41.289127 ] } },
{ "type": "Feature", "properties": { "ZIP": "18302", "address": "4500 MILFORD ROAD", "borough": "E.STROUDSBURG", "state": "PA" }, "geometry": { "type": "Point", "coordinates": [ -75.111095, 41.048681 ] } },
{ "type": "Feature", "properties": { "ZIP": "06460", "address": "433 OLD GATE LANE", "borough": "MILFORD", "state": "CT" }, "geometry": { "type": "Point", "coordinates": [ -73.022118, 41.236813 ] } },
{ "type": "Feature", "properties": { "ZIP": "12601", "address": "2001 SOUTH ROAD", "borough": "POUGHKEEPSIE", "state": "NY" }, "geometry": { "type": "Point", "coordinates": [ -73.921111, 41.625789 ] } },
{ "type": "Feature", "properties": { "ZIP": "11934", "address": "774 MONTAUK HIGHWAY", "borough": "CENTER MORICHES", "state": "NY" }, "geometry": { "type": "Point", "coordinates": [ -72.808872, 40.802635 ] } },
{ "type": "Feature", "properties": { "ZIP": "08016", "address": "2103 MOUNT HOLLY RD #A", "borough": "BURLINGTON", "state": "NJ" }, "geometry": { "type": "Point", "coordinates": [ -74.838738, 40.049709 ] } },
{ "type": "Feature", "properties": { "ZIP": "19053", "address": "3413 HORIZON BLVD", "borough": "TREVOSE", "state": "PA" }, "geometry": { "type": "Point", "coordinates": [ -74.965665, 40.135541 ] } },
{ "type": "Feature", "properties": { "ZIP": "06418", "address": "709 NEW HAVEN AVENUE", "borough": "DERBY", "state": "CT" }, "geometry": { "type": "Point", "coordinates": [ -73.054683, 41.312301 ] } },
{ "type": "Feature", "properties": { "ZIP": "18301", "address": "612 N. COURTLAND", "borough": "E.STROUDSBURG", "state": "PA" }, "geometry": { "type": "Point", "coordinates": [ -75.182688, 41.015849 ] } },
{ "type": "Feature", "properties": { "ZIP": "18901", "address": "400 N. MAIN STREET", "borough": "DOYLESTOWN", "state": "PA" }, "geometry": { "type": "Point", "coordinates": [ -75.131091, 40.319397 ] } },
{ "type": "Feature", "properties": { "ZIP": "19020", "address": "2041 STREET RD.", "borough": "BENSALEM", "state": "PA" }, "geometry": { "type": "Point", "coordinates": [ -74.946739, 40.09885 ] } },
{ "type": "Feature", "properties": { "ZIP": "18042", "address": "204 S WOOD AVE", "borough": "EASTON", "state": "PA" }, "geometry": { "type": "Point", "coordinates": [ -75.249871, 40.686635 ] } },
{ "type": "Feature", "properties": { "ZIP": "08016", "address": "4361 U.S. RT. 130 SOUTH", "borough": "BURLINGTON", "state": "NJ" }, "geometry": { "type": "Point", "coordinates": [ -74.894135, 40.053303 ] } },
{ "type": "Feature", "properties": { "ZIP": "12601", "address": "2596 SOUTH ROAD", "borough": "POUGHKEEPSIE", "state": "NY" }, "geometry": { "type": "Point", "coordinates": [ -73.929145, 41.667214 ] } },
{ "type": "Feature", "properties": { "ZIP": "06477", "address": "15 BOSTON POST ROAD", "borough": "ORANGE", "state": "CT" }, "geometry": { "type": "Point", "coordinates": [ -72.984836, 41.280627 ] } },
{ "type": "Feature", "properties": { "ZIP": "18360", "address": "1133 N. 9TH STREET", "borough": "STROUDSBURG", "state": "PA" }, "geometry": { "type": "Point", "coordinates": [ -75.220415, 40.988211 ] } },
{ "type": "Feature", "properties": { "ZIP": "18966", "address": "295 SOUTH 2ND STREET PIKE", "borough": "SOUTHAMPTON", "state": "PA" }, "geometry": { "type": "Point", "coordinates": [ -75.04477, 40.16732 ] } },
{ "type": "Feature", "properties": { "ZIP": "19114", "address": "3200 RED LION RD FRNT 5", "borough": "PHILADELPHIA", "state": "PA" }, "geometry": { "type": "Point", "coordinates": [ -74.993743, 40.080923 ] } },
{ "type": "Feature", "properties": { "ZIP": "19154", "address": "399 FRANKLIN MILLS BLVD", "borough": "PHILADELPHIA", "state": "PA" }, "geometry": { "type": "Point", "coordinates": [ -74.965174, 40.054063 ] } },
{ "type": "Feature", "properties": { "ZIP": "12603", "address": "753 MAIN STREET", "borough": "POUGHKEEPSIE", "state": "NY" }, "geometry": { "type": "Point", "coordinates": [ -73.904175, 41.697161 ] } },
{ "type": "Feature", "properties": { "ZIP": "18091", "address": "6696 SULLIVAN TRAIL", "borough": "WIND GAP", "state": "PA" }, "geometry": { "type": "Point", "coordinates": [ -75.296724, 40.834708 ] } },
{ "type": "Feature", "properties": { "ZIP": "19115", "address": "2100 RED LION ROAD", "borough": "PHILADELPHIA", "state": "PA" }, "geometry": { "type": "Point", "coordinates": [ -75.018044, 40.096687 ] } },
{ "type": "Feature", "properties": { "ZIP": "18976", "address": "620 EASTON ROAD", "borough": "WARRINGTON", "state": "PA" }, "geometry": { "type": "Point", "coordinates": [ -75.138444, 40.232253 ] } },
{ "type": "Feature", "properties": { "ZIP": "08075", "address": "5011 ROUTE 130 S.", "borough": "DELRAN", "state": "NJ" }, "geometry": { "type": "Point", "coordinates": [ -74.95418, 40.01665 ] } },
{ "type": "Feature", "properties": { "ZIP": "19044", "address": "415 EASTON RD.", "borough": "HORSHAM", "state": "PA" }, "geometry": { "type": "Point", "coordinates": [ -75.130831, 40.180106 ] } },
{ "type": "Feature", "properties": { "ZIP": "08054", "address": "74 CENTERTON ROAD", "borough": "MT.LAUREL", "state": "NJ" }, "geometry": { "type": "Point", "coordinates": [ -74.909582, 39.972226 ] } },
{ "type": "Feature", "properties": { "ZIP": "18017", "address": "2190 STEFKO BOULEVARD", "borough": "BETHLEHEM", "state": "PA" }, "geometry": { "type": "Point", "coordinates": [ -75.344941, 40.644099 ] } },
{ "type": "Feature", "properties": { "ZIP": "18015", "address": "1160 HELLERTOWN ROAD", "borough": "BETHLEHEM", "state": "PA" }, "geometry": { "type": "Point", "coordinates": [ -75.340911, 40.597494 ] } },
{ "type": "Feature", "properties": { "ZIP": "06512", "address": "65 N. FRONTAGE ROAD", "borough": "E.HAVEN", "state": "CT" }, "geometry": { "type": "Point", "coordinates": [ -72.878663, 41.286598 ] } },
{ "type": "Feature", "properties": { "ZIP": "08050", "address": "356 ROUTE 72 WEST", "borough": "MANAHAWKIN", "state": "NJ" }, "geometry": { "type": "Point", "coordinates": [ -74.268949, 39.701373 ] } },
{ "type": "Feature", "properties": { "ZIP": "11901", "address": "1165 RT 58", "borough": "RIVERHEAD", "state": "NY" }, "geometry": { "type": "Point", "coordinates": [ -72.679318, 40.93024 ] } },
{ "type": "Feature", "properties": { "ZIP": "19006", "address": "733 HUNTINGDON PIKE", "borough": "HUNTINGDON VALLEY", "state": "PA" }, "geometry": { "type": "Point", "coordinates": [ -75.093164, 40.086311 ] } },
{ "type": "Feature", "properties": { "ZIP": "18372", "address": "2789 ROUTE 611", "borough": "TANNERSVILLE", "state": "PA" }, "geometry": { "type": "Point", "coordinates": [ -75.30906, 41.04494 ] } },
{ "type": "Feature", "properties": { "ZIP": "19149", "address": "2301 COTTMAN AVENUE", "borough": "PHILADELPHIA", "state": "PA" }, "geometry": { "type": "Point", "coordinates": [ -75.059425, 40.047869 ] } },
{ "type": "Feature", "properties": { "ZIP": "19111", "address": "901 COTTMAN AVENUE", "borough": "PHILADELPHIA", "state": "PA" }, "geometry": { "type": "Point", "coordinates": [ -75.084735, 40.062405 ] } },
{ "type": "Feature", "properties": { "ZIP": "18015", "address": "308 BROADWAY STREET", "borough": "BETHLEHEM", "state": "PA" }, "geometry": { "type": "Point", "coordinates": [ -75.382746, 40.60998 ] } },
{ "type": "Feature", "properties": { "ZIP": "06405", "address": "1016 W. MAIN ST", "borough": "BRANFORD", "state": "CT" }, "geometry": { "type": "Point", "coordinates": [ -72.832554, 41.274872 ] } },
{ "type": "Feature", "properties": { "ZIP": "19025", "address": "1710 LIMEKILN PIKE", "borough": "DRESHER", "state": "PA" }, "geometry": { "type": "Point", "coordinates": [ -75.166376, 40.141265 ] } },
{ "type": "Feature", "properties": { "ZIP": "06514", "address": "2195 DIXWELL AVENUE", "borough": "HAMDEN", "state": "CT" }, "geometry": { "type": "Point", "coordinates": [ -72.917631, 41.370089 ] } },
{ "type": "Feature", "properties": { "ZIP": "19454", "address": "28 AIRPORT SQ", "borough": "N.WALES", "state": "PA" }, "geometry": { "type": "Point", "coordinates": [ -75.241319, 40.23781 ] } },
{ "type": "Feature", "properties": { "ZIP": "08054", "address": "1240 NIXON DRIVE", "borough": "MT.LAUREL", "state": "NJ" }, "geometry": { "type": "Point", "coordinates": [ -74.963267, 39.939578 ] } },
{ "type": "Feature", "properties": { "ZIP": "18951", "address": "10 S WEST END BLVD.", "borough": "QUAKERTOWN", "state": "PA" }, "geometry": { "type": "Point", "coordinates": [ -75.358405, 40.443291 ] } },
{ "type": "Feature", "properties": { "ZIP": "18964", "address": "752 ROUTE 113", "borough": "SOUDERTON", "state": "PA" }, "geometry": { "type": "Point", "coordinates": [ -75.305834, 40.32022 ] } },
{ "type": "Feature", "properties": { "ZIP": "08054", "address": "1140 ROUTE 73", "borough": "MT.LAUREL", "state": "NJ" }, "geometry": { "type": "Point", "coordinates": [ -74.952251, 39.92517 ] } },
{ "type": "Feature", "properties": { "ZIP": "12701", "address": "17-25 PLEASANT ST", "borough": "MONTICELLO", "state": "NY" }, "geometry": { "type": "Point", "coordinates": [ -74.682005, 41.6553 ] } },
{ "type": "Feature", "properties": { "ZIP": "06473", "address": "160 UNIVERSAL DRIVE NORTH", "borough": "N.HAVEN", "state": "CT" }, "geometry": { "type": "Point", "coordinates": [ -72.871132, 41.353437 ] } },
{ "type": "Feature", "properties": { "ZIP": "19120", "address": "501 ADAMS AVE", "borough": "PHILADELPHIA", "state": "PA" }, "geometry": { "type": "Point", "coordinates": [ -75.109151, 40.038374 ] } },
{ "type": "Feature", "properties": { "ZIP": "19150", "address": "2385 CHELTENHAM AVENUE", "borough": "PHILADELPHIA", "state": "PA" }, "geometry": { "type": "Point", "coordinates": [ -75.156961, 40.073904 ] } },
{ "type": "Feature", "properties": { "ZIP": "08110", "address": "7321 NORTH CRESCENT BLVD.", "borough": "PENNSAUKEN", "state": "NJ" }, "geometry": { "type": "Point", "coordinates": [ -75.044986, 39.969369 ] } },
{ "type": "Feature", "properties": { "ZIP": "08002", "address": "2400 CHURCH RD", "borough": "CHERRY HILL", "state": "NJ" }, "geometry": { "type": "Point", "coordinates": [ -75.009176, 39.939612 ] } },
{ "type": "Feature", "properties": { "ZIP": "19446", "address": "600 SOUTH BROAD STREET", "borough": "LANSDALE", "state": "PA" }, "geometry": { "type": "Point", "coordinates": [ -75.290602, 40.235091 ] } },
{ "type": "Feature", "properties": { "ZIP": "19141", "address": "6001 N. BROAD ST.", "borough": "PHILADELPHIA", "state": "PA" }, "geometry": { "type": "Point", "coordinates": [ -75.143025, 40.04469 ] } },
{ "type": "Feature", "properties": { "ZIP": "18101", "address": "757 UNION BLVD", "borough": "ALLENTOWN", "state": "PA" }, "geometry": { "type": "Point", "coordinates": [ -75.44528, 40.624388 ] } },
{ "type": "Feature", "properties": { "ZIP": "19124", "address": "700 E. HUNTING PARK", "borough": "PHILADELPHIA", "state": "PA" }, "geometry": { "type": "Point", "coordinates": [ -75.11291, 40.01165 ] } },
{ "type": "Feature", "properties": { "ZIP": "19134", "address": "3600 ARAMINGO AVENUE", "borough": "PHILADELPHIA", "state": "PA" }, "geometry": { "type": "Point", "coordinates": [ -75.096963, 39.993587 ] } },
{ "type": "Feature", "properties": { "ZIP": "19446", "address": "1758 ALLENTOWN ROAD", "borough": "LANSDALE", "state": "PA" }, "geometry": { "type": "Point", "coordinates": [ -75.32551, 40.25903 ] } },
{ "type": "Feature", "properties": { "ZIP": "18344", "address": "ROUTE 611", "borough": "MT.POCONO", "state": "PA" }, "geometry": { "type": "Point", "coordinates": [ -75.36141, 41.1283 ] } },
{ "type": "Feature", "properties": { "ZIP": "18103", "address": "1980 S 4TH ST", "borough": "ALLENTOWN", "state": "PA" }, "geometry": { "type": "Point", "coordinates": [ -75.454742, 40.5781 ] } },
{ "type": "Feature", "properties": { "ZIP": "06702", "address": "167 THOMASTON AVENUE", "borough": "WATERBURY", "state": "CT" }, "geometry": { "type": "Point", "coordinates": [ -73.053935, 41.561111 ] } },
{ "type": "Feature", "properties": { "ZIP": "19144", "address": "5534 WAYNE AVENUE", "borough": "PHILADELPHIA", "state": "PA" }, "geometry": { "type": "Point", "coordinates": [ -75.178158, 40.030966 ] } },
{ "type": "Feature", "properties": { "ZIP": "08109", "address": "5300 MARLTON PIKE", "borough": "PENNSAUKEN", "state": "NJ" }, "geometry": { "type": "Point", "coordinates": [ -75.067278, 39.932655 ] } },
{ "type": "Feature", "properties": { "ZIP": "19133", "address": "2615 NORTH AMERICAN STREET", "borough": "PHILADELPHIA", "state": "PA" }, "geometry": { "type": "Point", "coordinates": [ -75.136001, 39.990669 ] } },
{ "type": "Feature", "properties": { "ZIP": "18052", "address": "1471 MCARTHUR ROAD", "borough": "WHITEHALL", "state": "PA" }, "geometry": { "type": "Point", "coordinates": [ -75.483056, 40.628926 ] } },
{ "type": "Feature", "properties": { "ZIP": "19129", "address": "2940 FOX STREET", "borough": "PHILADELPHIA", "state": "PA" }, "geometry": { "type": "Point", "coordinates": [ -75.17591, 40.0113 ] } },
{ "type": "Feature", "properties": { "ZIP": "08043", "address": "69 ROUTE 73", "borough": "VOORHEES", "state": "NJ" }, "geometry": { "type": "Point", "coordinates": [ -74.92931, 39.82133 ] } },
{ "type": "Feature", "properties": { "ZIP": "06705", "address": "910 WOLCOTT STREET", "borough": "WATERBURY", "state": "CT" }, "geometry": { "type": "Point", "coordinates": [ -73.00763, 41.565546 ] } },
{ "type": "Feature", "properties": { "ZIP": "18103", "address": "3390 LEHIGH STREET", "borough": "ALLENTOWN", "state": "PA" }, "geometry": { "type": "Point", "coordinates": [ -75.491205, 40.553548 ] } },
{ "type": "Feature", "properties": { "ZIP": "08108", "address": "568 W CUTHBERT BLVD", "borough": "HADDON TWP", "state": "NJ" }, "geometry": { "type": "Point", "coordinates": [ -75.061277, 39.904117 ] } },
{ "type": "Feature", "properties": { "ZIP": "08043", "address": "1001 WHITEHORSE ROAD", "borough": "VOORHEES", "state": "NJ" }, "geometry": { "type": "Point", "coordinates": [ -74.987156, 39.849111 ] } },
{ "type": "Feature", "properties": { "ZIP": "19121", "address": "1708 N BROAD ST.", "borough": "PHILADELPHIA", "state": "PA" }, "geometry": { "type": "Point", "coordinates": [ -75.158023, 39.978813 ] } },
{ "type": "Feature", "properties": { "ZIP": "19128", "address": "5901 RIDGE AVENUE", "borough": "PHILADELPHIA", "state": "PA" }, "geometry": { "type": "Point", "coordinates": [ -75.211257, 40.030108 ] } },
{ "type": "Feature", "properties": { "ZIP": "19401", "address": "2815 DEKALB PIKE", "borough": "NORRISTOWN", "state": "PA" }, "geometry": { "type": "Point", "coordinates": [ -75.313595, 40.141449 ] } },
{ "type": "Feature", "properties": { "ZIP": "18049", "address": "1080 CHESTNUT STREET", "borough": "EMMAUS", "state": "PA" }, "geometry": { "type": "Point", "coordinates": [ -75.505675, 40.52871 ] } },
{ "type": "Feature", "properties": { "ZIP": "08045", "address": "310 WHITEHORSE PIKE N", "borough": "LAWNSIDE", "state": "NJ" }, "geometry": { "type": "Point", "coordinates": [ -75.042648, 39.869382 ] } },
{ "type": "Feature", "properties": { "ZIP": "18103", "address": "450 S. CEDAR CREST BLVD", "borough": "ALLENTOWN", "state": "PA" }, "geometry": { "type": "Point", "coordinates": [ -75.522683, 40.581413 ] } },
{ "type": "Feature", "properties": { "ZIP": "19428", "address": "1013 RIDGE PIKE", "borough": "CONSHOHOCKEN", "state": "PA" }, "geometry": { "type": "Point", "coordinates": [ -75.305212, 40.100641 ] } },
{ "type": "Feature", "properties": { "ZIP": "19107", "address": "1101 WALNUT STREET", "borough": "PHILADELPHIA", "state": "PA" }, "geometry": { "type": "Point", "coordinates": [ -75.159151, 39.948838 ] } },
{ "type": "Feature", "properties": { "ZIP": "06437", "address": "570 BOSTON POST RD", "borough": "GUILFORD", "state": "CT" }, "geometry": { "type": "Point", "coordinates": [ -72.667205, 41.288314 ] } },
{ "type": "Feature", "properties": { "ZIP": "19102", "address": "1513 CHESTNUT STREET", "borough": "PHILADELPHIA", "state": "PA" }, "geometry": { "type": "Point", "coordinates": [ -75.165823, 39.951151 ] } },
{ "type": "Feature", "properties": { "ZIP": "19104", "address": "2955 MARKET STREET (AMTRACK 30TH ST STATION)", "borough": "PHILADELPHIA", "state": "PA" }, "geometry": { "type": "Point", "coordinates": [ -75.18201, 39.9557 ] } },
{ "type": "Feature", "properties": { "ZIP": "19148", "address": "2130 S CHRISTOPHER COLUMBUS BLVD", "borough": "PHILADELPHIA", "state": "PA" }, "geometry": { "type": "Point", "coordinates": [ -75.140882, 39.918945 ] } },
{ "type": "Feature", "properties": { "ZIP": "06492", "address": "674 N COLONY RD", "borough": "WALLINGFORD", "state": "CT" }, "geometry": { "type": "Point", "coordinates": [ -72.815318, 41.473018 ] } },
{ "type": "Feature", "properties": { "ZIP": "08031", "address": "300 SOUTH BLACKHORSE PIKE", "borough": "BELLMAWR", "state": "NJ" }, "geometry": { "type": "Point", "coordinates": [ -75.078585, 39.863487 ] } },
{ "type": "Feature", "properties": { "ZIP": "19066", "address": "259 CITY LINE AVE.", "borough": "MERION STATION", "state": "PA" }, "geometry": { "type": "Point", "coordinates": [ -75.237149, 39.996574 ] } },
{ "type": "Feature", "properties": { "ZIP": "19148", "address": "2037 SOUTH BROAD STREET", "borough": "PHILADELPHIA", "state": "PA" }, "geometry": { "type": "Point", "coordinates": [ -75.169424, 39.924505 ] } },
{ "type": "Feature", "properties": { "ZIP": "18104", "address": "4688 BROADWAY STREET", "borough": "ALLENTOWN", "state": "PA" }, "geometry": { "type": "Point", "coordinates": [ -75.560392, 40.588905 ] } },
{ "type": "Feature", "properties": { "ZIP": "08021", "address": "1381 BLACKWOOD CLEMENTON ROAD", "borough": "CLEMENTON", "state": "NJ" }, "geometry": { "type": "Point", "coordinates": [ -75.035698, 39.804043 ] } },
{ "type": "Feature", "properties": { "ZIP": "19145", "address": "2340 OREGON AVE.", "borough": "PHILADELPHIA", "state": "PA" }, "geometry": { "type": "Point", "coordinates": [ -75.188577, 39.919115 ] } },
{ "type": "Feature", "properties": { "ZIP": "19406", "address": "306 SOUTH HENDERSON ROAD", "borough": "KING OF PRUSSIA", "state": "PA" }, "geometry": { "type": "Point", "coordinates": [ -75.360172, 40.091888 ] } },
{ "type": "Feature", "properties": { "ZIP": "08096", "address": "1149 HURFFVILLE ROAD", "borough": "DEPTFORD", "state": "NJ" }, "geometry": { "type": "Point", "coordinates": [ -75.087934, 39.835092 ] } },
{ "type": "Feature", "properties": { "ZIP": "19041", "address": "555 WEST LANCASTER AVE.", "borough": "HAVERFORD", "state": "PA" }, "geometry": { "type": "Point", "coordinates": [ -75.309175, 40.017257 ] } },
{ "type": "Feature", "properties": { "ZIP": "19151", "address": "7700 CITY LINE AVE", "borough": "PHILADELPHIA", "state": "PA" }, "geometry": { "type": "Point", "coordinates": [ -75.272538, 39.978407 ] } },
{ "type": "Feature", "properties": { "ZIP": "19403", "address": "590 SOUTH TROOPER ROAD", "borough": "NORRISTOWN", "state": "PA" }, "geometry": { "type": "Point", "coordinates": [ -75.40262, 40.128862 ] } },
{ "type": "Feature", "properties": { "ZIP": "08081", "address": "500 BERLIN CROSS KEYS ROAD", "borough": "SICKLERVILLE", "state": "NJ" }, "geometry": { "type": "Point", "coordinates": [ -74.984672, 39.752941 ] } },
{ "type": "Feature", "properties": { "ZIP": "19082", "address": "6900 WALNUT STREET", "borough": "UPPER DARBY", "state": "PA" }, "geometry": { "type": "Point", "coordinates": [ -75.258244, 39.956157 ] } },
{ "type": "Feature", "properties": { "ZIP": "18087", "address": "7142 HAMILTON BLVD", "borough": "TREXLERTOWN", "state": "PA" }, "geometry": { "type": "Point", "coordinates": [ -75.596079, 40.550564 ] } },
{ "type": "Feature", "properties": { "ZIP": "08037", "address": "65 S. WHITEHORSE PIKE", "borough": "HAMMONTON", "state": "NJ" }, "geometry": { "type": "Point", "coordinates": [ -74.786319, 39.646549 ] } },
{ "type": "Feature", "properties": { "ZIP": "19426", "address": "201 SECOND AVE", "borough": "COLLEGEVILLE", "state": "PA" }, "geometry": { "type": "Point", "coordinates": [ -75.451873, 40.180871 ] } },
{ "type": "Feature", "properties": { "ZIP": "06450", "address": "865 EAST MAIN STREET", "borough": "MERIDEN", "state": "CT" }, "geometry": { "type": "Point", "coordinates": [ -72.77461, 41.527839 ] } },
{ "type": "Feature", "properties": { "ZIP": "19153", "address": "3000 ISLAND AVE", "borough": "PHILADELPHIA", "state": "PA" }, "geometry": { "type": "Point", "coordinates": [ -75.240458, 39.902577 ] } },
{ "type": "Feature", "properties": { "ZIP": "08012", "address": "5480 ROUTE 42", "borough": "TURNERSVILLE", "state": "NJ" }, "geometry": { "type": "Point", "coordinates": [ -75.0464, 39.756633 ] } },
{ "type": "Feature", "properties": { "ZIP": "19460", "address": "1540 EGYPT ROAD", "borough": "PHOENIXVILLE", "state": "PA" }, "geometry": { "type": "Point", "coordinates": [ -75.451338, 40.133963 ] } },
{ "type": "Feature", "properties": { "ZIP": "18431", "address": "1188 TEXAS PALMYRA HWY", "borough": "HONESDALE", "state": "PA" }, "geometry": { "type": "Point", "coordinates": [ -75.225343, 41.553978 ] } },
{ "type": "Feature", "properties": { "ZIP": "08086", "address": "488 CROWN POINT ROAD", "borough": "THOROFARE", "state": "NJ" }, "geometry": { "type": "Point", "coordinates": [ -75.184979, 39.846405 ] } },
{ "type": "Feature", "properties": { "ZIP": "06489", "address": "328 QUEEN STREET", "borough": "SOUTHINGTON", "state": "CT" }, "geometry": { "type": "Point", "coordinates": [ -72.873504, 41.625452 ] } },
{ "type": "Feature", "properties": { "ZIP": "08097", "address": "704 MANTUA PIKE", "borough": "WOODBURY HTS.", "state": "NJ" }, "geometry": { "type": "Point", "coordinates": [ -75.160134, 39.824476 ] } },
{ "type": "Feature", "properties": { "ZIP": "12401", "address": "1360 ULSTER AVENUE", "borough": "KINGSTON", "state": "NY" }, "geometry": { "type": "Point", "coordinates": [ -73.987585, 41.970849 ] } },
{ "type": "Feature", "properties": { "ZIP": "08081", "address": "2731 ROUTE 42", "borough": "SICKLERVILLE", "state": "NJ" }, "geometry": { "type": "Point", "coordinates": [ -75.024391, 39.72027 ] } },
{ "type": "Feature", "properties": { "ZIP": "19153", "address": "PHILADELPHIA INT. AIRPORT\/B-C CONN", "borough": "PHILADELPHIA", "state": "PA" }, "geometry": { "type": "Point", "coordinates": [ -75.246547, 39.87714 ] } },
{ "type": "Feature", "properties": { "ZIP": "19468", "address": "70 BUCKWALTER ROAD SUITE 1050", "borough": "ROYERSFORD", "state": "PA" }, "geometry": { "type": "Point", "coordinates": [ -75.523563, 40.197392 ] } },
{ "type": "Feature", "properties": { "ZIP": "19036", "address": "132 NORTH MCDADE", "borough": "GLENOLDEN", "state": "PA" }, "geometry": { "type": "Point", "coordinates": [ -75.288516, 39.907278 ] } },
{ "type": "Feature", "properties": { "ZIP": "19333", "address": "180 WEST SWEDESFORD ROAD", "borough": "DEVON", "state": "PA" }, "geometry": { "type": "Point", "coordinates": [ -75.440903, 40.070877 ] } },
{ "type": "Feature", "properties": { "ZIP": "19008", "address": "800 REED RD", "borough": "BROOMALL", "state": "PA" }, "geometry": { "type": "Point", "coordinates": [ -75.35424, 39.958193 ] } },
{ "type": "Feature", "properties": { "ZIP": "08080", "address": "620 WOODBURY-GLASSBORO ROAD", "borough": "MANTUA", "state": "NJ" }, "geometry": { "type": "Point", "coordinates": [ -75.133653, 39.765731 ] } },
{ "type": "Feature", "properties": { "ZIP": "06010", "address": "1247 FARMINGTON AVENUE", "borough": "BRISTOL", "state": "CT" }, "geometry": { "type": "Point", "coordinates": [ -72.902263, 41.698278 ] } },
{ "type": "Feature", "properties": { "ZIP": "06062", "address": "171 NEW BRITAIN AVENUE", "borough": "PLAINVILLE", "state": "CT" }, "geometry": { "type": "Point", "coordinates": [ -72.845048, 41.677735 ] } },
{ "type": "Feature", "properties": { "ZIP": "19033", "address": "310 MCDADE BLVD", "borough": "FOLSOM", "state": "PA" }, "geometry": { "type": "Point", "coordinates": [ -75.327825, 39.888091 ] } },
{ "type": "Feature", "properties": { "ZIP": "06457", "address": "950 WASHINGTON STREET", "borough": "MIDDLETOWN", "state": "CT" }, "geometry": { "type": "Point", "coordinates": [ -72.684419, 41.554103 ] } },
{ "type": "Feature", "properties": { "ZIP": "08028", "address": "685 N. DELSEA DRIVE", "borough": "GLASSBORO", "state": "NJ" }, "geometry": { "type": "Point", "coordinates": [ -75.114498, 39.718729 ] } },
{ "type": "Feature", "properties": { "ZIP": "06790", "address": "220 DIBBLE STREET", "borough": "TORRINGTON", "state": "CT" }, "geometry": { "type": "Point", "coordinates": [ -73.085685, 41.821196 ] } },
{ "type": "Feature", "properties": { "ZIP": "19464", "address": "1585 E HIGH ST", "borough": "POTTSTOWN", "state": "PA" }, "geometry": { "type": "Point", "coordinates": [ -75.612342, 40.244379 ] } },
{ "type": "Feature", "properties": { "ZIP": "19078", "address": "115 STEWART AVENUE", "borough": "RIDLEY", "state": "PA" }, "geometry": { "type": "Point", "coordinates": [ -75.320277, 39.869707 ] } },
{ "type": "Feature", "properties": { "ZIP": "19460", "address": "1075 TOWNSHIP LINE ROAD", "borough": "PHOENIXVILLE", "state": "PA" }, "geometry": { "type": "Point", "coordinates": [ -75.54636, 40.13034 ] } },
{ "type": "Feature", "properties": { "ZIP": "19301", "address": "220 LANCASTER AVE", "borough": "PAOLI", "state": "PA" }, "geometry": { "type": "Point", "coordinates": [ -75.493196, 40.041202 ] } },
{ "type": "Feature", "properties": { "ZIP": "19063", "address": "294 E. BALTIMORE PIKE", "borough": "MEDIA", "state": "PA" }, "geometry": { "type": "Point", "coordinates": [ -75.385062, 39.915826 ] } },
{ "type": "Feature", "properties": { "ZIP": "06416", "address": "209 WEST STREET", "borough": "CROMWELL", "state": "CT" }, "geometry": { "type": "Point", "coordinates": [ -72.680162, 41.60216 ] } },
{ "type": "Feature", "properties": { "ZIP": "19464", "address": "234 SHOEMAKER ROAD", "borough": "POTTSTOWN", "state": "PA" }, "geometry": { "type": "Point", "coordinates": [ -75.660425, 40.253689 ] } },
{ "type": "Feature", "properties": { "ZIP": "19015", "address": "3521 EDGEMONT AVENUE", "borough": "BROOKHAVEN", "state": "PA" }, "geometry": { "type": "Point", "coordinates": [ -75.385013, 39.871186 ] } },
{ "type": "Feature", "properties": { "ZIP": "08234", "address": "6041 BLACK HORSE PIKE", "borough": "EGG HARBOR TWP", "state": "NJ" }, "geometry": { "type": "Point", "coordinates": [ -74.613024, 39.435629 ] } },
{ "type": "Feature", "properties": { "ZIP": "19063", "address": "5150 PENNELL ROAD", "borough": "MEDIA", "state": "PA" }, "geometry": { "type": "Point", "coordinates": [ -75.428508, 39.871109 ] } },
{ "type": "Feature", "properties": { "ZIP": "06032", "address": "331 SOUTH ROAD", "borough": "FARMINGTON", "state": "CT" }, "geometry": { "type": "Point", "coordinates": [ -72.762022, 41.72646 ] } },
{ "type": "Feature", "properties": { "ZIP": "06111", "address": "2384 BERLIN TNPK.", "borough": "NEWINGTON", "state": "CT" }, "geometry": { "type": "Point", "coordinates": [ -72.707112, 41.68649 ] } },
{ "type": "Feature", "properties": { "ZIP": "08225", "address": "798 TILTON RD.", "borough": "NORTHFIELD", "state": "NJ" }, "geometry": { "type": "Point", "coordinates": [ -74.555897, 39.381281 ] } },
{ "type": "Feature", "properties": { "ZIP": "19061", "address": "3100 CHICHESTER AVENUE", "borough": "BOOTHWYN", "state": "PA" }, "geometry": { "type": "Point", "coordinates": [ -75.442029, 39.834571 ] } },
{ "type": "Feature", "properties": { "ZIP": "08085", "address": "320 VILLAGE CENTER DRIVE", "borough": "SWEDESBORO", "state": "NJ" }, "geometry": { "type": "Point", "coordinates": [ -75.356359, 39.75846 ] } },
{ "type": "Feature", "properties": { "ZIP": "06067", "address": "1360 SILAS DEANE HIGHWAY", "borough": "ROCKY HILL", "state": "CT" }, "geometry": { "type": "Point", "coordinates": [ -72.65413, 41.683228 ] } },
{ "type": "Feature", "properties": { "ZIP": "19341", "address": "153 E. SWEDSFORD ROAD", "borough": "EXTON", "state": "PA" }, "geometry": { "type": "Point", "coordinates": [ -75.626546, 40.03438 ] } },
{ "type": "Feature", "properties": { "ZIP": "18512", "address": "1170 ONEILL HIGHWY", "borough": "DUNMORE", "state": "PA" }, "geometry": { "type": "Point", "coordinates": [ -75.619217, 41.435327 ] } },
{ "type": "Feature", "properties": { "ZIP": "19380", "address": "700 EAST GAY STREET", "borough": "W.CHESTER", "state": "PA" }, "geometry": { "type": "Point", "coordinates": [ -75.59482, 39.964985 ] } },
{ "type": "Feature", "properties": { "ZIP": "06106", "address": "306 PROSPECT AVE.", "borough": "HARTFORD", "state": "CT" }, "geometry": { "type": "Point", "coordinates": [ -72.714647, 41.755134 ] } },
{ "type": "Feature", "properties": { "ZIP": "19341", "address": "186 EAGLEVIEW BLVD.", "borough": "EXTON", "state": "PA" }, "geometry": { "type": "Point", "coordinates": [ -75.6645, 40.05321 ] } },
{ "type": "Feature", "properties": { "ZIP": "18509", "address": "944 WYOMING AVENUE", "borough": "SCRANTON", "state": "PA" }, "geometry": { "type": "Point", "coordinates": [ -75.65446, 41.41806 ] } },
{ "type": "Feature", "properties": { "ZIP": "18505", "address": "703 DAVIS STREET", "borough": "SCRANTON", "state": "PA" }, "geometry": { "type": "Point", "coordinates": [ -75.691513, 41.37698 ] } },
{ "type": "Feature", "properties": { "ZIP": "18519", "address": "885 VIEWMONT DR.", "borough": "DICKSON CITY", "state": "PA" }, "geometry": { "type": "Point", "coordinates": [ -75.640339, 41.452798 ] } },
{ "type": "Feature", "properties": { "ZIP": "06114", "address": "90 AIRPORT RD", "borough": "HARTFORD", "state": "CT" }, "geometry": { "type": "Point", "coordinates": [ -72.667107, 41.738432 ] } },
{ "type": "Feature", "properties": { "ZIP": "08360", "address": "190 S. MAIN ROAD", "borough": "VINELAND", "state": "NJ" }, "geometry": { "type": "Point", "coordinates": [ -75.000332, 39.481578 ] } },
{ "type": "Feature", "properties": { "ZIP": "08244", "address": "22 BETHEL ROAD", "borough": "SOMERS POINT", "state": "NJ" }, "geometry": { "type": "Point", "coordinates": [ -74.593986, 39.332077 ] } },
{ "type": "Feature", "properties": { "ZIP": "18640", "address": "417 ROUTE 315 HWY", "borough": "PITTSTON", "state": "PA" }, "geometry": { "type": "Point", "coordinates": [ -75.755222, 41.314136 ] } },
{ "type": "Feature", "properties": { "ZIP": "06118", "address": "303 MAIN ST.", "borough": "E.HARTFORD", "state": "CT" }, "geometry": { "type": "Point", "coordinates": [ -72.63352, 41.743321 ] } },
{ "type": "Feature", "properties": { "ZIP": "08360", "address": "122 S. DELSEA", "borough": "VINELAND", "state": "NJ" }, "geometry": { "type": "Point", "coordinates": [ -75.043732, 39.4856 ] } },
{ "type": "Feature", "properties": { "ZIP": "19606", "address": "5411 PERKIOMEN AVENUE", "borough": "READING", "state": "PA" }, "geometry": { "type": "Point", "coordinates": [ -75.845658, 40.29901 ] } },
{ "type": "Feature", "properties": { "ZIP": "06002", "address": "20 GRANBY ROAD", "borough": "BLOOMFIELD", "state": "CT" }, "geometry": { "type": "Point", "coordinates": [ -72.708723, 41.8166 ] } },
{ "type": "Feature", "properties": { "ZIP": "08098", "address": "861 ROUTE 45", "borough": "PILESGROVE", "state": "NJ" }, "geometry": { "type": "Point", "coordinates": [ -75.339825, 39.646448 ] } },
{ "type": "Feature", "properties": { "ZIP": "18411", "address": "1135 NORTHERN BLVD", "borough": "CLARKS SUMMIT", "state": "PA" }, "geometry": { "type": "Point", "coordinates": [ -75.695616, 41.487269 ] } },
{ "type": "Feature", "properties": { "ZIP": "18702", "address": "980 SCHECHTER DR.", "borough": "WILKES BARRE", "state": "PA" }, "geometry": { "type": "Point", "coordinates": [ -75.855768, 41.236483 ] } },
{ "type": "Feature", "properties": { "ZIP": "18702", "address": "359 KIDDER ST.", "borough": "WILKES BARRE", "state": "PA" }, "geometry": { "type": "Point", "coordinates": [ -75.855816, 41.249677 ] } },
{ "type": "Feature", "properties": { "ZIP": "19605", "address": "3225 N FIFTH STREET HWY", "borough": "READING", "state": "PA" }, "geometry": { "type": "Point", "coordinates": [ -75.927019, 40.38427 ] } },
{ "type": "Feature", "properties": { "ZIP": "06040", "address": "262 SPENCER STREET", "borough": "MANCHESTER", "state": "CT" }, "geometry": { "type": "Point", "coordinates": [ -72.572152, 41.766262 ] } },
{ "type": "Feature", "properties": { "ZIP": "18201", "address": "40 S CHURCH ST", "borough": "HAZLETON", "state": "PA" }, "geometry": { "type": "Point", "coordinates": [ -75.97815, 40.95311 ] } },
{ "type": "Feature", "properties": { "ZIP": "19372", "address": "3480 LINCOLN HIGHWAY", "borough": "THORNDALE", "state": "PA" }, "geometry": { "type": "Point", "coordinates": [ -75.753855, 39.994428 ] } },
{ "type": "Feature", "properties": { "ZIP": "18222", "address": "555 NORTH HUNTER HIGHWAY", "borough": "DRUMS", "state": "PA" }, "geometry": { "type": "Point", "coordinates": [ -75.960336, 41.056037 ] } },
{ "type": "Feature", "properties": { "ZIP": "08332", "address": "1101-105 HIGH STREET", "borough": "MILLVILLE", "state": "NJ" }, "geometry": { "type": "Point", "coordinates": [ -75.038773, 39.408428 ] } },
{ "type": "Feature", "properties": { "ZIP": "19526", "address": "15 DAVES WAY", "borough": "HAMBURG", "state": "PA" }, "geometry": { "type": "Point", "coordinates": [ -76.003002, 40.562181 ] } },
{ "type": "Feature", "properties": { "ZIP": "19607", "address": "930 LANCASTER AVENUE", "borough": "READING", "state": "PA" }, "geometry": { "type": "Point", "coordinates": [ -75.941937, 40.314636 ] } },
{ "type": "Feature", "properties": { "ZIP": "06415", "address": "348 SOUTH MAIN STREET", "borough": "COLCHESTER", "state": "CT" }, "geometry": { "type": "Point", "coordinates": [ -72.326356, 41.567747 ] } },
{ "type": "Feature", "properties": { "ZIP": "19611", "address": "712 PENN AVENUE", "borough": "READING", "state": "PA" }, "geometry": { "type": "Point", "coordinates": [ -75.952384, 40.335627 ] } },
{ "type": "Feature", "properties": { "ZIP": "19348", "address": "881 E BALTIMORE PK", "borough": "KENNETT SQUARE", "state": "PA" }, "geometry": { "type": "Point", "coordinates": [ -75.679034, 39.863382 ] } },
{ "type": "Feature", "properties": { "ZIP": "18704", "address": "55 S WYOMING AVE", "borough": "EDWARDSVILLE", "state": "PA" }, "geometry": { "type": "Point", "coordinates": [ -75.903849, 41.256243 ] } },
{ "type": "Feature", "properties": { "ZIP": "06040", "address": "260 BROAD STREET", "borough": "MANCHESTER", "state": "CT" }, "geometry": { "type": "Point", "coordinates": [ -72.534943, 41.780241 ] } },
{ "type": "Feature", "properties": { "ZIP": "06042", "address": "105 BUCKLAND STREET", "borough": "MANCHESTER", "state": "CT" }, "geometry": { "type": "Point", "coordinates": [ -72.550505, 41.799548 ] } },
{ "type": "Feature", "properties": { "ZIP": "19610", "address": "2717 N. MERIDAN BLVD.", "borough": "READING", "state": "PA" }, "geometry": { "type": "Point", "coordinates": [ -75.981359, 40.356672 ] } },
{ "type": "Feature", "properties": { "ZIP": "18202", "address": "551 SUSQUEHANNA BLVD", "borough": "HAZLE TWP", "state": "PA" }, "geometry": { "type": "Point", "coordinates": [ -76.015961, 40.980768 ] } },
{ "type": "Feature", "properties": { "ZIP": "19805", "address": "2151 KIRKWOOD HWY", "borough": "WILMINGTON", "state": "DE" }, "geometry": { "type": "Point", "coordinates": [ -75.61146, 39.73837 ] } },
{ "type": "Feature", "properties": { "ZIP": "06320", "address": "370 COLMAN STREET", "borough": "NEW LONDON", "state": "CT" }, "geometry": { "type": "Point", "coordinates": [ -72.116334, 41.358837 ] } },
{ "type": "Feature", "properties": { "ZIP": "06096", "address": "81 ELLA GRASSO TURNPIKE", "borough": "WINDSOR LOCKS", "state": "CT" }, "geometry": { "type": "Point", "coordinates": [ -72.670495, 41.920179 ] } },
{ "type": "Feature", "properties": { "ZIP": "08302", "address": "39 EAST BROAD STREET", "borough": "BRIDGETON", "state": "NJ" }, "geometry": { "type": "Point", "coordinates": [ -75.231529, 39.426491 ] } },
{ "type": "Feature", "properties": { "ZIP": "19808", "address": "4300 KIRKWOOD HWY", "borough": "MARSHALLTON", "state": "DE" }, "geometry": { "type": "Point", "coordinates": [ -75.649447, 39.7277 ] } },
{ "type": "Feature", "properties": { "ZIP": "06088", "address": "45 PROSPECT HILL ROAD", "borough": "E.WINDSOR", "state": "CT" }, "geometry": { "type": "Point", "coordinates": [ -72.610245, 41.918743 ] } },
{ "type": "Feature", "properties": { "ZIP": "19720", "address": "140 N DUPONT HWY", "borough": "NEW CASTLE", "state": "DE" }, "geometry": { "type": "Point", "coordinates": [ -75.597814, 39.671376 ] } },
{ "type": "Feature", "properties": { "ZIP": "18612", "address": "2685 MEMORIAL HIGHWAY", "borough": "DALLAS", "state": "PA" }, "geometry": { "type": "Point", "coordinates": [ -75.961005, 41.335856 ] } },
{ "type": "Feature", "properties": { "ZIP": "19608", "address": "4820 PENN AVENUE", "borough": "SINKING SPRING", "state": "PA" }, "geometry": { "type": "Point", "coordinates": [ -76.050538, 40.326411 ] } },
{ "type": "Feature", "properties": { "ZIP": "06340", "address": "689 LONG HILL RD", "borough": "GROTON", "state": "CT" }, "geometry": { "type": "Point", "coordinates": [ -72.055311, 41.349257 ] } },
{ "type": "Feature", "properties": { "ZIP": "06360", "address": "657 W. MAIN STREET", "borough": "NORWICH", "state": "CT" }, "geometry": { "type": "Point", "coordinates": [ -72.103137, 41.515434 ] } },
{ "type": "Feature", "properties": { "ZIP": "19702", "address": "90 UNIVERSITY PLAZA", "borough": "NEWARK", "state": "DE" }, "geometry": { "type": "Point", "coordinates": [ -75.670484, 39.668087 ] } },
{ "type": "Feature", "properties": { "ZIP": "19711", "address": "10 POSSUM PARK", "borough": "NEWARK", "state": "DE" }, "geometry": { "type": "Point", "coordinates": [ -75.719545, 39.695251 ] } },
{ "type": "Feature", "properties": { "ZIP": "06082", "address": "90 ELM STREET", "borough": "ENFIELD", "state": "CT" }, "geometry": { "type": "Point", "coordinates": [ -72.58443, 41.99682 ] } },
{ "type": "Feature", "properties": { "ZIP": "19713", "address": "30 CHESTNUT HILL PLAZA", "borough": "NEWARK", "state": "DE" }, "geometry": { "type": "Point", "coordinates": [ -75.724295, 39.662912 ] } },
{ "type": "Feature", "properties": { "ZIP": "01030", "address": "1340 SPRINGFIELD STREET", "borough": "FEEDING HILLS", "state": "MA" }, "geometry": { "type": "Point", "coordinates": [ -72.676499, 42.067099 ] } },
{ "type": "Feature", "properties": { "ZIP": "17901", "address": "378 S CLAUDE A LORD BLVD", "borough": "POTTSVILLE", "state": "PA" }, "geometry": { "type": "Point", "coordinates": [ -76.2529, 40.662 ] } },
{ "type": "Feature", "properties": { "ZIP": "13754", "address": "390 STATE HWY 10", "borough": "DEPOSIT", "state": "NY" }, "geometry": { "type": "Point", "coordinates": [ -75.413741, 42.055727 ] } },
{ "type": "Feature", "properties": { "ZIP": "01085", "address": "2-6 SOUTH HAMPTON ROAD", "borough": "WESTFIELD", "state": "MA" }, "geometry": { "type": "Point", "coordinates": [ -72.734019, 42.141551 ] } },
{ "type": "Feature", "properties": { "ZIP": "06256", "address": "5A NORTHRIDGE DRIVE", "borough": "N.WINDHAM", "state": "CT" }, "geometry": { "type": "Point", "coordinates": [ -72.177012, 41.740564 ] } },
{ "type": "Feature", "properties": { "ZIP": "17557", "address": "804 WEST MAIN STREET", "borough": "NEW HOLLAND", "state": "PA" }, "geometry": { "type": "Point", "coordinates": [ -76.116229, 40.092841 ] } },
{ "type": "Feature", "properties": { "ZIP": "19702", "address": "2423 PULASKI HWY", "borough": "NEWARK", "state": "DE" }, "geometry": { "type": "Point", "coordinates": [ -75.74624, 39.60518 ] } },
{ "type": "Feature", "properties": { "ZIP": "01089", "address": "288 PARK STREET", "borough": "W.SPRINGFIELD", "state": "MA" }, "geometry": { "type": "Point", "coordinates": [ -72.624492, 42.103273 ] } },
{ "type": "Feature", "properties": { "ZIP": "17522", "address": "1075 S. STATE ST", "borough": "EPHRATA", "state": "PA" }, "geometry": { "type": "Point", "coordinates": [ -76.198118, 40.169622 ] } },
{ "type": "Feature", "properties": { "ZIP": "19363", "address": "499 N. THIRD STREET", "borough": "OXFORD", "state": "PA" }, "geometry": { "type": "Point", "coordinates": [ -75.975793, 39.795328 ] } },
{ "type": "Feature", "properties": { "ZIP": "01118", "address": "1420 ALLEN ST.", "borough": "SPRINGFIELD", "state": "MA" }, "geometry": { "type": "Point", "coordinates": [ -72.51222, 42.094978 ] } },
{ "type": "Feature", "properties": { "ZIP": "02891", "address": "19 POST RD", "borough": "WESTERLY", "state": "RI" }, "geometry": { "type": "Point", "coordinates": [ -71.805032, 41.35586 ] } },
{ "type": "Feature", "properties": { "ZIP": "01104", "address": "1290 SAINT JAMES AVE", "borough": "SPRINGFIELD", "state": "MA" }, "geometry": { "type": "Point", "coordinates": [ -72.57488, 42.142644 ] } },
{ "type": "Feature", "properties": { "ZIP": "01119", "address": "757 BOSTON ROAD", "borough": "SPRINGFIELD", "state": "MA" }, "geometry": { "type": "Point", "coordinates": [ -72.519403, 42.136608 ] } },
{ "type": "Feature", "properties": { "ZIP": "17602", "address": "2347 LINCOLN HWY E.", "borough": "LANCASTER", "state": "PA" }, "geometry": { "type": "Point", "coordinates": [ -76.206703, 40.025676 ] } },
{ "type": "Feature", "properties": { "ZIP": "01020", "address": "786 MEMORIAL DR.", "borough": "CHICOPEE", "state": "MA" }, "geometry": { "type": "Point", "coordinates": [ -72.577676, 42.17904 ] } },
{ "type": "Feature", "properties": { "ZIP": "19709", "address": "735 MIDDLETOWN WARWICK RD", "borough": "MIDDLETOWN", "state": "DE" }, "geometry": { "type": "Point", "coordinates": [ -75.740511, 39.443198 ] } },
{ "type": "Feature", "properties": { "ZIP": "06374", "address": "2 PRATT ROAD", "borough": "PLAINFIELD", "state": "CT" }, "geometry": { "type": "Point", "coordinates": [ -71.91241, 41.664832 ] } },
{ "type": "Feature", "properties": { "ZIP": "17543", "address": "40 PETERS ROAD", "borough": "LITITZ", "state": "PA" }, "geometry": { "type": "Point", "coordinates": [ -76.306589, 40.129091 ] } },
{ "type": "Feature", "properties": { "ZIP": "17046", "address": "1490 EAST LEHMAN STREET", "borough": "LEBANON", "state": "PA" }, "geometry": { "type": "Point", "coordinates": [ -76.387489, 40.34877 ] } },
{ "type": "Feature", "properties": { "ZIP": "21901", "address": "2522 WEST PULASKI HIGHWAY", "borough": "NORTH EAST", "state": "MD" }, "geometry": { "type": "Point", "coordinates": [ -75.949512, 39.607438 ] } },
{ "type": "Feature", "properties": { "ZIP": "17815", "address": "1931 NEW BERWICK HWY", "borough": "BLOOMSBURG", "state": "PA" }, "geometry": { "type": "Point", "coordinates": [ -76.421193, 41.009414 ] } },
{ "type": "Feature", "properties": { "ZIP": "01201", "address": "556 HUBBARD AVENUE", "borough": "PITTSFIELD", "state": "MA" }, "geometry": { "type": "Point", "coordinates": [ -73.195745, 42.468604 ] } },
{ "type": "Feature", "properties": { "ZIP": "19977", "address": "10 N. DUPONT HWY", "borough": "SMYRNA", "state": "DE" }, "geometry": { "type": "Point", "coordinates": [ -75.603513, 39.303061 ] } },
{ "type": "Feature", "properties": { "ZIP": "17603", "address": "1117 HARRISBURG PIKE", "borough": "LANCASTER", "state": "PA" }, "geometry": { "type": "Point", "coordinates": [ -76.323018, 40.053242 ] } },
{ "type": "Feature", "properties": { "ZIP": "12061", "address": "612 COLUMBIA TURNPIKE", "borough": "E.GREENBUSH", "state": "NY" }, "geometry": { "type": "Point", "coordinates": [ -73.708678, 42.597324 ] } },
{ "type": "Feature", "properties": { "ZIP": "13820", "address": "6281 STATE HIGHWAY 23", "borough": "ONEONTA", "state": "NY" }, "geometry": { "type": "Point", "coordinates": [ -75.05073, 42.447084 ] } },
{ "type": "Feature", "properties": { "ZIP": "17042", "address": "2420 W. CUMBERLAND ST", "borough": "LEBANON", "state": "PA" }, "geometry": { "type": "Point", "coordinates": [ -76.455017, 40.339027 ] } },
{ "type": "Feature", "properties": { "ZIP": "12077", "address": "261 ROUTE 9W", "borough": "GLENMONT", "state": "NY" }, "geometry": { "type": "Point", "coordinates": [ -73.788487, 42.612029 ] } },
{ "type": "Feature", "properties": { "ZIP": "17815", "address": "183 CENTRAL AVENUE", "borough": "BLOOMSBURG", "state": "PA" }, "geometry": { "type": "Point", "coordinates": [ -76.490198, 41.015892 ] } },
{ "type": "Feature", "properties": { "ZIP": "19901", "address": "1710 N. DUPONT HIGHWAY", "borough": "DOVER", "state": "DE" }, "geometry": { "type": "Point", "coordinates": [ -75.553773, 39.197759 ] } },
{ "type": "Feature", "properties": { "ZIP": "02898", "address": "1 STILSON RD", "borough": "RICHMOND", "state": "RI" }, "geometry": { "type": "Point", "coordinates": [ -71.687794, 41.511824 ] } },
{ "type": "Feature", "properties": { "ZIP": "17038", "address": "#2 EVEREST LANE", "borough": "JONESTOWN", "state": "PA" }, "geometry": { "type": "Point", "coordinates": [ -76.512666, 40.451887 ] } },
{ "type": "Feature", "properties": { "ZIP": "01069", "address": "1213 THORNDYKE ST", "borough": "PALMER", "state": "MA" }, "geometry": { "type": "Point", "coordinates": [ -72.32246, 42.173776 ] } },
{ "type": "Feature", "properties": { "ZIP": "21903", "address": "ROUTE 222 EXIT 93", "borough": "NORTH EAST", "state": "MD" }, "geometry": { "type": "Point", "coordinates": [ -76.066594, 39.589768 ] } },
{ "type": "Feature", "properties": { "ZIP": "17872", "address": "33 E. INDEPENDENCE AVENUE", "borough": "SHAMOKIN", "state": "PA" }, "geometry": { "type": "Point", "coordinates": [ -76.556524, 40.791843 ] } },
{ "type": "Feature", "properties": { "ZIP": "13904", "address": "2 INDUSTRIAL DRIVE", "borough": "BINGHAMTON", "state": "NY" }, "geometry": { "type": "Point", "coordinates": [ -75.835765, 42.101588 ] } },
{ "type": "Feature", "properties": { "ZIP": "19901", "address": "1596 S. DUPONT HWY", "borough": "DOVER", "state": "DE" }, "geometry": { "type": "Point", "coordinates": [ -75.529043, 39.132532 ] } },
{ "type": "Feature", "properties": { "ZIP": "01035", "address": "376 RUSSELL STREET", "borough": "HADLEY", "state": "MA" }, "geometry": { "type": "Point", "coordinates": [ -72.54885, 42.359256 ] } },
{ "type": "Feature", "properties": { "ZIP": "12203", "address": "1 CROSSGATE MALL RD", "borough": "ALBANY", "state": "NY" }, "geometry": { "type": "Point", "coordinates": [ -73.850483, 42.689371 ] } },
{ "type": "Feature", "properties": { "ZIP": "17512", "address": "3995 COLUMBIA AVE", "borough": "COLUMBIA", "state": "PA" }, "geometry": { "type": "Point", "coordinates": [ -76.454435, 40.036942 ] } },
{ "type": "Feature", "properties": { "ZIP": "12205", "address": "1335 CENTRAL AVE", "borough": "ALBANY", "state": "NY" }, "geometry": { "type": "Point", "coordinates": [ -73.814918, 42.702526 ] } },
{ "type": "Feature", "properties": { "ZIP": "17821", "address": "5 NORTHUMBERLAND ST", "borough": "DANVILLE", "state": "PA" }, "geometry": { "type": "Point", "coordinates": [ -76.616984, 40.964677 ] } },
{ "type": "Feature", "properties": { "ZIP": "12180", "address": "77 VANDENBURGH AVENUE", "borough": "TROY", "state": "NY" }, "geometry": { "type": "Point", "coordinates": [ -73.688879, 42.696724 ] } },
{ "type": "Feature", "properties": { "ZIP": "13905", "address": "170 MAIN STREET", "borough": "BINGHAMTON", "state": "NY" }, "geometry": { "type": "Point", "coordinates": [ -75.930606, 42.103605 ] } },
{ "type": "Feature", "properties": { "ZIP": "17078", "address": "743 EAST MAIN STREET", "borough": "PALMYRA", "state": "PA" }, "geometry": { "type": "Point", "coordinates": [ -76.586166, 40.312538 ] } },
{ "type": "Feature", "properties": { "ZIP": "06260", "address": "66 PROVIDENCE PIKE", "borough": "PUTNAM", "state": "CT" }, "geometry": { "type": "Point", "coordinates": [ -71.876438, 41.925441 ] } },
{ "type": "Feature", "properties": { "ZIP": "12205", "address": "1770 CENTRAL AVENUE", "borough": "COLONIE", "state": "NY" }, "geometry": { "type": "Point", "coordinates": [ -73.846482, 42.728522 ] } },
{ "type": "Feature", "properties": { "ZIP": "01566", "address": "211 CHARLTON ROAD", "borough": "STURBRIDGE", "state": "MA" }, "geometry": { "type": "Point", "coordinates": [ -72.065873, 42.11645 ] } },
{ "type": "Feature", "properties": { "ZIP": "13905", "address": "1251 FRONT STREET", "borough": "BINGHAMTON", "state": "NY" }, "geometry": { "type": "Point", "coordinates": [ -75.896473, 42.157339 ] } },
{ "type": "Feature", "properties": { "ZIP": "13850", "address": "3737 VESTAL PKWY", "borough": "VESTAL", "state": "NY" }, "geometry": { "type": "Point", "coordinates": [ -75.980841, 42.096496 ] } },
{ "type": "Feature", "properties": { "ZIP": "12110", "address": "741 NEW LOUDEN RD.", "borough": "LATHAM", "state": "NY" }, "geometry": { "type": "Point", "coordinates": [ -73.761012, 42.74218 ] } },
{ "type": "Feature", "properties": { "ZIP": "21001", "address": "987 BEARDS HILL ROAD", "borough": "ABERDEEN", "state": "MD" }, "geometry": { "type": "Point", "coordinates": [ -76.183096, 39.524555 ] } },
{ "type": "Feature", "properties": { "ZIP": "17022", "address": "1660 SOUTH MARKET STREET", "borough": "ELIZABETHTOWN", "state": "PA" }, "geometry": { "type": "Point", "coordinates": [ -76.583588, 40.137496 ] } },
{ "type": "Feature", "properties": { "ZIP": "12110", "address": "1162 TROY-SCHENECTADY ROAD", "borough": "LATHAM", "state": "NY" }, "geometry": { "type": "Point", "coordinates": [ -73.820093, 42.769303 ] } },
{ "type": "Feature", "properties": { "ZIP": "17033", "address": "615 PARK AVENUE", "borough": "HERSHEY", "state": "PA" }, "geometry": { "type": "Point", "coordinates": [ -76.651691, 40.29408 ] } },
{ "type": "Feature", "properties": { "ZIP": "12304", "address": "3421 STATE STREET", "borough": "SCHENECTADY", "state": "NY" }, "geometry": { "type": "Point", "coordinates": [ -73.894543, 42.773472 ] } },
{ "type": "Feature", "properties": { "ZIP": "13760", "address": "217 WASHINGTON AVE", "borough": "ENDICOTT", "state": "NY" }, "geometry": { "type": "Point", "coordinates": [ -76.047665, 42.099233 ] } },
{ "type": "Feature", "properties": { "ZIP": "12303", "address": "1590 ALTAMONT AVENUE", "borough": "ROTTERDAM", "state": "NY" }, "geometry": { "type": "Point", "coordinates": [ -73.948527, 42.782885 ] } },
{ "type": "Feature", "properties": { "ZIP": "02816", "address": "2311 NEW LONDON TPKE", "borough": "COVENTRY", "state": "RI" }, "geometry": { "type": "Point", "coordinates": [ -71.545037, 41.661974 ] } },
{ "type": "Feature", "properties": { "ZIP": "19963", "address": "997 N. DUPONT BLVD", "borough": "MILFORD", "state": "DE" }, "geometry": { "type": "Point", "coordinates": [ -75.430871, 38.933232 ] } },
{ "type": "Feature", "properties": { "ZIP": "17036", "address": "625 E MAIN ST", "borough": "HUMMELSTOWN", "state": "PA" }, "geometry": { "type": "Point", "coordinates": [ -76.68997, 40.268324 ] } },
{ "type": "Feature", "properties": { "ZIP": "21001", "address": "ROUTE 543 EXIT 80", "borough": "ABERDEEN", "state": "MD" }, "geometry": { "type": "Point", "coordinates": [ -76.2325, 39.498 ] } },
{ "type": "Feature", "properties": { "ZIP": "12305", "address": "132 ERIE BLVD.", "borough": "SCHENECTADY", "state": "NY" }, "geometry": { "type": "Point", "coordinates": [ -73.947455, 42.812162 ] } },
{ "type": "Feature", "properties": { "ZIP": "01570", "address": "123 E MAIN STREET", "borough": "WEBSTER", "state": "MA" }, "geometry": { "type": "Point", "coordinates": [ -71.865761, 42.059462 ] } },
{ "type": "Feature", "properties": { "ZIP": "18848", "address": "963 GOLDEN MILE ROAD", "borough": "TOWANDA", "state": "PA" }, "geometry": { "type": "Point", "coordinates": [ -76.419053, 41.770536 ] } },
{ "type": "Feature", "properties": { "ZIP": "02818", "address": "926 QUAKER LN", "borough": "E.GREENWICH", "state": "RI" }, "geometry": { "type": "Point", "coordinates": [ -71.499097, 41.671384 ] } },
{ "type": "Feature", "properties": { "ZIP": "02852", "address": "80 FRENCHTOWN RD", "borough": "N.KINGSTOWN", "state": "RI" }, "geometry": { "type": "Point", "coordinates": [ -71.468968, 41.631217 ] } },
{ "type": "Feature", "properties": { "ZIP": "02852", "address": "1320 TEN ROD ROAD", "borough": "N.KINGSTOWN", "state": "RI" }, "geometry": { "type": "Point", "coordinates": [ -71.44534, 41.59312 ] } },
{ "type": "Feature", "properties": { "ZIP": "21014", "address": "1604 CONOWINGO ROAD", "borough": "BEL AIR", "state": "MD" }, "geometry": { "type": "Point", "coordinates": [ -76.354439, 39.568814 ] } },
{ "type": "Feature", "properties": { "ZIP": "12065", "address": "1517 ROUTE 9", "borough": "HALFMOON", "state": "NY" }, "geometry": { "type": "Point", "coordinates": [ -73.744125, 42.840882 ] } },
{ "type": "Feature", "properties": { "ZIP": "12302", "address": "13 SARATOGA ROAD", "borough": "GLENVILLE", "state": "NY" }, "geometry": { "type": "Point", "coordinates": [ -73.943472, 42.849981 ] } },
{ "type": "Feature", "properties": { "ZIP": "17756", "address": "40 NEIDIGS DRIVE", "borough": "MUNCY", "state": "PA" }, "geometry": { "type": "Point", "coordinates": [ -76.76632, 41.2122 ] } },
{ "type": "Feature", "properties": { "ZIP": "02886", "address": "650 BALD HILL ROAD", "borough": "WARWICK", "state": "RI" }, "geometry": { "type": "Point", "coordinates": [ -71.483981, 41.719212 ] } },
{ "type": "Feature", "properties": { "ZIP": "12065", "address": "3 CLIFTON COUNTRY RD", "borough": "CLIFTON PARK", "state": "NY" }, "geometry": { "type": "Point", "coordinates": [ -73.781444, 42.861703 ] } },
{ "type": "Feature", "properties": { "ZIP": "01301", "address": "138 FEDERAL STREET", "borough": "GREENFIELD", "state": "MA" }, "geometry": { "type": "Point", "coordinates": [ -72.598415, 42.592468 ] } },
{ "type": "Feature", "properties": { "ZIP": "21009", "address": "2910 EMMORTON ROAD", "borough": "ABINGDON", "state": "MD" }, "geometry": { "type": "Point", "coordinates": [ -76.311159, 39.479359 ] } },
{ "type": "Feature", "properties": { "ZIP": "17831", "address": "1434 N SUSQUEHANNA TRAIL", "borough": "HUMMELS WHARF", "state": "PA" }, "geometry": { "type": "Point", "coordinates": [ -76.8416, 40.82896 ] } },
{ "type": "Feature", "properties": { "ZIP": "17356", "address": "3197 CAPE HORN ROAD", "borough": "RED LION", "state": "PA" }, "geometry": { "type": "Point", "coordinates": [ -76.630236, 39.917428 ] } },
{ "type": "Feature", "properties": { "ZIP": "17111", "address": "6405 GRAYSON ROAD", "borough": "HARRISBURG", "state": "PA" }, "geometry": { "type": "Point", "coordinates": [ -76.775239, 40.261506 ] } },
{ "type": "Feature", "properties": { "ZIP": "19971", "address": "ROUTE 1", "borough": "REHOBOTH BEACH", "state": "DE" }, "geometry": { "type": "Point", "coordinates": [ -75.130281, 38.72824 ] } },
{ "type": "Feature", "properties": { "ZIP": "17402", "address": "2802 E. MARKET ST", "borough": "YORK", "state": "PA" }, "geometry": { "type": "Point", "coordinates": [ -76.672242, 39.974875 ] } },
{ "type": "Feature", "properties": { "ZIP": "17112", "address": "5103 JONESTOWN RD.", "borough": "HARRISBURG", "state": "PA" }, "geometry": { "type": "Point", "coordinates": [ -76.802413, 40.309223 ] } },
{ "type": "Feature", "properties": { "ZIP": "17057", "address": "801 EISENHOWER BLVD", "borough": "MIDDLETOWN", "state": "PA" }, "geometry": { "type": "Point", "coordinates": [ -76.79123, 40.217416 ] } },
{ "type": "Feature", "properties": { "ZIP": "21040", "address": "1950 PULASKI HIGHWAY", "borough": "EDGEWOOD", "state": "MD" }, "geometry": { "type": "Point", "coordinates": [ -76.313999, 39.435685 ] } },
{ "type": "Feature", "properties": { "ZIP": "01501", "address": "688 SOUTH BRIDGE STREET", "borough": "AUBURN", "state": "MA" }, "geometry": { "type": "Point", "coordinates": [ -71.858724, 42.184465 ] } },
{ "type": "Feature", "properties": { "ZIP": "02886", "address": "1951 POST ROAD", "borough": "WARWICK", "state": "RI" }, "geometry": { "type": "Point", "coordinates": [ -71.438602, 41.728402 ] } },
{ "type": "Feature", "properties": { "ZIP": "17109", "address": "3887 UNION DEPOSIT ROAD", "borough": "HARRISBURG", "state": "PA" }, "geometry": { "type": "Point", "coordinates": [ -76.824681, 40.278157 ] } },
{ "type": "Feature", "properties": { "ZIP": "17403", "address": "2060 SPRINGWOOD RD", "borough": "YORK", "state": "PA" }, "geometry": { "type": "Point", "coordinates": [ -76.691379, 39.938263 ] } },
{ "type": "Feature", "properties": { "ZIP": "17406", "address": "125 CLOVERLEAF RD", "borough": "YORK", "state": "PA" }, "geometry": { "type": "Point", "coordinates": [ -76.766187, 40.081749 ] } },
{ "type": "Feature", "properties": { "ZIP": "02910", "address": "950 RESERVOIR AVE", "borough": "CRANSTON", "state": "RI" }, "geometry": { "type": "Point", "coordinates": [ -71.448875, 41.775345 ] } },
{ "type": "Feature", "properties": { "ZIP": "02842", "address": "62 VALLEY RD", "borough": "MIDDLETOWN", "state": "RI" }, "geometry": { "type": "Point", "coordinates": [ -71.292572, 41.518772 ] } },
{ "type": "Feature", "properties": { "ZIP": "17109", "address": "100 NORTH PROGRESS AVENUE", "borough": "HARRISBURG", "state": "PA" }, "geometry": { "type": "Point", "coordinates": [ -76.843021, 40.285924 ] } },
{ "type": "Feature", "properties": { "ZIP": "17837", "address": "635 NORTH DERR DR.", "borough": "LEWISBURG", "state": "PA" }, "geometry": { "type": "Point", "coordinates": [ -76.893391, 40.970237 ] } },
{ "type": "Feature", "properties": { "ZIP": "17404", "address": "60 W. 11TH AVE", "borough": "YORK", "state": "PA" }, "geometry": { "type": "Point", "coordinates": [ -76.737239, 39.983533 ] } },
{ "type": "Feature", "properties": { "ZIP": "02909", "address": "850 MANTON AVENUE", "borough": "PROVIDENCE", "state": "RI" }, "geometry": { "type": "Point", "coordinates": [ -71.467285, 41.833698 ] } },
{ "type": "Feature", "properties": { "ZIP": "02920", "address": "110 GARFIELD AVENUE", "borough": "CRANSTON", "state": "RI" }, "geometry": { "type": "Point", "coordinates": [ -71.441485, 41.799308 ] } },
{ "type": "Feature", "properties": { "ZIP": "13827", "address": "170 5TH AVE", "borough": "OWEGO", "state": "NY" }, "geometry": { "type": "Point", "coordinates": [ -76.353432, 42.060193 ] } },
{ "type": "Feature", "properties": { "ZIP": "02888", "address": "771 WARWICK AVENUE", "borough": "WARWICK", "state": "RI" }, "geometry": { "type": "Point", "coordinates": [ -71.404945, 41.754862 ] } },
{ "type": "Feature", "properties": { "ZIP": "21085", "address": "1060 JOPPA FARM RD", "borough": "JOPPATOWNE", "state": "MD" }, "geometry": { "type": "Point", "coordinates": [ -76.37137, 39.422103 ] } },
{ "type": "Feature", "properties": { "ZIP": "01607", "address": "560 SOUTHWEST CUTOFF", "borough": "WORCESTER", "state": "MA" }, "geometry": { "type": "Point", "coordinates": [ -71.796898, 42.212494 ] } },
{ "type": "Feature", "properties": { "ZIP": "17404", "address": "1201 CARLISLE RD", "borough": "YORK", "state": "PA" }, "geometry": { "type": "Point", "coordinates": [ -76.768089, 39.964487 ] } },
{ "type": "Feature", "properties": { "ZIP": "17110", "address": "3925 NORTH FRONT STREET", "borough": "HARRISBURG", "state": "PA" }, "geometry": { "type": "Point", "coordinates": [ -76.898083, 40.316381 ] } },
{ "type": "Feature", "properties": { "ZIP": "02903", "address": "731 EDDY STREET", "borough": "PROVIDENCE", "state": "RI" }, "geometry": { "type": "Point", "coordinates": [ -71.407649, 41.80778 ] } },
{ "type": "Feature", "properties": { "ZIP": "01610", "address": "500 PARK AVENUE", "borough": "WORCESTER", "state": "MA" }, "geometry": { "type": "Point", "coordinates": [ -71.827906, 42.25318 ] } },
{ "type": "Feature", "properties": { "ZIP": "17361", "address": "75 EAST FORREST AVENUE", "borough": "SHREWSBURY", "state": "PA" }, "geometry": { "type": "Point", "coordinates": [ -76.675488, 39.770583 ] } },
{ "type": "Feature", "properties": { "ZIP": "01610", "address": "702 SOUTHBRIDGE STREET", "borough": "WORCESTER", "state": "MA" }, "geometry": { "type": "Point", "coordinates": [ -71.811169, 42.243057 ] } },
{ "type": "Feature", "properties": { "ZIP": "12010", "address": "104 TOWNE SQUARE", "borough": "AMSTERDAM", "state": "NY" }, "geometry": { "type": "Point", "coordinates": [ -74.185706, 42.961471 ] } },
{ "type": "Feature", "properties": { "ZIP": "02904", "address": "391 CHARLES STREET", "borough": "PROVIDENCE", "state": "RI" }, "geometry": { "type": "Point", "coordinates": [ -71.41827, 41.844642 ] } },
{ "type": "Feature", "properties": { "ZIP": "17025", "address": "601 ENOLA ROAD", "borough": "ENOLA", "state": "PA" }, "geometry": { "type": "Point", "coordinates": [ -76.925332, 40.305639 ] } },
{ "type": "Feature", "properties": { "ZIP": "02896", "address": "77 EDDIE DOWLING HWY", "borough": "N.SMITHFIELD", "state": "RI" }, "geometry": { "type": "Point", "coordinates": [ -71.514465, 41.980806 ] } },
{ "type": "Feature", "properties": { "ZIP": "17754", "address": "1007 LOYALSOCK AVE", "borough": "MONTOURSVILLE", "state": "PA" }, "geometry": { "type": "Point", "coordinates": [ -76.916498, 41.261448 ] } },
{ "type": "Feature", "properties": { "ZIP": "18840", "address": "419 NORTH ELMIRA STREET", "borough": "SAYRE", "state": "PA" }, "geometry": { "type": "Point", "coordinates": [ -76.540627, 41.973935 ] } },
{ "type": "Feature", "properties": { "ZIP": "02771", "address": "8 HIGHLAND AVENUE", "borough": "SEEKONK", "state": "MA" }, "geometry": { "type": "Point", "coordinates": [ -71.338826, 41.804611 ] } },
{ "type": "Feature", "properties": { "ZIP": "17011", "address": "3465 SIMPSON FERRY ROAD", "borough": "CAMP HILL", "state": "PA" }, "geometry": { "type": "Point", "coordinates": [ -76.93903, 40.22615 ] } },
{ "type": "Feature", "properties": { "ZIP": "02860", "address": "120 BROAD STREET", "borough": "PAWTUCKET", "state": "RI" }, "geometry": { "type": "Point", "coordinates": [ -71.386967, 41.880567 ] } },
{ "type": "Feature", "properties": { "ZIP": "01605", "address": "492 LINCOLN STREET", "borough": "WORCESTER", "state": "MA" }, "geometry": { "type": "Point", "coordinates": [ -71.776525, 42.294417 ] } },
{ "type": "Feature", "properties": { "ZIP": "02861", "address": "368 COTTAGE ST.", "borough": "PAWTUCKET", "state": "RI" }, "geometry": { "type": "Point", "coordinates": [ -71.367232, 41.887021 ] } },
{ "type": "Feature", "properties": { "ZIP": "12095", "address": "140 NORTH COMRIE AVENUE", "borough": "JOHNSTOWN", "state": "NY" }, "geometry": { "type": "Point", "coordinates": [ -74.360009, 43.011761 ] } },
{ "type": "Feature", "properties": { "ZIP": "21236", "address": "8700 BELAIR RD", "borough": "BALTIMORE", "state": "MD" }, "geometry": { "type": "Point", "coordinates": [ -76.488375, 39.392226 ] } },
{ "type": "Feature", "properties": { "ZIP": "02703", "address": "630 WASHINGTON STREET", "borough": "S.ATTLEBORO", "state": "MA" }, "geometry": { "type": "Point", "coordinates": [ -71.362624, 41.910655 ] } },
{ "type": "Feature", "properties": { "ZIP": "17050", "address": "5235 SIMPSON FERRY ROAD", "borough": "MECHANICSBURG", "state": "PA" }, "geometry": { "type": "Point", "coordinates": [ -76.98354, 40.217902 ] } },
{ "type": "Feature", "properties": { "ZIP": "17050", "address": "6101 CARLISLE PIKE", "borough": "MECHANICSBURG", "state": "PA" }, "geometry": { "type": "Point", "coordinates": [ -76.99337, 40.244158 ] } },
{ "type": "Feature", "properties": { "ZIP": "17055", "address": "305 CUMBERLAND PARKWAY", "borough": "MECHANICSBURG", "state": "PA" }, "geometry": { "type": "Point", "coordinates": [ -76.980491, 40.194364 ] } },
{ "type": "Feature", "properties": { "ZIP": "21234", "address": "3001 EAST JOPPA ROAD", "borough": "BALTIMORE", "state": "MD" }, "geometry": { "type": "Point", "coordinates": [ -76.523331, 39.39448 ] } },
{ "type": "Feature", "properties": { "ZIP": "17701", "address": "111 MAYNARD ST", "borough": "WILLIAMSPORT", "state": "PA" }, "geometry": { "type": "Point", "coordinates": [ -77.020723, 41.233246 ] } },
{ "type": "Feature", "properties": { "ZIP": "21221", "address": "1344 EASTERN BOULEVARD", "borough": "BALTIMORE", "state": "MD" }, "geometry": { "type": "Point", "coordinates": [ -76.461888, 39.315408 ] } },
{ "type": "Feature", "properties": { "ZIP": "02777", "address": "632 GRAND ARMY HWY", "borough": "SWANSEA", "state": "MA" }, "geometry": { "type": "Point", "coordinates": [ -71.20902, 41.747226 ] } },
{ "type": "Feature", "properties": { "ZIP": "02721", "address": "35 MARIANO BISHOP BLVD", "borough": "FALL RIVER", "state": "MA" }, "geometry": { "type": "Point", "coordinates": [ -71.162828, 41.677093 ] } },
{ "type": "Feature", "properties": { "ZIP": "01581", "address": "300 TURNPIKE RD", "borough": "WESTBOROUGH", "state": "MA" }, "geometry": { "type": "Point", "coordinates": [ -71.647197, 42.282516 ] } },
{ "type": "Feature", "properties": { "ZIP": "12866", "address": "24 CONGRESS ST", "borough": "SARATOGA SPRINGS", "state": "NY" }, "geometry": { "type": "Point", "coordinates": [ -73.787983, 43.078229 ] } },
{ "type": "Feature", "properties": { "ZIP": "01757", "address": "128 CEDAR STREET", "borough": "MILFORD", "state": "MA" }, "geometry": { "type": "Point", "coordinates": [ -71.508944, 42.162105 ] } },
{ "type": "Feature", "properties": { "ZIP": "21030", "address": "9817 YORK RD", "borough": "COCKEYSVILLE", "state": "MD" }, "geometry": { "type": "Point", "coordinates": [ -76.633973, 39.459718 ] } },
{ "type": "Feature", "properties": { "ZIP": "02720", "address": "500 BEDFORD STREET", "borough": "FALL RIVER", "state": "MA" }, "geometry": { "type": "Point", "coordinates": [ -71.145733, 41.700524 ] } },
{ "type": "Feature", "properties": { "ZIP": "02038", "address": "505 WEST CENTRAL STREET", "borough": "FRANKLIN", "state": "MA" }, "geometry": { "type": "Point", "coordinates": [ -71.4184, 42.08947 ] } },
{ "type": "Feature", "properties": { "ZIP": "17019", "address": "6 OLD MILL ROAD", "borough": "DILLSBURG", "state": "PA" }, "geometry": { "type": "Point", "coordinates": [ -77.038285, 40.117199 ] } },
{ "type": "Feature", "properties": { "ZIP": "19973", "address": "664 N. DUAL HWY", "borough": "SEAFORD", "state": "DE" }, "geometry": { "type": "Point", "coordinates": [ -75.59424, 38.65679 ] } },
{ "type": "Feature", "properties": { "ZIP": "02763", "address": "3 ROBERT TONER BLVD", "borough": "ATTLEBORO FALLS", "state": "MA" }, "geometry": { "type": "Point", "coordinates": [ -71.301146, 41.969354 ] } },
{ "type": "Feature", "properties": { "ZIP": "21222", "address": "1320 MERRITT BLVD.", "borough": "BALTIMORE", "state": "MD" }, "geometry": { "type": "Point", "coordinates": [ -76.505074, 39.278976 ] } },
{ "type": "Feature", "properties": { "ZIP": "01440", "address": "28 PEARSON BLVD", "borough": "GARDNER", "state": "MA" }, "geometry": { "type": "Point", "coordinates": [ -71.978203, 42.566092 ] } },
{ "type": "Feature", "properties": { "ZIP": "21224", "address": "6411 EASTERN AVENUE", "borough": "BALTIMORE", "state": "MD" }, "geometry": { "type": "Point", "coordinates": [ -76.538658, 39.287477 ] } },
{ "type": "Feature", "properties": { "ZIP": "21212", "address": "5615-21 YORK ROAD", "borough": "BALTIMORE", "state": "MD" }, "geometry": { "type": "Point", "coordinates": [ -76.609651, 39.357942 ] } },
{ "type": "Feature", "properties": { "ZIP": "01772", "address": "359 TURNPIKE ROAD", "borough": "SOUTHBOROUGH", "state": "MA" }, "geometry": { "type": "Point", "coordinates": [ -71.557971, 42.289857 ] } },
{ "type": "Feature", "properties": { "ZIP": "05301", "address": "1059 PUTNEY ROAD", "borough": "BRATTLEBORO", "state": "VT" }, "geometry": { "type": "Point", "coordinates": [ -72.557487, 42.883007 ] } },
{ "type": "Feature", "properties": { "ZIP": "21218", "address": "2045 HARFORD ROAD", "borough": "BALTIMORE", "state": "MD" }, "geometry": { "type": "Point", "coordinates": [ -76.597988, 39.313644 ] } },
{ "type": "Feature", "properties": { "ZIP": "01752", "address": "176 BOSTON POST RD WEST", "borough": "MARLBOROUGH", "state": "MA" }, "geometry": { "type": "Point", "coordinates": [ -71.589027, 42.338661 ] } },
{ "type": "Feature", "properties": { "ZIP": "17331", "address": "459 EISENHOWER DRIVE", "borough": "HANOVER", "state": "PA" }, "geometry": { "type": "Point", "coordinates": [ -76.977453, 39.824834 ] } },
{ "type": "Feature", "properties": { "ZIP": "17013", "address": "1165 HARRISBURG PIKE", "borough": "CARLISLE", "state": "PA" }, "geometry": { "type": "Point", "coordinates": [ -77.144133, 40.230415 ] } },
{ "type": "Feature", "properties": { "ZIP": "21074", "address": "4224 NORTH WOODS TRL", "borough": "HAMPSTEAD", "state": "MD" }, "geometry": { "type": "Point", "coordinates": [ -76.846137, 39.596358 ] } },
{ "type": "Feature", "properties": { "ZIP": "02747", "address": "285 OLD WESTPORT", "borough": "N.DARTMOUTH", "state": "MA" }, "geometry": { "type": "Point", "coordinates": [ -71.006022, 41.634189 ] } },
{ "type": "Feature", "properties": { "ZIP": "17331", "address": "1137 BALTIMORE STREET", "borough": "HANOVER", "state": "PA" }, "geometry": { "type": "Point", "coordinates": [ -76.9617, 39.778086 ] } },
{ "type": "Feature", "properties": { "ZIP": "02747", "address": "449 STATE RD", "borough": "N.DARTMOUTH", "state": "MA" }, "geometry": { "type": "Point", "coordinates": [ -71.001038, 41.640129 ] } },
{ "type": "Feature", "properties": { "ZIP": "21201", "address": "901 MCCULLOH STREET", "borough": "BALTIMORE", "state": "MD" }, "geometry": { "type": "Point", "coordinates": [ -76.623767, 39.299647 ] } },
{ "type": "Feature", "properties": { "ZIP": "17350", "address": "6167 YORK ROAD", "borough": "NEW OXFORD", "state": "PA" }, "geometry": { "type": "Point", "coordinates": [ -77.024912, 39.871453 ] } },
{ "type": "Feature", "properties": { "ZIP": "01701", "address": "1699 WORCESTER RD", "borough": "FRAMINGHAM", "state": "MA" }, "geometry": { "type": "Point", "coordinates": [ -71.4837, 42.297101 ] } },
{ "type": "Feature", "properties": { "ZIP": "02048", "address": "64 COPELAND DRIVE", "borough": "MANSFIELD", "state": "MA" }, "geometry": { "type": "Point", "coordinates": [ -71.227877, 42.027584 ] } },
{ "type": "Feature", "properties": { "ZIP": "21215", "address": "4200 PATTERSON AVENUE", "borough": "BALTIMORE", "state": "MD" }, "geometry": { "type": "Point", "coordinates": [ -76.705182, 39.354519 ] } },
{ "type": "Feature", "properties": { "ZIP": "17013", "address": "331 SOUTH HANOVER", "borough": "CARLISLE", "state": "PA" }, "geometry": { "type": "Point", "coordinates": [ -77.189428, 40.195636 ] } },
{ "type": "Feature", "properties": { "ZIP": "21223", "address": "2339 FREDERICK AVE.", "borough": "BALTIMORE", "state": "MD" }, "geometry": { "type": "Point", "coordinates": [ -76.653912, 39.284267 ] } },
{ "type": "Feature", "properties": { "ZIP": "01453", "address": "23 COMMERCIAL ROAD", "borough": "LEOMINSTER", "state": "MA" }, "geometry": { "type": "Point", "coordinates": [ -71.742708, 42.534254 ] } },
{ "type": "Feature", "properties": { "ZIP": "01453", "address": "528 NORTH MAIN STREET", "borough": "LEOMINSTER", "state": "MA" }, "geometry": { "type": "Point", "coordinates": [ -71.76308, 42.549784 ] } },
{ "type": "Feature", "properties": { "ZIP": "13045", "address": "157 CLINTON AVENUE", "borough": "CORTLAND", "state": "NY" }, "geometry": { "type": "Point", "coordinates": [ -76.166169, 42.60818 ] } },
{ "type": "Feature", "properties": { "ZIP": "21136", "address": "11818 REISTERTOWN RD.", "borough": "REISTERSTOWN", "state": "MD" }, "geometry": { "type": "Point", "coordinates": [ -76.813486, 39.446288 ] } },
{ "type": "Feature", "properties": { "ZIP": "21601", "address": "8275 OCEAN GATEWAY", "borough": "EASTON", "state": "MD" }, "geometry": { "type": "Point", "coordinates": [ -76.059637, 38.776222 ] } },
{ "type": "Feature", "properties": { "ZIP": "02780", "address": "41 TAUNTON DEPOT DRIVE", "borough": "TAUNTON", "state": "MA" }, "geometry": { "type": "Point", "coordinates": [ -71.065761, 41.879304 ] } },
{ "type": "Feature", "properties": { "ZIP": "02780", "address": "2089 BAY ST.", "borough": "TAUNTON", "state": "MA" }, "geometry": { "type": "Point", "coordinates": [ -71.119033, 41.959149 ] } },
{ "type": "Feature", "properties": { "ZIP": "21122", "address": "8098 EDWIN RAYNOR BLVD.", "borough": "PASADENA", "state": "MD" }, "geometry": { "type": "Point", "coordinates": [ -76.531908, 39.126044 ] } },
{ "type": "Feature", "properties": { "ZIP": "02745", "address": "1095 KINGS HIGHWAY", "borough": "NEW BEDFORD", "state": "MA" }, "geometry": { "type": "Point", "coordinates": [ -70.941457, 41.679394 ] } },
{ "type": "Feature", "properties": { "ZIP": "21117", "address": "9243 LAKESIDE BOULEVARD", "borough": "OWINGS MILLS", "state": "MD" }, "geometry": { "type": "Point", "coordinates": [ -76.792755, 39.398373 ] } },
{ "type": "Feature", "properties": { "ZIP": "01760", "address": "303 W CENTRAL ST", "borough": "NATICK", "state": "MA" }, "geometry": { "type": "Point", "coordinates": [ -71.39606, 42.28174 ] } },
{ "type": "Feature", "properties": { "ZIP": "21227", "address": "3620 WASHINGTON BLVD", "borough": "BALTIMORE", "state": "MD" }, "geometry": { "type": "Point", "coordinates": [ -76.671397, 39.248803 ] } },
{ "type": "Feature", "properties": { "ZIP": "21061", "address": "6910 RITCHIE HIGHWAY", "borough": "GLEN BURNIE", "state": "MD" }, "geometry": { "type": "Point", "coordinates": [ -76.613382, 39.185707 ] } },
{ "type": "Feature", "properties": { "ZIP": "21133", "address": "8610 LIBERTY RD.", "borough": "RANDALLSTOWN", "state": "MD" }, "geometry": { "type": "Point", "coordinates": [ -76.780097, 39.362241 ] } },
{ "type": "Feature", "properties": { "ZIP": "21409", "address": "1454 WHITEHALL RD.", "borough": "ANNAPOLIS", "state": "MD" }, "geometry": { "type": "Point", "coordinates": [ -76.443737, 39.026193 ] } },
{ "type": "Feature", "properties": { "ZIP": "21842", "address": "12641 OCEAN GATEWAY #580", "borough": "OCEAN CITY", "state": "MD" }, "geometry": { "type": "Point", "coordinates": [ -75.11117, 38.33789 ] } },
{ "type": "Feature", "properties": { "ZIP": "21090", "address": "714 NURSERY RD", "borough": "LINTHICUM HTS.", "state": "MD" }, "geometry": { "type": "Point", "coordinates": [ -76.65867, 39.224568 ] } },
{ "type": "Feature", "properties": { "ZIP": "21244", "address": "2351 ROLLING ROAD", "borough": "BALTIMORE", "state": "MD" }, "geometry": { "type": "Point", "coordinates": [ -76.758631, 39.322537 ] } },
{ "type": "Feature", "properties": { "ZIP": "02719", "address": "#7 FAIRHAVEN COMMONS", "borough": "FAIRHAVEN", "state": "MA" }, "geometry": { "type": "Point", "coordinates": [ -70.885586, 41.643903 ] } },
{ "type": "Feature", "properties": { "ZIP": "21061", "address": "7399 B + A BLVD.", "borough": "GLEN BURNIE", "state": "MD" }, "geometry": { "type": "Point", "coordinates": [ -76.630972, 39.171078 ] } },
{ "type": "Feature", "properties": { "ZIP": "21061", "address": "7905 RITCHIE HIGHWAY", "borough": "GLEN BURNIE", "state": "MD" }, "geometry": { "type": "Point", "coordinates": [ -76.601904, 39.140207 ] } },
{ "type": "Feature", "properties": { "ZIP": "02767", "address": "1028 RT 44", "borough": "RAYNHAM", "state": "MA" }, "geometry": { "type": "Point", "coordinates": [ -71.027298, 41.905626 ] } },
{ "type": "Feature", "properties": { "ZIP": "14850", "address": "326 ELMIRA RD", "borough": "ITHACA", "state": "NY" }, "geometry": { "type": "Point", "coordinates": [ -76.512496, 42.426331 ] } },
{ "type": "Feature", "properties": { "ZIP": "16933", "address": "1580 SOUTH MAIN STREET", "borough": "MANSFIELD", "state": "PA" }, "geometry": { "type": "Point", "coordinates": [ -77.071286, 41.777616 ] } },
{ "type": "Feature", "properties": { "ZIP": "21090", "address": "1589 WEST NURSERY RD.", "borough": "LINTHICUM", "state": "MD" }, "geometry": { "type": "Point", "coordinates": [ -76.6799, 39.205656 ] } },
{ "type": "Feature", "properties": { "ZIP": "21157", "address": "395 NORTH CENTER STREET", "borough": "WESTMINSTER", "state": "MD" }, "geometry": { "type": "Point", "coordinates": [ -76.982953, 39.574856 ] } },
{ "type": "Feature", "properties": { "ZIP": "21228", "address": "6600 BALTIMORE NATL PIKE", "borough": "BALTIMORE", "state": "MD" }, "geometry": { "type": "Point", "coordinates": [ -76.764, 39.286794 ] } },
{ "type": "Feature", "properties": { "ZIP": "03431", "address": "329 WINCHESTER ST.", "borough": "KEENE", "state": "NH" }, "geometry": { "type": "Point", "coordinates": [ -72.289615, 42.925401 ] } },
{ "type": "Feature", "properties": { "ZIP": "01760", "address": "355 WORCESTER ST", "borough": "NATICK", "state": "MA" }, "geometry": { "type": "Point", "coordinates": [ -71.339556, 42.30251 ] } },
{ "type": "Feature", "properties": { "ZIP": "14845", "address": "2123 GRAND CENTRAL AVE", "borough": "HORSEHEADS", "state": "NY" }, "geometry": { "type": "Point", "coordinates": [ -76.821839, 42.154779 ] } },
{ "type": "Feature", "properties": { "ZIP": "13413", "address": "8505 SENECA TPKE", "borough": "NEW HARTFORD", "state": "NY" }, "geometry": { "type": "Point", "coordinates": [ -75.319595, 43.08094 ] } },
{ "type": "Feature", "properties": { "ZIP": "13502", "address": "175 N. GENESSEE STREET", "borough": "UTICA", "state": "NY" }, "geometry": { "type": "Point", "coordinates": [ -75.219171, 43.110874 ] } },
{ "type": "Feature", "properties": { "ZIP": "21108", "address": "8203 VETERANS HWY", "borough": "MILLERSVILLE", "state": "MD" }, "geometry": { "type": "Point", "coordinates": [ -76.633521, 39.116747 ] } },
{ "type": "Feature", "properties": { "ZIP": "02375", "address": "588 WASHINGTON ST", "borough": "S.EASTON", "state": "MA" }, "geometry": { "type": "Point", "coordinates": [ -71.080959, 42.047666 ] } },
{ "type": "Feature", "properties": { "ZIP": "02379", "address": "707 WEST CENTER STREET", "borough": "W.BRIDGEWATER", "state": "MA" }, "geometry": { "type": "Point", "coordinates": [ -71.051081, 42.012435 ] } },
{ "type": "Feature", "properties": { "ZIP": "13495", "address": "315 ORISKANY BLVD", "borough": "YORKVILLE", "state": "NY" }, "geometry": { "type": "Point", "coordinates": [ -75.277244, 43.113673 ] } },
{ "type": "Feature", "properties": { "ZIP": "01754", "address": "115 POWDER MILL ROAD", "borough": "MAYNARD", "state": "MA" }, "geometry": { "type": "Point", "coordinates": [ -71.43487, 42.438554 ] } },
{ "type": "Feature", "properties": { "ZIP": "01432", "address": "2 BARNUM RD", "borough": "AYER", "state": "MA" }, "geometry": { "type": "Point", "coordinates": [ -71.572733, 42.551956 ] } },
{ "type": "Feature", "properties": { "ZIP": "21801", "address": "2710 N.SALISBURY BLVD", "borough": "SALISBURY", "state": "MD" }, "geometry": { "type": "Point", "coordinates": [ -75.566607, 38.416349 ] } },
{ "type": "Feature", "properties": { "ZIP": "17325", "address": "1268 YORK ROAD", "borough": "GETTYSBURG", "state": "PA" }, "geometry": { "type": "Point", "coordinates": [ -77.202878, 39.843625 ] } },
{ "type": "Feature", "properties": { "ZIP": "14903", "address": "830 COUNTY ROAD 64", "borough": "ELMIRA", "state": "NY" }, "geometry": { "type": "Point", "coordinates": [ -76.879865, 42.15413 ] } },
{ "type": "Feature", "properties": { "ZIP": "21401", "address": "1949 WEST ST.", "borough": "ANNAPOLIS", "state": "MD" }, "geometry": { "type": "Point", "coordinates": [ -76.527938, 38.980887 ] } },
{ "type": "Feature", "properties": { "ZIP": "20784", "address": "8308 ANNAPOLIS RD.", "borough": "NEW CARROLLTON", "state": "MD" }, "geometry": { "type": "Point", "coordinates": [ -76.528099, 38.980735 ] } },
{ "type": "Feature", "properties": { "ZIP": "02072", "address": "355 WASHINGTON ST.", "borough": "STOUGHTON", "state": "MA" }, "geometry": { "type": "Point", "coordinates": [ -71.102058, 42.136417 ] } },
{ "type": "Feature", "properties": { "ZIP": "21076", "address": "7057 ARUNDEL MILLS BLVD.", "borough": "HANOVER", "state": "MD" }, "geometry": { "type": "Point", "coordinates": [ -76.72769, 39.153237 ] } },
{ "type": "Feature", "properties": { "ZIP": "21075", "address": "7311 WASHINGTON BLVD.", "borough": "ELKRIDGE", "state": "MD" }, "geometry": { "type": "Point", "coordinates": [ -76.76387, 39.183101 ] } },
{ "type": "Feature", "properties": { "ZIP": "21401", "address": "153 DEFENSE HWY", "borough": "ANNAPOLIS", "state": "MD" }, "geometry": { "type": "Point", "coordinates": [ -76.556066, 38.984936 ] } },
{ "type": "Feature", "properties": { "ZIP": "02301", "address": "660 OAK STREET", "borough": "BROCKTON", "state": "MA" }, "geometry": { "type": "Point", "coordinates": [ -71.054318, 42.101185 ] } },
{ "type": "Feature", "properties": { "ZIP": "02301", "address": "1900 MAIN STREET", "borough": "BROCKTON", "state": "MA" }, "geometry": { "type": "Point", "coordinates": [ -71.010529, 42.047942 ] } },
{ "type": "Feature", "properties": { "ZIP": "21045", "address": "9150 RT 108", "borough": "COLUMBIA", "state": "MD" }, "geometry": { "type": "Point", "coordinates": [ -76.83059, 39.2349 ] } },
{ "type": "Feature", "properties": { "ZIP": "12804", "address": "714 UPPER GLEN STREET", "borough": "QUEENSBURY", "state": "NY" }, "geometry": { "type": "Point", "coordinates": [ -73.667723, 43.327758 ] } },
{ "type": "Feature", "properties": { "ZIP": "21045", "address": "6355 DOBBIN ROAD", "borough": "COLUMBIA", "state": "MD" }, "geometry": { "type": "Point", "coordinates": [ -76.819659, 39.197327 ] } },
{ "type": "Feature", "properties": { "ZIP": "17745", "address": "205 BELLEFONTE AVENUE", "borough": "LOCK HAVEN", "state": "PA" }, "geometry": { "type": "Point", "coordinates": [ -77.451527, 41.13582 ] } },
{ "type": "Feature", "properties": { "ZIP": "02368", "address": "14 CONDLIN DRIVE", "borough": "RANDOLPH", "state": "MA" }, "geometry": { "type": "Point", "coordinates": [ -71.046535, 42.167055 ] } },
{ "type": "Feature", "properties": { "ZIP": "21037", "address": "100 E CENTRAL AVE", "borough": "EDGEWATER", "state": "MD" }, "geometry": { "type": "Point", "coordinates": [ -76.566209, 38.92711 ] } },
{ "type": "Feature", "properties": { "ZIP": "02451", "address": "806 MAIN STREET", "borough": "WALTHAM", "state": "MA" }, "geometry": { "type": "Point", "coordinates": [ -71.242582, 42.376073 ] } },
{ "type": "Feature", "properties": { "ZIP": "13421", "address": "131 GENESSEE STREET", "borough": "ONEIDA", "state": "NY" }, "geometry": { "type": "Point", "coordinates": [ -75.643214, 43.078589 ] } },
{ "type": "Feature", "properties": { "ZIP": "21054", "address": "1064 MD ROUTE 3 N", "borough": "GAMBRILLS", "state": "MD" }, "geometry": { "type": "Point", "coordinates": [ -76.689093, 39.026898 ] } },
{ "type": "Feature", "properties": { "ZIP": "02382", "address": "362 BEDFORD STREET", "borough": "WHITMAN", "state": "MA" }, "geometry": { "type": "Point", "coordinates": [ -70.948458, 42.070596 ] } },
{ "type": "Feature", "properties": { "ZIP": "20723", "address": "8850 GORMAN ROAD", "borough": "LAUREL", "state": "MD" }, "geometry": { "type": "Point", "coordinates": [ -76.819268, 39.131507 ] } },
{ "type": "Feature", "properties": { "ZIP": "02131", "address": "530 AMERICAN LEGION HIGHWAY", "borough": "ROSLINDALE", "state": "MA" }, "geometry": { "type": "Point", "coordinates": [ -71.106576, 42.28721 ] } },
{ "type": "Feature", "properties": { "ZIP": "20724", "address": "3563 RUSSETT GRN", "borough": "LAUREL", "state": "MD" }, "geometry": { "type": "Point", "coordinates": [ -76.805112, 39.098977 ] } },
{ "type": "Feature", "properties": { "ZIP": "02351", "address": "373 CENTRE AVENUE", "borough": "ABINGTON", "state": "MA" }, "geometry": { "type": "Point", "coordinates": [ -70.930185, 42.110748 ] } },
{ "type": "Feature", "properties": { "ZIP": "21029", "address": "5801 CLARKSVILLE SQUARE DRIVE", "borough": "CLARKSVILLE", "state": "MD" }, "geometry": { "type": "Point", "coordinates": [ -76.938099, 39.211805 ] } },
{ "type": "Feature", "properties": { "ZIP": "14830", "address": "5 S BUFFALO ST.", "borough": "CORNING", "state": "NY" }, "geometry": { "type": "Point", "coordinates": [ -77.07929, 42.153459 ] } },
{ "type": "Feature", "properties": { "ZIP": "13440", "address": "401 ERIE BLVD", "borough": "ROME", "state": "NY" }, "geometry": { "type": "Point", "coordinates": [ -75.465016, 43.212756 ] } },
{ "type": "Feature", "properties": { "ZIP": "02170", "address": "191 NEWPORT AVE", "borough": "QUINCY", "state": "MA" }, "geometry": { "type": "Point", "coordinates": [ -71.023927, 42.269185 ] } },
{ "type": "Feature", "properties": { "ZIP": "02538", "address": "3025 CRANBERRY HWY", "borough": "E.WAREHAM", "state": "MA" }, "geometry": { "type": "Point", "coordinates": [ -70.659441, 41.757788 ] } },
{ "type": "Feature", "properties": { "ZIP": "20716", "address": "16400 HARBOUR WAY", "borough": "BOWIE", "state": "MD" }, "geometry": { "type": "Point", "coordinates": [ -76.719631, 38.949162 ] } },
{ "type": "Feature", "properties": { "ZIP": "02127", "address": "157-A MASSACHUSETTS AVENUE", "borough": "BOSTON", "state": "MA" }, "geometry": { "type": "Point", "coordinates": [ -71.087388, 42.346445 ] } },
{ "type": "Feature", "properties": { "ZIP": "20707", "address": "14050 BALTIMORE BLVD", "borough": "LAUREL", "state": "MD" }, "geometry": { "type": "Point", "coordinates": [ -76.863531, 39.082705 ] } },
{ "type": "Feature", "properties": { "ZIP": "02169", "address": "520 SOUTHERN ARTERY", "borough": "QUINCY", "state": "MA" }, "geometry": { "type": "Point", "coordinates": [ -70.994063, 42.253852 ] } },
{ "type": "Feature", "properties": { "ZIP": "01803", "address": "112 BURLINGTON MALL ROAD", "borough": "BURLINGTON", "state": "MA" }, "geometry": { "type": "Point", "coordinates": [ -71.217707, 42.485229 ] } },
{ "type": "Feature", "properties": { "ZIP": "02116", "address": "551 BOYLSTON STREET", "borough": "BOSTON", "state": "MA" }, "geometry": { "type": "Point", "coordinates": [ -71.07597, 42.35061 ] } },
{ "type": "Feature", "properties": { "ZIP": "17257", "address": "71 SOUTH CONESTOGA DRIVE", "borough": "SHIPPENSBURG", "state": "PA" }, "geometry": { "type": "Point", "coordinates": [ -77.496587, 40.06049 ] } },
{ "type": "Feature", "properties": { "ZIP": "03055", "address": "153 ELM ST", "borough": "MILFORD", "state": "NH" }, "geometry": { "type": "Point", "coordinates": [ -71.663718, 42.837419 ] } },
{ "type": "Feature", "properties": { "ZIP": "02110", "address": "71 SUMMER STREET", "borough": "BOSTON", "state": "MA" }, "geometry": { "type": "Point", "coordinates": [ -71.058979, 42.354239 ] } },
{ "type": "Feature", "properties": { "ZIP": "01862", "address": "312 BOSTON RD", "borough": "N.BILLERICA", "state": "MA" }, "geometry": { "type": "Point", "coordinates": [ -71.277155, 42.571979 ] } },
{ "type": "Feature", "properties": { "ZIP": "02360", "address": "45 COMMERCE WAY", "borough": "PLYMOUTH", "state": "MA" }, "geometry": { "type": "Point", "coordinates": [ -70.71527, 41.94867 ] } },
{ "type": "Feature", "properties": { "ZIP": "01851", "address": "1460 MIDDLESEX STREET", "borough": "LOWELL", "state": "MA" }, "geometry": { "type": "Point", "coordinates": [ -71.343863, 42.637592 ] } },
{ "type": "Feature", "properties": { "ZIP": "02339", "address": "1316 WASHINGTON ST", "borough": "HANOVER", "state": "MA" }, "geometry": { "type": "Point", "coordinates": [ -70.843775, 42.141839 ] } },
{ "type": "Feature", "properties": { "ZIP": "01851", "address": "436 CHELMSFORD ST", "borough": "LOWELL", "state": "MA" }, "geometry": { "type": "Point", "coordinates": [ -71.321981, 42.628008 ] } },
{ "type": "Feature", "properties": { "ZIP": "02155", "address": "330 MIDDLESEX AVE.", "borough": "MEDFORD", "state": "MA" }, "geometry": { "type": "Point", "coordinates": [ -71.079927, 42.414543 ] } },
{ "type": "Feature", "properties": { "ZIP": "03063", "address": "14 GUSABEL AVE", "borough": "NASHUA", "state": "NH" }, "geometry": { "type": "Point", "coordinates": [ -71.494795, 42.766603 ] } },
{ "type": "Feature", "properties": { "ZIP": "02228", "address": "LOGAN AIRPORT TERMINAL A 100 HOTEL DR", "borough": "E.BOSTON", "state": "MA" }, "geometry": { "type": "Point", "coordinates": [ -71.019197, 42.362034 ] } },
{ "type": "Feature", "properties": { "ZIP": "20904", "address": "13804 OUTLET DRIVE", "borough": "SILVER SPRING", "state": "MD" }, "geometry": { "type": "Point", "coordinates": [ -76.946759, 39.08283 ] } },
{ "type": "Feature", "properties": { "ZIP": "03063", "address": "631 AMHERST ST", "borough": "NASHUA", "state": "NH" }, "geometry": { "type": "Point", "coordinates": [ -71.540594, 42.803246 ] } },
{ "type": "Feature", "properties": { "ZIP": "02149", "address": "1724 REVERE BEACH PARKWAY", "borough": "EVERETT", "state": "MA" }, "geometry": { "type": "Point", "coordinates": [ -71.044118, 42.401833 ] } },
{ "type": "Feature", "properties": { "ZIP": "01801", "address": "303 MONTVALE AVE", "borough": "WOBURN", "state": "MA" }, "geometry": { "type": "Point", "coordinates": [ -71.120862, 42.479251 ] } },
{ "type": "Feature", "properties": { "ZIP": "03060", "address": "46 E. HOLLIS STREET", "borough": "NASHUA", "state": "NH" }, "geometry": { "type": "Point", "coordinates": [ -71.457819, 42.759338 ] } },
{ "type": "Feature", "properties": { "ZIP": "20706", "address": "9401 ANNAPOLIS ROAD", "borough": "LANHAM", "state": "MD" }, "geometry": { "type": "Point", "coordinates": [ -76.845752, 38.965193 ] } },
{ "type": "Feature", "properties": { "ZIP": "20705", "address": "10634 BALTIMORE BOULEVARD", "borough": "BELTSVILLE", "state": "MD" }, "geometry": { "type": "Point", "coordinates": [ -76.913369, 39.030917 ] } },
{ "type": "Feature", "properties": { "ZIP": "13214", "address": "3260 ERIE BLVD", "borough": "DE WITT", "state": "NY" }, "geometry": { "type": "Point", "coordinates": [ -76.072274, 43.049487 ] } },
{ "type": "Feature", "properties": { "ZIP": "01852", "address": "581 ROGERS ST", "borough": "LOWELL", "state": "MA" }, "geometry": { "type": "Point", "coordinates": [ -71.284191, 42.631449 ] } },
{ "type": "Feature", "properties": { "ZIP": "20770", "address": "7513 GREENBELT RD.", "borough": "GREENBELT", "state": "MD" }, "geometry": { "type": "Point", "coordinates": [ -76.878689, 38.9932 ] } },
{ "type": "Feature", "properties": { "ZIP": "02360", "address": "69 LONG POND DRIVE", "borough": "PLYMOUTH", "state": "MA" }, "geometry": { "type": "Point", "coordinates": [ -70.65735, 41.9285 ] } },
{ "type": "Feature", "properties": { "ZIP": "20705", "address": "11741 BELTSVILLE DR", "borough": "CALVERTON", "state": "MD" }, "geometry": { "type": "Point", "coordinates": [ -76.937447, 39.049731 ] } },
{ "type": "Feature", "properties": { "ZIP": "20774", "address": "8 WATKINS PARK DR", "borough": "KETTERING", "state": "MD" }, "geometry": { "type": "Point", "coordinates": [ -76.791226, 38.900106 ] } },
{ "type": "Feature", "properties": { "ZIP": "20770", "address": "6242 GREENBELT ROAD", "borough": "GREENBELT", "state": "MD" }, "geometry": { "type": "Point", "coordinates": [ -76.906657, 38.997447 ] } },
{ "type": "Feature", "properties": { "ZIP": "01826", "address": "5 ARLINGTON STREET", "borough": "DRACUT", "state": "MA" }, "geometry": { "type": "Point", "coordinates": [ -71.303075, 42.668876 ] } },
{ "type": "Feature", "properties": { "ZIP": "02151", "address": "42 FURLONG DRIVE", "borough": "REVERE", "state": "MA" }, "geometry": { "type": "Point", "coordinates": [ -70.999813, 42.39836 ] } },
{ "type": "Feature", "properties": { "ZIP": "02050", "address": "730 PLAIN STREET", "borough": "MARSHFIELD", "state": "MA" }, "geometry": { "type": "Point", "coordinates": [ -70.74646, 42.106567 ] } },
{ "type": "Feature", "properties": { "ZIP": "13206", "address": "3798 JAMES STREET", "borough": "SYRACUSE", "state": "NY" }, "geometry": { "type": "Point", "coordinates": [ -76.091073, 43.069096 ] } },
{ "type": "Feature", "properties": { "ZIP": "02151", "address": "39 SQUIRE ROAD", "borough": "REVERE", "state": "MA" }, "geometry": { "type": "Point", "coordinates": [ -71.006056, 42.422222 ] } },
{ "type": "Feature", "properties": { "ZIP": "20904", "address": "17 VITAL WAY", "borough": "SILVER SPRING", "state": "MD" }, "geometry": { "type": "Point", "coordinates": [ -77.00356, 39.07536 ] } },
{ "type": "Feature", "properties": { "ZIP": "20772", "address": "15400 CHRYSLER DRIVE", "borough": "UPPER MARLBORO", "state": "MD" }, "geometry": { "type": "Point", "coordinates": [ -76.738094, 38.818407 ] } },
{ "type": "Feature", "properties": { "ZIP": "01876", "address": "1665 ANDOVER STREET", "borough": "TEWKSBURY", "state": "MA" }, "geometry": { "type": "Point", "coordinates": [ -71.239356, 42.642501 ] } },
{ "type": "Feature", "properties": { "ZIP": "21788", "address": "303 TIPPIN DRIVE", "borough": "THURMONT", "state": "MD" }, "geometry": { "type": "Point", "coordinates": [ -77.420694, 39.615629 ] } },
{ "type": "Feature", "properties": { "ZIP": "20785", "address": "8211 LANDOVER RD.", "borough": "LANDOVER", "state": "MD" }, "geometry": { "type": "Point", "coordinates": [ -76.869046, 38.923125 ] } },
{ "type": "Feature", "properties": { "ZIP": "20737", "address": "6210 KENILWORTH AVENUE", "borough": "RIVERDALE", "state": "MD" }, "geometry": { "type": "Point", "coordinates": [ -76.919666, 38.962776 ] } },
{ "type": "Feature", "properties": { "ZIP": "20743", "address": "8715 CENTRAL AVENUE", "borough": "CAPITAL HTS.", "state": "MD" }, "geometry": { "type": "Point", "coordinates": [ -76.854125, 38.890155 ] } },
{ "type": "Feature", "properties": { "ZIP": "01864", "address": "52 MAIN STREET", "borough": "N.READING", "state": "MA" }, "geometry": { "type": "Point", "coordinates": [ -71.11016, 42.569873 ] } },
{ "type": "Feature", "properties": { "ZIP": "13208", "address": "2100 PARK STREET", "borough": "SYRACUSE", "state": "NY" }, "geometry": { "type": "Point", "coordinates": [ -76.167451, 43.072734 ] } },
{ "type": "Feature", "properties": { "ZIP": "17202", "address": "1658 LINCOLN WAY EAST", "borough": "CHAMBERSBURG", "state": "PA" }, "geometry": { "type": "Point", "coordinates": [ -77.61052, 39.923694 ] } },
{ "type": "Feature", "properties": { "ZIP": "20906", "address": "14012 CONNECTICUT_AVENUE", "borough": "SILVER SPRING", "state": "MD" }, "geometry": { "type": "Point", "coordinates": [ -77.076769, 39.08475 ] } },
{ "type": "Feature", "properties": { "ZIP": "20783", "address": "1461 UNIVERSITY BOULEVARD", "borough": "HYATTSVILLE", "state": "MD" }, "geometry": { "type": "Point", "coordinates": [ -76.981637, 38.98481 ] } },
{ "type": "Feature", "properties": { "ZIP": "13031", "address": "5309 W. GENESEE STREET", "borough": "CAMILLUS", "state": "NY" }, "geometry": { "type": "Point", "coordinates": [ -76.271806, 43.039996 ] } },
{ "type": "Feature", "properties": { "ZIP": "20879", "address": "18425 WOODFIELD ROAD", "borough": "GAITHERSBURG", "state": "MD" }, "geometry": { "type": "Point", "coordinates": [ -77.159165, 39.159756 ] } },
{ "type": "Feature", "properties": { "ZIP": "20782", "address": "6410 SARGENT ROAD", "borough": "HYATTSVILLE", "state": "MD" }, "geometry": { "type": "Point", "coordinates": [ -76.984073, 38.968311 ] } },
{ "type": "Feature", "properties": { "ZIP": "20902", "address": "11030 VIERS MILL ROAD", "borough": "WHEATON", "state": "MD" }, "geometry": { "type": "Point", "coordinates": [ -77.051707, 39.037111 ] } },
{ "type": "Feature", "properties": { "ZIP": "01901", "address": "377 LYNNWAY", "borough": "LYNN", "state": "MA" }, "geometry": { "type": "Point", "coordinates": [ -70.951364, 42.457405 ] } },
{ "type": "Feature", "properties": { "ZIP": "13212", "address": "3508 BREWERTON RD", "borough": "SYRACUSE", "state": "NY" }, "geometry": { "type": "Point", "coordinates": [ -76.145467, 43.113586 ] } },
{ "type": "Feature", "properties": { "ZIP": "20912", "address": "6823 NEW HAMPSHIRE AVE.", "borough": "TAKOMA PARK", "state": "MD" }, "geometry": { "type": "Point", "coordinates": [ -76.995425, 38.973734 ] } },
{ "type": "Feature", "properties": { "ZIP": "01904", "address": "116 BOSTON ST", "borough": "LYNN", "state": "MA" }, "geometry": { "type": "Point", "coordinates": [ -70.957579, 42.47472 ] } },
{ "type": "Feature", "properties": { "ZIP": "20019", "address": "4250 NANNIE HELEN BURROUGHS AVE", "borough": "WASHINGTON", "state": "DC" }, "geometry": { "type": "Point", "coordinates": [ -76.941591, 38.901862 ] } }
]
}
