{
"type": "FeatureCollection",
"crs": { "type": "name", "properties": { "name": "urn:ogc:def:crs:OGC:1.3:CRS84" } },
"features": [
{ "type": "Feature", "properties": { "ZIP": "10038-2708", "address": "106 Fulton St", "borough": "NEW YORK", "chain_name": "Burger King", "latitude": 40.709934, "longitude": -74.007328, "state": "NY" }, "geometry": { "type": "Point", "coordinates": [ -74.007328, 40.709934 ] } },
{ "type": "Feature", "properties": { "ZIP": "10006-1016", "address": "106 Liberty Street", "borough": "NEW YORK", "chain_name": "Burger King", "latitude": 40.709482, "longitude": -74.01164, "state": "NY" }, "geometry": { "type": "Point", "coordinates": [ -74.01164, 40.709482 ] } },
{ "type": "Feature", "properties": { "ZIP": "10007-1112", "address": "325 Broadway", "borough": "NEW YORK", "chain_name": "Burger King", "latitude": 40.718504, "longitude": -74.002503, "state": "NY" }, "geometry": { "type": "Point", "coordinates": [ -74.002503, 40.718504 ] } },
{ "type": "Feature", "properties": { "ZIP": "10004-2314", "address": "16 Beaver Street", "borough": "NEW YORK", "chain_name": "Burger King", "latitude": 40.705464, "longitude": -74.011004, "state": "NY" }, "geometry": { "type": "Point", "coordinates": [ -74.011004, 40.705464 ] } },
{ "type": "Feature", "properties": { "ZIP": "10002-3325", "address": "146 Delancey Street", "borough": "NEW YORK", "chain_name": "Burger King", "latitude": 40.718515, "longitude": -73.986759, "state": "NY" }, "geometry": { "type": "Point", "coordinates": [ -73.986759, 40.718515 ] } },
{ "type": "Feature", "properties": { "ZIP": "11201-5103", "address": "417-21 Fulton Street", "borough": "BROOKLYN", "chain_name": "Burger King", "latitude": 40.691965, "longitude": -73.98819, "state": "NY" }, "geometry": { "type": "Point", "coordinates": [ -73.98819, 40.691965 ] } },
{ "type": "Feature", "properties": { "ZIP": "11201-5308", "address": "522 Fulton St", "borough": "BROOKLYN", "chain_name": "Burger King", "latitude": 40.689284, "longitude": -73.981238, "state": "NY" }, "geometry": { "type": "Point", "coordinates": [ -73.981238, 40.689284 ] } },
{ "type": "Feature", "properties": { "ZIP": "10001-2105", "address": "1313 Broadway", "borough": "NEW YORK", "chain_name": "Burger King", "latitude": 40.749982, "longitude": -73.987591, "state": "NY" }, "geometry": { "type": "Point", "coordinates": [ -73.987591, 40.749982 ] } },
{ "type": "Feature", "properties": { "ZIP": "10018-7673", "address": "474 7th Avenue", "borough": "NEW YORK", "chain_name": "Burger King", "latitude": 40.752385, "longitude": -73.989938, "state": "NY" }, "geometry": { "type": "Point", "coordinates": [ -73.989938, 40.752385 ] } },
{ "type": "Feature", "properties": { "ZIP": "10036-6913", "address": "327 West 42nd Street", "borough": "NEW YORK", "chain_name": "Burger King", "latitude": 40.75765, "longitude": -73.991238, "state": "NY" }, "geometry": { "type": "Point", "coordinates": [ -73.991238, 40.75765 ] } },
{ "type": "Feature", "properties": { "ZIP": "11206-4403", "address": "736 Broadway", "borough": "BROOKLYN", "chain_name": "Burger King", "latitude": 40.700885, "longitude": -73.942545, "state": "NY" }, "geometry": { "type": "Point", "coordinates": [ -73.942545, 40.700885 ] } },
{ "type": "Feature", "properties": { "ZIP": "11216-2149", "address": "1297 Fulton St", "borough": "BROOKLYN", "chain_name": "Burger King", "latitude": 40.680531, "longitude": -73.949369, "state": "NY" }, "geometry": { "type": "Point", "coordinates": [ -73.949369, 40.680531 ] } },
{ "type": "Feature", "properties": { "ZIP": "11232-3501", "address": "4101 4th Avenue", "borough": "BROOKLYN", "chain_name": "Burger King", "latitude": 40.651497, "longitude": -74.007204, "state": "NY" }, "geometry": { "type": "Point", "coordinates": [ -74.007204, 40.651497 ] } },
{ "type": "Feature", "properties": { "ZIP": "11225-3326", "address": "1727 Bedford Ave", "borough": "BROOKLYN", "chain_name": "Burger King", "latitude": 40.663893, "longitude": -73.956935, "state": "NY" }, "geometry": { "type": "Point", "coordinates": [ -73.956935, 40.663893 ] } },
{ "type": "Feature", "properties": { "ZIP": "11237-5136", "address": "1412 Myrtle Avenue", "borough": "BROOKLYN", "chain_name": "Burger King", "latitude": 40.698657, "longitude": -73.918875, "state": "NY" }, "geometry": { "type": "Point", "coordinates": [ -73.918875, 40.698657 ] } },
{ "type": "Feature", "properties": { "ZIP": "11218-2105", "address": "3301 Ft. Hamilton Pkwy.", "borough": "BROOKLYN", "chain_name": "Burger King", "latitude": 40.647061, "longitude": -73.981569, "state": "NY" }, "geometry": { "type": "Point", "coordinates": [ -73.981569, 40.647061 ] } },
{ "type": "Feature", "properties": { "ZIP": "11252-0000", "address": "BLDG 123-Ft. Hamilton", "borough": "FORT HAMILTON", "chain_name": "Burger King", "latitude": 40.644102, "longitude": -74.012192, "state": "NY" }, "geometry": { "type": "Point", "coordinates": [ -74.012192, 40.644102 ] } },
{ "type": "Feature", "properties": { "ZIP": "11104-3301", "address": "40-15 Queens Blvd.", "borough": "SUNNYSIDE", "chain_name": "Burger King", "latitude": 40.744064, "longitude": -73.923472, "state": "NY" }, "geometry": { "type": "Point", "coordinates": [ -73.923472, 40.744064 ] } },
{ "type": "Feature", "properties": { "ZIP": "11226-4019", "address": "971 Flatbush Avenue", "borough": "BROOKLYN", "chain_name": "Burger King", "latitude": 40.64736, "longitude": -73.958049, "state": "NY" }, "geometry": { "type": "Point", "coordinates": [ -73.958049, 40.64736 ] } },
{ "type": "Feature", "properties": { "ZIP": "11226", "address": "2848 Church Ave", "borough": "Brooklyn", "chain_name": "Burger King", "latitude": 40.650804, "longitude": -73.94967, "state": "NY" }, "geometry": { "type": "Point", "coordinates": [ -73.94967, 40.650804 ] } },
{ "type": "Feature", "properties": { "ZIP": "11106-4239", "address": "3310 21st St", "borough": "ASTORIA", "chain_name": "Burger King", "latitude": 40.764543, "longitude": -73.932567, "state": "NY" }, "geometry": { "type": "Point", "coordinates": [ -73.932567, 40.764543 ] } },
{ "type": "Feature", "properties": { "ZIP": "10028-3005", "address": "226 East 86th Street", "borough": "NEW YORK", "chain_name": "Burger King", "latitude": 40.778643, "longitude": -73.952753, "state": "NY" }, "geometry": { "type": "Point", "coordinates": [ -73.952753, 40.778643 ] } },
{ "type": "Feature", "properties": { "ZIP": "11385-4932", "address": "57-18 Myrtle Avenue", "borough": "RIDGEWOOD", "chain_name": "Burger King", "latitude": 40.70031, "longitude": -73.90304, "state": "NY" }, "geometry": { "type": "Point", "coordinates": [ -73.90304, 40.70031 ] } },
{ "type": "Feature", "properties": { "ZIP": "11379-1601", "address": "6626 Metropolitan Avenue", "borough": "MIDDLE VILLAGE", "chain_name": "Burger King", "latitude": 40.709977, "longitude": -73.892108, "state": "NY" }, "geometry": { "type": "Point", "coordinates": [ -73.892108, 40.709977 ] } },
{ "type": "Feature", "properties": { "ZIP": "11219-0000", "address": "6413 14th Avenue", "borough": "BROOKLYN", "chain_name": "Burger King", "latitude": 40.6246, "longitude": -73.99901, "state": "NY" }, "geometry": { "type": "Point", "coordinates": [ -73.99901, 40.6246 ] } },
{ "type": "Feature", "properties": { "ZIP": "11103-4412", "address": "3310 Astoria Blvd", "borough": "ASTORIA", "chain_name": "Burger King", "latitude": 40.769572, "longitude": -73.916548, "state": "NY" }, "geometry": { "type": "Point", "coordinates": [ -73.916548, 40.769572 ] } },
{ "type": "Feature", "properties": { "ZIP": "11236-1007", "address": "9006 Church Avenue", "borough": "BROOKLYN", "chain_name": "Burger King", "latitude": 40.652668, "longitude": -73.91972, "state": "NY" }, "geometry": { "type": "Point", "coordinates": [ -73.91972, 40.652668 ] } },
{ "type": "Feature", "properties": { "ZIP": "10029-4901", "address": "1886 3rd Ave", "borough": "NEW YORK", "chain_name": "Burger King", "latitude": 40.790382, "longitude": -73.946109, "state": "NY" }, "geometry": { "type": "Point", "coordinates": [ -73.946109, 40.790382 ] } },
{ "type": "Feature", "properties": { "ZIP": "11210-2901", "address": "13 Hillel Place", "borough": "BROOKLYN", "chain_name": "Burger King", "latitude": 40.632631, "longitude": -73.948156, "state": "NY" }, "geometry": { "type": "Point", "coordinates": [ -73.948156, 40.632631 ] } },
{ "type": "Feature", "properties": { "ZIP": "11377-2244", "address": "6815 Northern Blvd", "borough": "WOODSIDE", "chain_name": "Burger King", "latitude": 40.754459, "longitude": -73.897557, "state": "NY" }, "geometry": { "type": "Point", "coordinates": [ -73.897557, 40.754459 ] } },
{ "type": "Feature", "properties": { "ZIP": "11209-4704", "address": "8516 5th Avenue", "borough": "BROOKLYN", "chain_name": "Burger King", "latitude": 40.621722, "longitude": -74.025869, "state": "NY" }, "geometry": { "type": "Point", "coordinates": [ -74.025869, 40.621722 ] } },
{ "type": "Feature", "properties": { "ZIP": "11212-6900", "address": "1663 Linden Blvd", "borough": "BROOKLYN", "chain_name": "Burger King", "latitude": 40.65739, "longitude": -73.900547, "state": "NY" }, "geometry": { "type": "Point", "coordinates": [ -73.900547, 40.65739 ] } },
{ "type": "Feature", "properties": { "ZIP": "11236-3109", "address": "8002 Foster Avenue", "borough": "BROOKLYN", "chain_name": "Burger King", "latitude": 40.640553, "longitude": -73.91834, "state": "NY" }, "geometry": { "type": "Point", "coordinates": [ -73.91834, 40.640553 ] } },
{ "type": "Feature", "properties": { "ZIP": "10029-1301", "address": "154 East 116 Street", "borough": "NEW YORK", "chain_name": "Burger King", "latitude": 40.798858, "longitude": -73.942517, "state": "NY" }, "geometry": { "type": "Point", "coordinates": [ -73.942517, 40.798858 ] } },
{ "type": "Feature", "properties": { "ZIP": "11372-7031", "address": "37-07 82nd Street", "borough": "JACKSON HEIGHTS", "chain_name": "Burger King", "latitude": 40.749519, "longitude": -73.884163, "state": "NY" }, "geometry": { "type": "Point", "coordinates": [ -73.884163, 40.749519 ] } },
{ "type": "Feature", "properties": { "ZIP": "11207-7014", "address": "1940 Linden Boulevard", "borough": "BROOKLYN", "chain_name": "Burger King", "latitude": 40.658453, "longitude": -73.89002, "state": "NY" }, "geometry": { "type": "Point", "coordinates": [ -73.89002, 40.658453 ] } },
{ "type": "Feature", "properties": { "ZIP": "11220-2709", "address": "5212-15 5th Avenue", "borough": "BROOKLYN", "chain_name": "Burger King", "latitude": 40.609155, "longitude": -74.028761, "state": "NY" }, "geometry": { "type": "Point", "coordinates": [ -74.028761, 40.609155 ] } },
{ "type": "Feature", "properties": { "ZIP": "10027-4403", "address": "130 West 125th Street", "borough": "NEW YORK", "chain_name": "Burger King", "latitude": 40.808569, "longitude": -73.947043, "state": "NY" }, "geometry": { "type": "Point", "coordinates": [ -73.947043, 40.808569 ] } },
{ "type": "Feature", "properties": { "ZIP": "11374-1028", "address": "92-85 Queens Boulevard", "borough": "REGO PARK", "chain_name": "Burger King", "latitude": 40.732081, "longitude": -73.86633, "state": "NY" }, "geometry": { "type": "Point", "coordinates": [ -73.86633, 40.732081 ] } },
{ "type": "Feature", "properties": { "ZIP": "11230", "address": "1935 Coney Island Avenue", "borough": "Brooklyn", "chain_name": "Burger King", "latitude": 40.61026, "longitude": -73.96204, "state": "NY" }, "geometry": { "type": "Point", "coordinates": [ -73.96204, 40.61026 ] } },
{ "type": "Feature", "properties": { "ZIP": "11369-1529", "address": "91-18 Astoria Blvd.", "borough": "EAST ELMHURST", "chain_name": "Burger King", "latitude": 40.763093, "longitude": -73.877984, "state": "NY" }, "geometry": { "type": "Point", "coordinates": [ -73.877984, 40.763093 ] } },
{ "type": "Feature", "properties": { "ZIP": "11368-1741", "address": "3712 Junction Blvd", "borough": "CORONA", "chain_name": "Burger King", "latitude": 40.751207, "longitude": -73.870856, "state": "NY" }, "geometry": { "type": "Point", "coordinates": [ -73.870856, 40.751207 ] } },
{ "type": "Feature", "properties": { "ZIP": "11208-3260", "address": "624 S. Conduit Blvd.", "borough": "BROOKLYN", "chain_name": "Burger King", "latitude": 40.675751, "longitude": -73.866924, "state": "NY" }, "geometry": { "type": "Point", "coordinates": [ -73.866924, 40.675751 ] } },
{ "type": "Feature", "properties": { "ZIP": "11214-3213", "address": "2164 - 86th Street", "borough": "BROOKLYN", "chain_name": "Burger King", "latitude": 40.601199, "longitude": -73.994725, "state": "NY" }, "geometry": { "type": "Point", "coordinates": [ -73.994725, 40.601199 ] } },
{ "type": "Feature", "properties": { "ZIP": "11236-5006", "address": "1772 Rockaway Parkway", "borough": "BROOKLYN", "chain_name": "Burger King", "latitude": 40.638143, "longitude": -73.895112, "state": "NY" }, "geometry": { "type": "Point", "coordinates": [ -73.895112, 40.638143 ] } },
{ "type": "Feature", "properties": { "ZIP": "11234-4640", "address": "23-43 Utica Avenue", "borough": "BROOKLYN", "chain_name": "Burger King", "latitude": 40.614001, "longitude": -73.926396, "state": "NY" }, "geometry": { "type": "Point", "coordinates": [ -73.926396, 40.614001 ] } },
{ "type": "Feature", "properties": { "ZIP": "10451-5201", "address": "557 Grand Concourse", "borough": "BRONX", "chain_name": "Burger King", "latitude": 40.815282, "longitude": -73.929154, "state": "NY" }, "geometry": { "type": "Point", "coordinates": [ -73.929154, 40.815282 ] } },
{ "type": "Feature", "properties": { "ZIP": "11223-5021", "address": "2425 Coney Island Avenue", "borough": "BROOKLYN", "chain_name": "Burger King", "latitude": 40.597666, "longitude": -73.960731, "state": "NY" }, "geometry": { "type": "Point", "coordinates": [ -73.960731, 40.597666 ] } },
{ "type": "Feature", "properties": { "ZIP": "11368-2314", "address": "3924 104th St", "borough": "CORONA", "chain_name": "Burger King", "latitude": 40.749573, "longitude": -73.854837, "state": "NY" }, "geometry": { "type": "Point", "coordinates": [ -73.854837, 40.749573 ] } },
{ "type": "Feature", "properties": { "ZIP": "11416-1517", "address": "92-02 Atlantic Ave.", "borough": "OZONE PARK", "chain_name": "Burger King", "latitude": 40.687615, "longitude": -73.850456, "state": "NY" }, "geometry": { "type": "Point", "coordinates": [ -73.850456, 40.687615 ] } },
{ "type": "Feature", "properties": { "ZIP": "11229", "address": "2228 Gerritsen Avenue", "borough": "Brooklyn", "chain_name": "Burger King", "latitude": 40.6012, "longitude": -73.93446, "state": "NY" }, "geometry": { "type": "Point", "coordinates": [ -73.93446, 40.6012 ] } },
{ "type": "Feature", "properties": { "ZIP": "10451-3541", "address": "216 E 161st St", "borough": "BRONX", "chain_name": "Burger King", "latitude": 40.825027, "longitude": -73.920953, "state": "NY" }, "geometry": { "type": "Point", "coordinates": [ -73.920953, 40.825027 ] } },
{ "type": "Feature", "properties": { "ZIP": "11416-0000", "address": "105 Rockaway Blvd", "borough": "QUEENS", "chain_name": "Burger King", "latitude": 40.678621, "longitude": -73.834195, "state": "NY" }, "geometry": { "type": "Point", "coordinates": [ -73.834195, 40.678621 ] } },
{ "type": "Feature", "properties": { "ZIP": "11224", "address": "1702 Neptune Ave", "borough": "Brooklyn", "chain_name": "Burger King", "latitude": 40.57863, "longitude": -73.985664, "state": "NY" }, "geometry": { "type": "Point", "coordinates": [ -73.985664, 40.57863 ] } },
{ "type": "Feature", "properties": { "ZIP": "10302-2220", "address": "20 Willowbrook Road", "borough": "STATEN ISLAND", "chain_name": "Burger King", "latitude": 40.624531, "longitude": -74.144566, "state": "NY" }, "geometry": { "type": "Point", "coordinates": [ -74.144566, 40.624531 ] } },
{ "type": "Feature", "properties": { "ZIP": "10305-1909", "address": "1565 Hylan Boulevard", "borough": "STATEN ISLAND", "chain_name": "Burger King", "latitude": 40.590613, "longitude": -74.088733, "state": "NY" }, "geometry": { "type": "Point", "coordinates": [ -74.088733, 40.590613 ] } },
{ "type": "Feature", "properties": { "ZIP": "10314-2861", "address": "950 Jewett Avenue", "borough": "STATEN ISLAND", "chain_name": "Burger King", "latitude": 40.612972, "longitude": -74.13087, "state": "NY" }, "geometry": { "type": "Point", "coordinates": [ -74.13087, 40.612972 ] } },
{ "type": "Feature", "properties": { "ZIP": "10459-3401", "address": "977 Southern Blvd", "borough": "BRONX", "chain_name": "Burger King", "latitude": 40.822087, "longitude": -73.89181, "state": "NY" }, "geometry": { "type": "Point", "coordinates": [ -73.89181, 40.822087 ] } },
{ "type": "Feature", "properties": { "ZIP": "11414-0000", "address": "161 Cross Bay Boulevard", "borough": "HOWARD BEACH", "chain_name": "Burger King", "latitude": 40.654491, "longitude": -73.838973, "state": "NY" }, "geometry": { "type": "Point", "coordinates": [ -73.838973, 40.654491 ] } },
{ "type": "Feature", "properties": { "ZIP": "11418-1837", "address": "131-10 Hillside Avenue", "borough": "JAMAICA", "chain_name": "Burger King", "latitude": 40.703486, "longitude": -73.8211, "state": "NY" }, "geometry": { "type": "Point", "coordinates": [ -73.8211, 40.703486 ] } },
{ "type": "Feature", "properties": { "ZIP": "11419-2118", "address": "12002 Liberty Ave", "borough": "SOUTH RICHMOND HILL", "chain_name": "Burger King", "latitude": 40.68645, "longitude": -73.823133, "state": "NY" }, "geometry": { "type": "Point", "coordinates": [ -73.823133, 40.68645 ] } },
{ "type": "Feature", "properties": { "ZIP": "11354-5430", "address": "39-20 Main Street", "borough": "FLUSHING", "chain_name": "Burger King", "latitude": 40.759806, "longitude": -73.829969, "state": "NY" }, "geometry": { "type": "Point", "coordinates": [ -73.829969, 40.759806 ] } },
{ "type": "Feature", "properties": { "ZIP": "10033-4021", "address": "1419 Saint Nicholas Avenue", "borough": "NEW YORK", "chain_name": "Burger King", "latitude": 40.843937, "longitude": -73.93322, "state": "NY" }, "geometry": { "type": "Point", "coordinates": [ -73.93322, 40.843937 ] } },
{ "type": "Feature", "properties": { "ZIP": "11366-1236", "address": "164-17 Union Turnpike", "borough": "FLUSHING", "chain_name": "Burger King", "latitude": 40.72199, "longitude": -73.803849, "state": "NY" }, "geometry": { "type": "Point", "coordinates": [ -73.803849, 40.72199 ] } },
{ "type": "Feature", "properties": { "ZIP": "10472-2914", "address": "1607 Westchester Ave", "borough": "BRONX", "chain_name": "Burger King", "latitude": 40.829787, "longitude": -73.874671, "state": "NY" }, "geometry": { "type": "Point", "coordinates": [ -73.874671, 40.829787 ] } },
{ "type": "Feature", "properties": { "ZIP": "10460-5060", "address": "961 E 174th St", "borough": "BRONX", "chain_name": "Burger King", "latitude": 40.837932, "longitude": -73.883098, "state": "NY" }, "geometry": { "type": "Point", "coordinates": [ -73.883098, 40.837932 ] } },
{ "type": "Feature", "properties": { "ZIP": "10457-4239", "address": "400 East Tremont Avenue", "borough": "BRONX", "chain_name": "Burger King", "latitude": 40.847438, "longitude": -73.900815, "state": "NY" }, "geometry": { "type": "Point", "coordinates": [ -73.900815, 40.847438 ] } },
{ "type": "Feature", "properties": { "ZIP": "10472-6599", "address": "1851-59 Bruckner Boulevard", "borough": "BRONX", "chain_name": "Burger King", "latitude": 40.826068, "longitude": -73.862483, "state": "NY" }, "geometry": { "type": "Point", "coordinates": [ -73.862483, 40.826068 ] } },
{ "type": "Feature", "properties": { "ZIP": "11432-6002", "address": "159-29 Jamaica Avenue", "borough": "JAMAICA", "chain_name": "Burger King", "latitude": 40.70299, "longitude": -73.798817, "state": "NY" }, "geometry": { "type": "Point", "coordinates": [ -73.798817, 40.70299 ] } },
{ "type": "Feature", "properties": { "ZIP": "10453-1802", "address": "2036 Jerome Ave # 48", "borough": "BRONX", "chain_name": "Burger King", "latitude": 40.852265, "longitude": -73.908432, "state": "NY" }, "geometry": { "type": "Point", "coordinates": [ -73.908432, 40.852265 ] } },
{ "type": "Feature", "properties": { "ZIP": "10466-3023", "address": "4275 White Plains Road", "borough": "BRONX", "chain_name": "Burger King", "latitude": 40.826934, "longitude": -73.860257, "state": "NY" }, "geometry": { "type": "Point", "coordinates": [ -73.860257, 40.826934 ] } },
{ "type": "Feature", "properties": { "ZIP": "11439-0000", "address": "St. John's University", "borough": "JAMAICA", "chain_name": "Burger King", "latitude": 40.723735, "longitude": -73.795483, "state": "NY" }, "geometry": { "type": "Point", "coordinates": [ -73.795483, 40.723735 ] } },
{ "type": "Feature", "properties": { "ZIP": "10462-6601", "address": "60 Metropolitan Oval", "borough": "BRONX", "chain_name": "Burger King", "latitude": 40.837413, "longitude": -73.860296, "state": "NY" }, "geometry": { "type": "Point", "coordinates": [ -73.860296, 40.837413 ] } },
{ "type": "Feature", "properties": { "ZIP": "11432-4632", "address": "179-08 Hillside Avenue", "borough": "JAMAICA", "chain_name": "Burger King", "latitude": 40.712221, "longitude": -73.78402, "state": "NY" }, "geometry": { "type": "Point", "coordinates": [ -73.78402, 40.712221 ] } },
{ "type": "Feature", "properties": { "ZIP": "10306-4600", "address": "2800 Hylan Blvd.", "borough": "STATEN ISLAND", "chain_name": "Burger King", "latitude": 40.564035, "longitude": -74.115421, "state": "NY" }, "geometry": { "type": "Point", "coordinates": [ -74.115421, 40.564035 ] } },
{ "type": "Feature", "properties": { "ZIP": "10458-5006", "address": "215\/213 East Fordham Road", "borough": "BRONX", "chain_name": "Burger King", "latitude": 40.862569, "longitude": -73.896334, "state": "NY" }, "geometry": { "type": "Point", "coordinates": [ -73.896334, 40.862569 ] } },
{ "type": "Feature", "properties": { "ZIP": "10452-3317", "address": "1380 Jerome Avenue", "borough": "BRONX", "chain_name": "Burger King", "latitude": 40.849265, "longitude": -73.866344, "state": "NY" }, "geometry": { "type": "Point", "coordinates": [ -73.866344, 40.849265 ] } },
{ "type": "Feature", "properties": { "ZIP": "10455-2848", "address": "521 E 149th St", "borough": "BRONX", "chain_name": "Burger King", "latitude": 40.84985, "longitude": -73.86641, "state": "NY" }, "geometry": { "type": "Point", "coordinates": [ -73.86641, 40.84985 ] } },
{ "type": "Feature", "properties": { "ZIP": "11434-3633", "address": "15405 Rockaway Blvd", "borough": "JAMAICA", "chain_name": "Burger King", "latitude": 40.667825, "longitude": -73.780843, "state": "NY" }, "geometry": { "type": "Point", "coordinates": [ -73.780843, 40.667825 ] } },
{ "type": "Feature", "properties": { "ZIP": "10314-5803", "address": "2557 Richmond Avenue", "borough": "STATEN ISLAND", "chain_name": "Burger King", "latitude": 40.585465, "longitude": -74.1682, "state": "NY" }, "geometry": { "type": "Point", "coordinates": [ -74.1682, 40.585465 ] } },
{ "type": "Feature", "properties": { "ZIP": "10462-1405", "address": "2179 White Plains Road", "borough": "BRONX", "chain_name": "Burger King", "latitude": 40.85574, "longitude": -73.867827, "state": "NY" }, "geometry": { "type": "Point", "coordinates": [ -73.867827, 40.85574 ] } },
{ "type": "Feature", "properties": { "ZIP": "10314-5821", "address": "2655 Richmond Avenue", "borough": "STATEN ISLAND", "chain_name": "Burger King", "latitude": 40.58162, "longitude": -74.166226, "state": "NY" }, "geometry": { "type": "Point", "coordinates": [ -74.166226, 40.58162 ] } },
{ "type": "Feature", "properties": { "ZIP": "10461-5432", "address": "1590 Hutchinson River Parkway", "borough": "BRONX", "chain_name": "Burger King", "latitude": 40.843139, "longitude": -73.836498, "state": "NY" }, "geometry": { "type": "Point", "coordinates": [ -73.836498, 40.843139 ] } },
{ "type": "Feature", "properties": { "ZIP": "11361-3640", "address": "222-10 Northern Boulevard", "borough": "BAYSIDE", "chain_name": "Burger King", "latitude": 40.761356, "longitude": -73.75979, "state": "NY" }, "geometry": { "type": "Point", "coordinates": [ -73.75979, 40.761356 ] } },
{ "type": "Feature", "properties": { "ZIP": "10467", "address": "3440 Jerome Avenue", "borough": "Bronx", "chain_name": "Burger King", "latitude": 40.881314, "longitude": -73.881645, "state": "NY" }, "geometry": { "type": "Point", "coordinates": [ -73.881645, 40.881314 ] } },
{ "type": "Feature", "properties": { "ZIP": "10461", "address": "3261 Westchester Avenue", "borough": "Bronx", "chain_name": "Burger King", "latitude": 40.852604, "longitude": -73.82805, "state": "NY" }, "geometry": { "type": "Point", "coordinates": [ -73.82805, 40.852604 ] } },
{ "type": "Feature", "properties": { "ZIP": "11413-1407", "address": "21603 Merrick Blvd", "borough": "LAURELTON", "chain_name": "Burger King", "latitude": 40.680189, "longitude": -73.75281, "state": "NY" }, "geometry": { "type": "Point", "coordinates": [ -73.75281, 40.680189 ] } },
{ "type": "Feature", "properties": { "ZIP": "10471-4102", "address": "6007 Broadway", "borough": "BRONX", "chain_name": "Burger King", "latitude": 40.890879, "longitude": -73.897869, "state": "NY" }, "geometry": { "type": "Point", "coordinates": [ -73.897869, 40.890879 ] } },
{ "type": "Feature", "properties": { "ZIP": "11427-1949", "address": "217-10 Hillside Avenue", "borough": "QUEENS VILLAGE", "chain_name": "Burger King", "latitude": 40.728183, "longitude": -73.746838, "state": "NY" }, "geometry": { "type": "Point", "coordinates": [ -73.746838, 40.728183 ] } },
{ "type": "Feature", "properties": { "ZIP": "11362-0000", "address": "242-10 61st Avenue", "borough": "DOUGLASTON", "chain_name": "Burger King", "latitude": 40.755106, "longitude": -73.739205, "state": "NY" }, "geometry": { "type": "Point", "coordinates": [ -73.739205, 40.755106 ] } },
{ "type": "Feature", "properties": { "ZIP": "10312-5110", "address": "3901 Richmond Avenue", "borough": "STATEN ISLAND", "chain_name": "Burger King", "latitude": 40.543377, "longitude": -74.164054, "state": "NY" }, "geometry": { "type": "Point", "coordinates": [ -74.164054, 40.543377 ] } },
{ "type": "Feature", "properties": { "ZIP": "10475-0000", "address": "Co-Op City", "borough": "BRONX", "chain_name": "Burger King", "latitude": 40.86919, "longitude": -73.825477, "state": "NY" }, "geometry": { "type": "Point", "coordinates": [ -73.825477, 40.86919 ] } },
{ "type": "Feature", "properties": { "ZIP": "11003-3920", "address": "239-25 Linden Boulevard", "borough": "ELMONT", "chain_name": "Burger King", "latitude": 40.690417, "longitude": -73.72361, "state": "NY" }, "geometry": { "type": "Point", "coordinates": [ -73.72361, 40.690417 ] } },
{ "type": "Feature", "properties": { "ZIP": "11559-1029", "address": "665 Rockaway Turnpike", "borough": "LAWRENCE", "chain_name": "Burger King", "latitude": 40.633251, "longitude": -73.739514, "state": "NY" }, "geometry": { "type": "Point", "coordinates": [ -73.739514, 40.633251 ] } },
{ "type": "Feature", "properties": { "ZIP": "11004-1621", "address": "258-10 Hillside Avenue", "borough": "FLORAL PARK", "chain_name": "Burger King", "latitude": 40.736754, "longitude": -73.709541, "state": "NY" }, "geometry": { "type": "Point", "coordinates": [ -73.709541, 40.736754 ] } },
{ "type": "Feature", "properties": { "ZIP": "11580-5514", "address": "181 West Merrick Road", "borough": "VALLEY STREAM", "chain_name": "Burger King", "latitude": 40.667044, "longitude": -73.70411, "state": "NY" }, "geometry": { "type": "Point", "coordinates": [ -73.70411, 40.667044 ] } },
{ "type": "Feature", "properties": { "ZIP": "10550", "address": "515 South Columbus Avenue \/ 20 Colonial Place", "borough": "Mount Vernon", "chain_name": "Burger King", "latitude": 40.900726, "longitude": -73.820404, "state": "NY" }, "geometry": { "type": "Point", "coordinates": [ -73.820404, 40.900726 ] } },
{ "type": "Feature", "properties": { "ZIP": "10701-4038", "address": "53 S Broadway", "borough": "YONKERS", "chain_name": "Burger King", "latitude": 40.935012, "longitude": -73.897933, "state": "NY" }, "geometry": { "type": "Point", "coordinates": [ -73.897933, 40.935012 ] } },
{ "type": "Feature", "properties": { "ZIP": "10704-1057", "address": "826 Central Park Avenue", "borough": "YONKERS", "chain_name": "Burger King", "latitude": 40.929205, "longitude": -73.857467, "state": "NY" }, "geometry": { "type": "Point", "coordinates": [ -73.857467, 40.929205 ] } },
{ "type": "Feature", "properties": { "ZIP": "10307", "address": "245 Page Avenue", "borough": "Staten Island", "chain_name": "Burger King", "latitude": 40.518446, "longitude": -74.234247, "state": "NY" }, "geometry": { "type": "Point", "coordinates": [ -74.234247, 40.518446 ] } },
{ "type": "Feature", "properties": { "ZIP": "11050-2222", "address": "5 Old Shore Road", "borough": "PORT WASHINGTON", "chain_name": "Burger King", "latitude": 40.838752, "longitude": -73.703019, "state": "NY" }, "geometry": { "type": "Point", "coordinates": [ -73.703019, 40.838752 ] } },
{ "type": "Feature", "properties": { "ZIP": "10801", "address": "33 Lecount Place", "borough": "New Rochelle", "chain_name": "Burger King", "latitude": 40.911297, "longitude": -73.77991, "state": "NY" }, "geometry": { "type": "Point", "coordinates": [ -73.77991, 40.911297 ] } },
{ "type": "Feature", "properties": { "ZIP": "11040-4709", "address": "2351 Jericho Tpke", "borough": "GARDEN CITY PARK", "chain_name": "Burger King", "latitude": 40.741584, "longitude": -73.661007, "state": "NY" }, "geometry": { "type": "Point", "coordinates": [ -73.661007, 40.741584 ] } },
{ "type": "Feature", "properties": { "ZIP": "11552-1330", "address": "340 Hempstead Turnpike", "borough": "WEST HEMPSTEAD", "chain_name": "Burger King", "latitude": 40.705278, "longitude": -73.651425, "state": "NY" }, "geometry": { "type": "Point", "coordinates": [ -73.651425, 40.705278 ] } },
{ "type": "Feature", "properties": { "ZIP": "11550-3719", "address": "150 Fulton Avenue", "borough": "HEMPSTEAD", "chain_name": "Burger King", "latitude": 40.706198, "longitude": -73.631017, "state": "NY" }, "geometry": { "type": "Point", "coordinates": [ -73.631017, 40.706198 ] } },
{ "type": "Feature", "properties": { "ZIP": "11572-4110", "address": "3190 Long Beach Road", "borough": "OCEANSIDE", "chain_name": "Burger King", "latitude": 40.634486, "longitude": -73.641106, "state": "NY" }, "geometry": { "type": "Point", "coordinates": [ -73.641106, 40.634486 ] } },
{ "type": "Feature", "properties": { "ZIP": "11561-3504", "address": "2 East Park Avenue", "borough": "LONG BEACH", "chain_name": "Burger King", "latitude": 40.588327, "longitude": -73.66365, "state": "NY" }, "geometry": { "type": "Point", "coordinates": [ -73.66365, 40.588327 ] } },
{ "type": "Feature", "properties": { "ZIP": "11550-4131", "address": "500 Fulton Avenue", "borough": "HEMPSTEAD", "chain_name": "Burger King", "latitude": 40.709636, "longitude": -73.614663, "state": "NY" }, "geometry": { "type": "Point", "coordinates": [ -73.614663, 40.709636 ] } },
{ "type": "Feature", "properties": { "ZIP": "10706-0055", "address": "Jackson Avenue, Mile Post 6n", "borough": "HASTING ON HUDSON", "chain_name": "Burger King", "latitude": 40.987874, "longitude": -73.838644, "state": "NY" }, "geometry": { "type": "Point", "coordinates": [ -73.838644, 40.987874 ] } },
{ "type": "Feature", "properties": { "ZIP": "11510-2917", "address": "2125 Grand Ave", "borough": "NORTH BALDWIN", "chain_name": "Burger King", "latitude": 40.658046, "longitude": -73.608551, "state": "NY" }, "geometry": { "type": "Point", "coordinates": [ -73.608551, 40.658046 ] } },
{ "type": "Feature", "properties": { "ZIP": "11590-5101", "address": "409 Old Country Road", "borough": "WESTBURY", "chain_name": "Burger King", "latitude": 40.746073, "longitude": -73.599669, "state": "NY" }, "geometry": { "type": "Point", "coordinates": [ -73.599669, 40.746073 ] } },
{ "type": "Feature", "properties": { "ZIP": "10583-1019", "address": "556 Central Park Avenue", "borough": "SCARSDALE", "chain_name": "Burger King", "latitude": 41.001223, "longitude": -73.814451, "state": "NY" }, "geometry": { "type": "Point", "coordinates": [ -73.814451, 41.001223 ] } },
{ "type": "Feature", "properties": { "ZIP": "11542-3707", "address": "3 Cedar Swamp Road", "borough": "GLEN COVE", "chain_name": "Burger King", "latitude": 40.858597, "longitude": -73.620134, "state": "NY" }, "geometry": { "type": "Point", "coordinates": [ -73.620134, 40.858597 ] } },
{ "type": "Feature", "properties": { "ZIP": "11753-1004", "address": "52 Jericho Tpke.", "borough": "JERICHO", "chain_name": "Burger King", "latitude": 40.778766, "longitude": -73.563855, "state": "NY" }, "geometry": { "type": "Point", "coordinates": [ -73.563855, 40.778766 ] } },
{ "type": "Feature", "properties": { "ZIP": "11566-4541", "address": "1727 Merrick Road", "borough": "MERRICK", "chain_name": "Burger King", "latitude": 40.653955, "longitude": -73.558149, "state": "NY" }, "geometry": { "type": "Point", "coordinates": [ -73.558149, 40.653955 ] } },
{ "type": "Feature", "properties": { "ZIP": "11554-2031", "address": "2450 Hempstead Turnpike", "borough": "EAST MEADOW", "chain_name": "Burger King", "latitude": 40.724463, "longitude": -73.545332, "state": "NY" }, "geometry": { "type": "Point", "coordinates": [ -73.545332, 40.724463 ] } },
{ "type": "Feature", "properties": { "ZIP": "10601-2601", "address": "100 Main St", "borough": "WHITE PLAINS", "chain_name": "Burger King", "latitude": 41.031878, "longitude": -73.770234, "state": "NY" }, "geometry": { "type": "Point", "coordinates": [ -73.770234, 41.031878 ] } },
{ "type": "Feature", "properties": { "ZIP": "10523-3413", "address": "265 E Main St", "borough": "ELMSFORD", "chain_name": "Burger King", "latitude": 41.048113, "longitude": -73.807515, "state": "NY" }, "geometry": { "type": "Point", "coordinates": [ -73.807515, 41.048113 ] } },
{ "type": "Feature", "properties": { "ZIP": "11793-2113", "address": "1131 Wantagh Avenue", "borough": "WANTAGH", "chain_name": "Burger King", "latitude": 40.695537, "longitude": -73.506741, "state": "NY" }, "geometry": { "type": "Point", "coordinates": [ -73.506741, 40.695537 ] } },
{ "type": "Feature", "properties": { "ZIP": "10573-4702", "address": "260 Boston Post Road", "borough": "PORT CHESTER", "chain_name": "Burger King", "latitude": 40.99644, "longitude": -73.671075, "state": "NY" }, "geometry": { "type": "Point", "coordinates": [ -73.671075, 40.99644 ] } },
{ "type": "Feature", "properties": { "ZIP": "10994-6612", "address": "3623 Palisades Center Drive", "borough": "WEST NYACK", "chain_name": "Burger King", "latitude": 41.097094, "longitude": -73.95535, "state": "NY" }, "geometry": { "type": "Point", "coordinates": [ -73.95535, 41.097094 ] } },
{ "type": "Feature", "properties": { "ZIP": "11803-4903", "address": "501 Old Country Road", "borough": "PLAINVIEW", "chain_name": "Burger King", "latitude": 40.769185, "longitude": -73.5009, "state": "NY" }, "geometry": { "type": "Point", "coordinates": [ -73.5009, 40.769185 ] } },
{ "type": "Feature", "properties": { "ZIP": "11791-4502", "address": "321 Jericho Turnpike", "borough": "SYOSSET", "chain_name": "Burger King", "latitude": 40.810624, "longitude": -73.50427, "state": "NY" }, "geometry": { "type": "Point", "coordinates": [ -73.50427, 40.810624 ] } },
{ "type": "Feature", "properties": { "ZIP": "10977-5222", "address": "160 Spring Valley Marktplace", "borough": "SPRING VALLEY", "chain_name": "Burger King", "latitude": 41.105609, "longitude": -74.029464, "state": "NY" }, "geometry": { "type": "Point", "coordinates": [ -74.029464, 41.105609 ] } },
{ "type": "Feature", "properties": { "ZIP": "11783-2635", "address": "3960 Sunrise Highway", "borough": "SEAFORD", "chain_name": "Burger King", "latitude": 40.674536, "longitude": -73.485711, "state": "NY" }, "geometry": { "type": "Point", "coordinates": [ -73.485711, 40.674536 ] } },
{ "type": "Feature", "properties": { "ZIP": "11714-5701", "address": "4201 Hempstead Turnpike", "borough": "BETHPAGE", "chain_name": "Burger King", "latitude": 40.726056, "longitude": -73.480926, "state": "NY" }, "geometry": { "type": "Point", "coordinates": [ -73.480926, 40.726056 ] } },
{ "type": "Feature", "properties": { "ZIP": "11735-4801", "address": "96 Route 110", "borough": "S FARMINGDALE", "chain_name": "Burger King", "latitude": 40.711973, "longitude": -73.429219, "state": "NY" }, "geometry": { "type": "Point", "coordinates": [ -73.429219, 40.711973 ] } },
{ "type": "Feature", "properties": { "ZIP": "11735-1703", "address": "1915 Broadhollow Rd", "borough": "FARMINGDALE", "chain_name": "Burger King", "latitude": 40.746084, "longitude": -73.42158, "state": "NY" }, "geometry": { "type": "Point", "coordinates": [ -73.42158, 40.746084 ] } },
{ "type": "Feature", "properties": { "ZIP": "11701-2513", "address": "1104 Sunrise Hwy", "borough": "AMITYVILLE", "chain_name": "Burger King", "latitude": 40.690016, "longitude": -73.408313, "state": "NY" }, "geometry": { "type": "Point", "coordinates": [ -73.408313, 40.690016 ] } },
{ "type": "Feature", "properties": { "ZIP": "10974-0287", "address": "Mile Marker 33 North", "borough": "SLOATSBURG", "chain_name": "Burger King", "latitude": 41.152122, "longitude": -74.188004, "state": "NY" }, "geometry": { "type": "Point", "coordinates": [ -74.188004, 41.152122 ] } },
{ "type": "Feature", "properties": { "ZIP": "11743-2747", "address": "241 New York Avenue", "borough": "HUNTINGTON", "chain_name": "Burger King", "latitude": 40.874419, "longitude": -73.425027, "state": "NY" }, "geometry": { "type": "Point", "coordinates": [ -73.425027, 40.874419 ] } },
{ "type": "Feature", "properties": { "ZIP": "11743-4412", "address": "837 New York Avenue", "borough": "HUNTINGTON", "chain_name": "Burger King", "latitude": 40.858675, "longitude": -73.417556, "state": "NY" }, "geometry": { "type": "Point", "coordinates": [ -73.417556, 40.858675 ] } },
{ "type": "Feature", "properties": { "ZIP": "11757-1134", "address": "700 Farmingdale Road", "borough": "LINDENHURST", "chain_name": "Burger King", "latitude": 40.714185, "longitude": -73.38196, "state": "NY" }, "geometry": { "type": "Point", "coordinates": [ -73.38196, 40.714185 ] } },
{ "type": "Feature", "properties": { "ZIP": "11704-8215", "address": "628 West Montauk Highway", "borough": "WEST BABYLON", "chain_name": "Burger King", "latitude": 40.68567, "longitude": -73.344847, "state": "NY" }, "geometry": { "type": "Point", "coordinates": [ -73.344847, 40.68567 ] } },
{ "type": "Feature", "properties": { "ZIP": "11703-2715", "address": "1300 Deer Park Avenue", "borough": "NORTH BABYLON", "chain_name": "Burger King", "latitude": 40.74074, "longitude": -73.321481, "state": "NY" }, "geometry": { "type": "Point", "coordinates": [ -73.321481, 40.74074 ] } },
{ "type": "Feature", "properties": { "ZIP": "11743-5713", "address": "1760 East Jericho Turnpike", "borough": "HUNTINGTON", "chain_name": "Burger King", "latitude": 40.834415, "longitude": -73.337113, "state": "NY" }, "geometry": { "type": "Point", "coordinates": [ -73.337113, 40.834415 ] } },
{ "type": "Feature", "properties": { "ZIP": "10549-1150", "address": "230 N. Bedford Road", "borough": "MOUNT KISCO", "chain_name": "Burger King", "latitude": 41.208667, "longitude": -73.722497, "state": "NY" }, "geometry": { "type": "Point", "coordinates": [ -73.722497, 41.208667 ] } },
{ "type": "Feature", "properties": { "ZIP": "11725-2807", "address": "6021 East Jericho Turnpike", "borough": "COMMACK", "chain_name": "Burger King", "latitude": 40.841554, "longitude": -73.307954, "state": "NY" }, "geometry": { "type": "Point", "coordinates": [ -73.307954, 40.841554 ] } },
{ "type": "Feature", "properties": { "ZIP": "11706-8410", "address": "335 Montauk Highway", "borough": "BAY SHORE", "chain_name": "Burger King", "latitude": 40.725913, "longitude": -73.238096, "state": "NY" }, "geometry": { "type": "Point", "coordinates": [ -73.238096, 40.725913 ] } },
{ "type": "Feature", "properties": { "ZIP": "10598-4424", "address": "385 Downing Drive", "borough": "YORKTOWN HTS", "chain_name": "Burger King", "latitude": 41.27428, "longitude": -73.783789, "state": "NY" }, "geometry": { "type": "Point", "coordinates": [ -73.783789, 41.27428 ] } },
{ "type": "Feature", "properties": { "ZIP": "10566-2506", "address": "East Main Street-Route 6", "borough": "PEEKSKILL", "chain_name": "Burger King", "latitude": 41.297644, "longitude": -73.889151, "state": "NY" }, "geometry": { "type": "Point", "coordinates": [ -73.889151, 41.297644 ] } },
{ "type": "Feature", "properties": { "ZIP": "11787-3206", "address": "942 W Jericho Tpke", "borough": "SMITHTOWN", "chain_name": "Burger King", "latitude": 40.848402, "longitude": -73.245569, "state": "NY" }, "geometry": { "type": "Point", "coordinates": [ -73.245569, 40.848402 ] } },
{ "type": "Feature", "properties": { "ZIP": "11722-2143", "address": "121 West Suffolk Avenue", "borough": "CENTRAL ISLIP", "chain_name": "Burger King", "latitude": 40.787905, "longitude": -73.217664, "state": "NY" }, "geometry": { "type": "Point", "coordinates": [ -73.217664, 40.787905 ] } },
{ "type": "Feature", "properties": { "ZIP": "10990-1504", "address": "8 Oakland Avenue", "borough": "WARWICK", "chain_name": "Burger King", "latitude": 41.255627, "longitude": -74.360594, "state": "NY" }, "geometry": { "type": "Point", "coordinates": [ -74.360594, 41.255627 ] } },
{ "type": "Feature", "properties": { "ZIP": "11788-4350", "address": "505 State Hwy 111", "borough": "HAUPPAUGE", "chain_name": "Burger King", "latitude": 40.829488, "longitude": -73.198413, "state": "NY" }, "geometry": { "type": "Point", "coordinates": [ -73.198413, 40.829488 ] } },
{ "type": "Feature", "properties": { "ZIP": "10950-0000", "address": "831 Route 17M & Gilbert St", "borough": "MONROE", "chain_name": "Burger King", "latitude": 41.335807, "longitude": -74.192835, "state": "NY" }, "geometry": { "type": "Point", "coordinates": [ -74.192835, 41.335807 ] } },
{ "type": "Feature", "properties": { "ZIP": "10918-3300", "address": "3 Bryle Pl", "borough": "CHESTER", "chain_name": "Burger King", "latitude": 41.356383, "longitude": -74.284022, "state": "NY" }, "geometry": { "type": "Point", "coordinates": [ -74.284022, 41.356383 ] } },
{ "type": "Feature", "properties": { "ZIP": "10996-0000", "address": "West Point-BK", "borough": "WEST POINT", "chain_name": "Burger King", "latitude": 41.391765, "longitude": -73.957879, "state": "NY" }, "geometry": { "type": "Point", "coordinates": [ -73.957879, 41.391765 ] } },
{ "type": "Feature", "properties": { "ZIP": "11716-4615", "address": "5141 Sunrise Highway", "borough": "BOHEMIA", "chain_name": "Burger King", "latitude": 40.762493, "longitude": -73.096349, "state": "NY" }, "geometry": { "type": "Point", "coordinates": [ -73.096349, 40.762493 ] } },
{ "type": "Feature", "properties": { "ZIP": "11779-2347", "address": "254 Portion Road", "borough": "LAKE RONKONKOMA", "chain_name": "Burger King", "latitude": 40.826923, "longitude": -73.103139, "state": "NY" }, "geometry": { "type": "Point", "coordinates": [ -73.103139, 40.826923 ] } },
{ "type": "Feature", "properties": { "ZIP": "11790-3502", "address": "2488 Nesconset Highway", "borough": "STONY BROOK", "chain_name": "Burger King", "latitude": 40.877983, "longitude": -73.116576, "state": "NY" }, "geometry": { "type": "Point", "coordinates": [ -73.116576, 40.877983 ] } },
{ "type": "Feature", "properties": { "ZIP": "11720-3558", "address": "1880 Middle Country Road", "borough": "CENTEREACH", "chain_name": "Burger King", "latitude": 40.858812, "longitude": -73.078561, "state": "NY" }, "geometry": { "type": "Point", "coordinates": [ -73.078561, 40.858812 ] } },
{ "type": "Feature", "properties": { "ZIP": "10924-1962", "address": "33 Matthew Street", "borough": "GOSHEN", "chain_name": "Burger King", "latitude": 41.396572, "longitude": -74.335464, "state": "NY" }, "geometry": { "type": "Point", "coordinates": [ -74.335464, 41.396572 ] } },
{ "type": "Feature", "properties": { "ZIP": "10509-0000", "address": "Lakeview Plaza", "borough": "BREWSTER", "chain_name": "Burger King", "latitude": 41.421472, "longitude": -73.57755, "state": "NY" }, "geometry": { "type": "Point", "coordinates": [ -73.57755, 41.421472 ] } },
{ "type": "Feature", "properties": { "ZIP": "12584-0000", "address": "Big V Shopping Center", "borough": "VAILS GATE", "chain_name": "Burger King", "latitude": 41.485457, "longitude": -74.055291, "state": "NY" }, "geometry": { "type": "Point", "coordinates": [ -74.055291, 41.485457 ] } },
{ "type": "Feature", "properties": { "ZIP": "11715-1139", "address": "32 Montauk Highway", "borough": "BLUE POINT", "chain_name": "Burger King", "latitude": 40.751766, "longitude": -73.039818, "state": "NY" }, "geometry": { "type": "Point", "coordinates": [ -73.039818, 40.751766 ] } },
{ "type": "Feature", "properties": { "ZIP": "11772-1588", "address": "500 Waverly Ave", "borough": "PATCHOGUE", "chain_name": "Burger King", "latitude": 40.781829, "longitude": -73.03702, "state": "NY" }, "geometry": { "type": "Point", "coordinates": [ -73.03702, 40.781829 ] } },
{ "type": "Feature", "properties": { "ZIP": "11738-2911", "address": "2250 North Ocean Avenue", "borough": "FARMINGVILLE", "chain_name": "Burger King", "latitude": 40.827599, "longitude": -73.022046, "state": "NY" }, "geometry": { "type": "Point", "coordinates": [ -73.022046, 40.827599 ] } },
{ "type": "Feature", "properties": { "ZIP": "11772-1214", "address": "246 Medford Ave", "borough": "PATCHOGUE", "chain_name": "Burger King", "latitude": 40.776195, "longitude": -73.0088, "state": "NY" }, "geometry": { "type": "Point", "coordinates": [ -73.0088, 40.776195 ] } },
{ "type": "Feature", "properties": { "ZIP": "11727-4401", "address": "281 Middle Country Road", "borough": "CORAM", "chain_name": "Burger King", "latitude": 40.871883, "longitude": -72.997723, "state": "NY" }, "geometry": { "type": "Point", "coordinates": [ -72.997723, 40.871883 ] } },
{ "type": "Feature", "properties": { "ZIP": "12550-5008", "address": "80 State Hwy 17k", "borough": "NEWBURGH", "chain_name": "Burger King", "latitude": 41.505655, "longitude": -74.07207, "state": "NY" }, "geometry": { "type": "Point", "coordinates": [ -74.07207, 41.505655 ] } },
{ "type": "Feature", "properties": { "ZIP": "12550-2112", "address": "10 North Plank Road", "borough": "NEWBURGH", "chain_name": "Burger King", "latitude": 41.521045, "longitude": -74.023512, "state": "NY" }, "geometry": { "type": "Point", "coordinates": [ -74.023512, 41.521045 ] } },
{ "type": "Feature", "properties": { "ZIP": "12524-1378", "address": "730 RT. 9", "borough": "FISHKILL", "chain_name": "Burger King", "latitude": 41.537499, "longitude": -73.899634, "state": "NY" }, "geometry": { "type": "Point", "coordinates": [ -73.899634, 41.537499 ] } },
{ "type": "Feature", "properties": { "ZIP": "12549-2611", "address": "2076 State Route 208", "borough": "MONTGOMERY", "chain_name": "Burger King", "latitude": 41.51243, "longitude": -74.206679, "state": "NY" }, "geometry": { "type": "Point", "coordinates": [ -74.206679, 41.51243 ] } }
]
}
