{
"type": "FeatureCollection",
"crs": { "type": "name", "properties": { "name": "urn:ogc:def:crs:OGC:1.3:CRS84" } },
"features": [
{ "type": "Feature", "properties": { "ZIP": "10003", "address": "242 E 14th St", "borough": "New York", "chain_name": "KFC", "latitude": 40.732293, "longitude": -73.985217, "state": "NY" }, "geometry": { "type": "Point", "coordinates": [ -73.985217, 40.732293 ] } },
{ "type": "Feature", "properties": { "ZIP": "10001", "address": "2 Penn Plaza", "borough": "New York", "chain_name": "KFC", "latitude": 40.750969, "longitude": -73.993423, "state": "NY" }, "geometry": { "type": "Point", "coordinates": [ -73.993423, 40.750969 ] } },
{ "type": "Feature", "properties": { "ZIP": "11222", "address": "208 McGuinness Boulevard", "borough": "Brooklyn", "chain_name": "KFC", "latitude": 40.729782, "longitude": -73.95062, "state": "NY" }, "geometry": { "type": "Point", "coordinates": [ -73.95062, 40.729782 ] } },
{ "type": "Feature", "properties": { "ZIP": "11205", "address": "1040 Bedford Avenue", "borough": "Brooklyn", "chain_name": "KFC", "latitude": 40.68941, "longitude": -73.95529, "state": "NY" }, "geometry": { "type": "Point", "coordinates": [ -73.95529, 40.68941 ] } },
{ "type": "Feature", "properties": { "ZIP": "10019", "address": "761 Seventh Avenue", "borough": "New York", "chain_name": "KFC", "latitude": 40.761067, "longitude": -73.983015, "state": "NY" }, "geometry": { "type": "Point", "coordinates": [ -73.983015, 40.761067 ] } },
{ "type": "Feature", "properties": { "ZIP": "11216", "address": "495 Nostrand Ave", "borough": "Brooklyn", "chain_name": "KFC", "latitude": 40.680314, "longitude": -73.949363, "state": "NY" }, "geometry": { "type": "Point", "coordinates": [ -73.949363, 40.680314 ] } },
{ "type": "Feature", "properties": { "ZIP": "11232", "address": "798-812 4th Avenue", "borough": "Brooklyn", "chain_name": "KFC", "latitude": 40.659176, "longitude": -73.999705, "state": "NY" }, "geometry": { "type": "Point", "coordinates": [ -73.999705, 40.659176 ] } },
{ "type": "Feature", "properties": { "ZIP": "11220", "address": "5219-5233 Fifth Avenue", "borough": "Brooklyn", "chain_name": "KFC", "latitude": 40.643385, "longitude": -74.011835, "state": "NY" }, "geometry": { "type": "Point", "coordinates": [ -74.011835, 40.643385 ] } },
{ "type": "Feature", "properties": { "ZIP": "11237", "address": "1556 Myrtle Avenue", "borough": "Brooklyn", "chain_name": "KFC", "latitude": 40.699474, "longitude": -73.911411, "state": "NY" }, "geometry": { "type": "Point", "coordinates": [ -73.911411, 40.699474 ] } },
{ "type": "Feature", "properties": { "ZIP": "11218", "address": "534 Coney Island Avenue", "borough": "Brooklyn", "chain_name": "KFC", "latitude": 40.644209, "longitude": -73.970425, "state": "NY" }, "geometry": { "type": "Point", "coordinates": [ -73.970425, 40.644209 ] } },
{ "type": "Feature", "properties": { "ZIP": "11226", "address": "942 Flatbush Ave", "borough": "Brooklyn", "chain_name": "KFC", "latitude": 40.64848, "longitude": -73.95841, "state": "NY" }, "geometry": { "type": "Point", "coordinates": [ -73.95841, 40.64848 ] } },
{ "type": "Feature", "properties": { "ZIP": "11203", "address": "458 Utica Ave", "borough": "Brooklyn", "chain_name": "KFC", "latitude": 40.66239, "longitude": -73.931719, "state": "NY" }, "geometry": { "type": "Point", "coordinates": [ -73.931719, 40.66239 ] } },
{ "type": "Feature", "properties": { "ZIP": "11379", "address": "62-02 Fresh Pond Road", "borough": "Middle Village", "chain_name": "KFC", "latitude": 40.713746, "longitude": -73.901388, "state": "NY" }, "geometry": { "type": "Point", "coordinates": [ -73.901388, 40.713746 ] } },
{ "type": "Feature", "properties": { "ZIP": "11377", "address": "5717 Queens Blvd", "borough": "Woodside", "chain_name": "KFC", "latitude": 40.742216, "longitude": -73.907818, "state": "NY" }, "geometry": { "type": "Point", "coordinates": [ -73.907818, 40.742216 ] } },
{ "type": "Feature", "properties": { "ZIP": "11103", "address": "3042 Steinway Street", "borough": "Astoria", "chain_name": "KFC", "latitude": 40.762877, "longitude": -73.916031, "state": "NY" }, "geometry": { "type": "Point", "coordinates": [ -73.916031, 40.762877 ] } },
{ "type": "Feature", "properties": { "ZIP": "11212", "address": "1667 Pitkin Ave", "borough": "Brooklyn", "chain_name": "KFC", "latitude": 40.669655, "longitude": -73.91178, "state": "NY" }, "geometry": { "type": "Point", "coordinates": [ -73.91178, 40.669655 ] } },
{ "type": "Feature", "properties": { "ZIP": "10029", "address": "1922 Third Avenue", "borough": "Manhattan", "chain_name": "KFC", "latitude": 40.791547, "longitude": -73.944919, "state": "NY" }, "geometry": { "type": "Point", "coordinates": [ -73.944919, 40.791547 ] } },
{ "type": "Feature", "properties": { "ZIP": "10025", "address": "2755 Broadway", "borough": "New York", "chain_name": "KFC", "latitude": 40.80123, "longitude": -73.96817, "state": "NY" }, "geometry": { "type": "Point", "coordinates": [ -73.96817, 40.80123 ] } },
{ "type": "Feature", "properties": { "ZIP": "11209", "address": "9201 5th Ave", "borough": "Brooklyn", "chain_name": "KFC", "latitude": 40.617718, "longitude": -74.029187, "state": "NY" }, "geometry": { "type": "Point", "coordinates": [ -74.029187, 40.617718 ] } },
{ "type": "Feature", "properties": { "ZIP": "11234", "address": "1615 Utica Avenue", "borough": "Brooklyn", "chain_name": "KFC", "latitude": 40.633232, "longitude": -73.928152, "state": "NY" }, "geometry": { "type": "Point", "coordinates": [ -73.928152, 40.633232 ] } },
{ "type": "Feature", "properties": { "ZIP": "11373", "address": "9015 Queens Blvd, FC2", "borough": "Flushing", "chain_name": "KFC", "latitude": 40.73412, "longitude": -73.87124, "state": "NY" }, "geometry": { "type": "Point", "coordinates": [ -73.87124, 40.73412 ] } },
{ "type": "Feature", "properties": { "ZIP": "11372", "address": "8715 Northern Blvd", "borough": "Flushing", "chain_name": "KFC", "latitude": 40.756298, "longitude": -73.880172, "state": "NY" }, "geometry": { "type": "Point", "coordinates": [ -73.880172, 40.756298 ] } },
{ "type": "Feature", "properties": { "ZIP": "11236", "address": "108-30 Flatlands Ave", "borough": "Brooklyn", "chain_name": "KFC", "latitude": 40.649443, "longitude": -73.891613, "state": "NY" }, "geometry": { "type": "Point", "coordinates": [ -73.891613, 40.649443 ] } },
{ "type": "Feature", "properties": { "ZIP": "11223", "address": "2026 Coney Island Ave", "borough": "Brooklyn", "chain_name": "KFC", "latitude": 40.607743, "longitude": -73.962127, "state": "NY" }, "geometry": { "type": "Point", "coordinates": [ -73.962127, 40.607743 ] } },
{ "type": "Feature", "properties": { "ZIP": "11234", "address": "2160 Flatbush Avenue", "borough": "Brooklyn", "chain_name": "KFC", "latitude": 40.61706, "longitude": -73.931024, "state": "NY" }, "geometry": { "type": "Point", "coordinates": [ -73.931024, 40.61706 ] } },
{ "type": "Feature", "properties": { "ZIP": "11421", "address": "87-19 Jamaica Avenue", "borough": "Woodhaven", "chain_name": "KFC", "latitude": 40.692844, "longitude": -73.856632, "state": "NY" }, "geometry": { "type": "Point", "coordinates": [ -73.856632, 40.692844 ] } },
{ "type": "Feature", "properties": { "ZIP": "10039", "address": "707 Lenox Ave.", "borough": "New York", "chain_name": "KFC", "latitude": 40.820938, "longitude": -73.936166, "state": "NY" }, "geometry": { "type": "Point", "coordinates": [ -73.936166, 40.820938 ] } },
{ "type": "Feature", "properties": { "ZIP": "10455", "address": "375 East 149th Street", "borough": "Bronx", "chain_name": "KFC", "latitude": 40.816478, "longitude": -73.918489, "state": "NY" }, "geometry": { "type": "Point", "coordinates": [ -73.918489, 40.816478 ] } },
{ "type": "Feature", "properties": { "ZIP": "10031", "address": "3645 Broadway", "borough": "New York", "chain_name": "KFC", "latitude": 40.82983, "longitude": -73.94828, "state": "NY" }, "geometry": { "type": "Point", "coordinates": [ -73.94828, 40.82983 ] } },
{ "type": "Feature", "properties": { "ZIP": "10302", "address": "1453 Forest Ave", "borough": "Staten Island", "chain_name": "KFC", "latitude": 40.624502, "longitude": -74.137033, "state": "NY" }, "geometry": { "type": "Point", "coordinates": [ -74.137033, 40.624502 ] } },
{ "type": "Feature", "properties": { "ZIP": "11414", "address": "158-50 Cross Bay Blvd.", "borough": "Howard Beach", "chain_name": "KFC", "latitude": 40.659492, "longitude": -73.840248, "state": "NY" }, "geometry": { "type": "Point", "coordinates": [ -73.840248, 40.659492 ] } },
{ "type": "Feature", "properties": { "ZIP": "11435", "address": "140-04 Queens Boulevard", "borough": "Jamaica", "chain_name": "KFC", "latitude": 40.703752, "longitude": -73.815328, "state": "NY" }, "geometry": { "type": "Point", "coordinates": [ -73.815328, 40.703752 ] } },
{ "type": "Feature", "properties": { "ZIP": "11366", "address": "158-05 Union Turnpike", "borough": "Flushing", "chain_name": "KFC", "latitude": 40.720398, "longitude": -73.808924, "state": "NY" }, "geometry": { "type": "Point", "coordinates": [ -73.808924, 40.720398 ] } },
{ "type": "Feature", "properties": { "ZIP": "10457", "address": "1731 Webster Avenue", "borough": "Bronx", "chain_name": "KFC", "latitude": 40.843897, "longitude": -73.903344, "state": "NY" }, "geometry": { "type": "Point", "coordinates": [ -73.903344, 40.843897 ] } },
{ "type": "Feature", "properties": { "ZIP": "11354", "address": "152-03 Northern Blvd", "borough": "Flushing", "chain_name": "KFC", "latitude": 40.76528, "longitude": -73.812717, "state": "NY" }, "geometry": { "type": "Point", "coordinates": [ -73.812717, 40.76528 ] } },
{ "type": "Feature", "properties": { "ZIP": "10472", "address": "1959 Bruckner Blvd", "borough": "Bronx", "chain_name": "KFC", "latitude": 40.826714, "longitude": -73.85771, "state": "NY" }, "geometry": { "type": "Point", "coordinates": [ -73.85771, 40.826714 ] } },
{ "type": "Feature", "properties": { "ZIP": "10306", "address": "2471 Hylan Blvd", "borough": "Staten Island", "chain_name": "KFC", "latitude": 40.570944, "longitude": -74.109577, "state": "NY" }, "geometry": { "type": "Point", "coordinates": [ -74.109577, 40.570944 ] } },
{ "type": "Feature", "properties": { "ZIP": "11432", "address": "175-46 Hillside Ave", "borough": "Jamaica", "chain_name": "KFC", "latitude": 40.71188, "longitude": -73.78604, "state": "NY" }, "geometry": { "type": "Point", "coordinates": [ -73.78604, 40.71188 ] } },
{ "type": "Feature", "properties": { "ZIP": "11434", "address": "152-12 Rockaway Blvd.", "borough": "Jamaica", "chain_name": "KFC", "latitude": 40.671979, "longitude": -73.78535, "state": "NY" }, "geometry": { "type": "Point", "coordinates": [ -73.78535, 40.671979 ] } },
{ "type": "Feature", "properties": { "ZIP": "10314", "address": "2655 Richmond Avenue", "borough": "Staten Island", "chain_name": "KFC", "latitude": 40.581348, "longitude": -74.166015, "state": "NY" }, "geometry": { "type": "Point", "coordinates": [ -74.166015, 40.581348 ] } },
{ "type": "Feature", "properties": { "ZIP": "10463", "address": "5625 Broadway", "borough": "Bronx", "chain_name": "KFC", "latitude": 40.880075, "longitude": -73.90415, "state": "NY" }, "geometry": { "type": "Point", "coordinates": [ -73.90415, 40.880075 ] } },
{ "type": "Feature", "properties": { "ZIP": "10469", "address": "1125 E Gun Hill Rd.", "borough": "Bronx", "chain_name": "KFC", "latitude": 40.873674, "longitude": -73.854167, "state": "NY" }, "geometry": { "type": "Point", "coordinates": [ -73.854167, 40.873674 ] } },
{ "type": "Feature", "properties": { "ZIP": "11411", "address": "117-05 Francis Lewis Blvd.", "borough": "Cambria Heights", "chain_name": "KFC", "latitude": 40.69615, "longitude": -73.745749, "state": "NY" }, "geometry": { "type": "Point", "coordinates": [ -73.745749, 40.69615 ] } },
{ "type": "Feature", "properties": { "ZIP": "10469", "address": "3770 Boston Rd.", "borough": "Bronx", "chain_name": "KFC", "latitude": 40.880864, "longitude": -73.838832, "state": "NY" }, "geometry": { "type": "Point", "coordinates": [ -73.838832, 40.880864 ] } },
{ "type": "Feature", "properties": { "ZIP": "11691", "address": "1312 Beach Channel Drive", "borough": "Far Rockaway", "chain_name": "KFC", "latitude": 40.60559, "longitude": -73.7548, "state": "NY" }, "geometry": { "type": "Point", "coordinates": [ -73.7548, 40.60559 ] } },
{ "type": "Feature", "properties": { "ZIP": "11003", "address": "311 Hempstead Turnpike", "borough": "Elmont", "chain_name": "KFC", "latitude": 40.707813, "longitude": -73.715635, "state": "NY" }, "geometry": { "type": "Point", "coordinates": [ -73.715635, 40.707813 ] } }
]
}
